{"version": 0.6, "generator": "Overpass API 0.7.62.10 2d4cfc48", "osm3s": {"timestamp_osm_base": "2026-02-13T19:24:59Z", "copyright": "The data included in this document is from www.openstreetmap.org. The data is made available under ODbL."}, "elements": [{"type": "node", "id": 845102460, "lat": -25.0839889, "lon": -50.1729068}, {"type": "node", "id": 845139320, "lat": -25.1092401, "lon": -50.1596823}, {"type": "node", "id": 845504629, "lat": -25.0853573, "lon": -50.1774878}, {"type": "node", "id": 845504630, "lat": -25.0858522, "lon": -50.1777813}, {"type": "node", "id": 845504631, "lat": -25.0859951, "lon": -50.1773154}, {"type": "node", "id": 845504632, "lat": -25.0855101, "lon": -50.177066}, {"type": "node", "id": 845504715, "lat": -25.0927985, "lon": -50.1699843, "tags": {"amenity": "school", "name": "Col\u00e9gio SESI"}}, {"type": "node", "id": 845978994, "lat": -25.0941049, "lon": -50.2051089}, {"type": "node", "id": 848165486, "lat": -25.1074258, "lon": -50.1662698}, {"type": "node", "id": 848165570, "lat": -25.1114272, "lon": -50.1611294}, {"type": "node", "id": 848165571, "lat": -25.1109645, "lon": -50.1614848}, {"type": "node", "id": 848165580, "lat": -25.1110641, "lon": -50.1605447}, {"type": "node", "id": 848165581, "lat": -25.110599, "lon": -50.1608893}, {"type": "node", "id": 848165664, "lat": -25.1005016, "lon": -50.1630759}, {"type": "node", "id": 848167009, "lat": -25.1042923, "lon": -50.165553}, {"type": "node", "id": 848167010, "lat": -25.1043914, "lon": -50.1654136}, {"type": "node", "id": 848167011, "lat": -25.104227, "lon": -50.1652712}, {"type": "node", "id": 848167012, "lat": -25.1043558, "lon": -50.1650899}, {"type": "node", "id": 848167013, "lat": -25.104503, "lon": -50.1652174}, {"type": "node", "id": 848167014, "lat": -25.1045746, "lon": -50.1651167}, {"type": "node", "id": 848167015, "lat": -25.104213, "lon": -50.1648035}, {"type": "node", "id": 848167016, "lat": -25.1041097, "lon": -50.1649488}, {"type": "node", "id": 848167017, "lat": -25.1042214, "lon": -50.1650456}, {"type": "node", "id": 848167018, "lat": -25.1041327, "lon": -50.1651704}, {"type": "node", "id": 848167019, "lat": -25.1040277, "lon": -50.1650795}, {"type": "node", "id": 848167020, "lat": -25.1039203, "lon": -50.1652307}, {"type": "node", "id": 848167063, "lat": -25.1232557, "lon": -50.1599194, "tags": {"amenity": "restaurant", "cuisine": "barbecue", "name": "Churrascaria Lugano"}}, {"type": "node", "id": 853366724, "lat": -25.0835034, "lon": -50.1347852}, {"type": "node", "id": 859537379, "lat": -25.1052671, "lon": -50.1515047, "tags": {"addr:housenumber": "699", "addr:postcode": "84035-060", "addr:street": "Rua Dom\u00edcio da Gama", "amenity": "school", "name": "Escola Municipal Vereador Orival Carneiro Martins", "source": "Prefeitura de Ponta Grossa - PR", "source_ref": "http://wiki.openstreetmap.org/wiki/Pt-br:WikiProject_Brazil/PR/Ponta_Grossa/Agreement"}}, {"type": "node", "id": 859537380, "lat": -25.0694453, "lon": -50.1635789, "tags": {"addr:housenumber": "143", "addr:postcode": "84015-070", "addr:street": "Rua Eg\u00eddio Don\u00e1", "amenity": "school", "name": "Escola Municipal Professora Maria Vit\u00f3ria Braga Ra", "source": "Prefeitura de Ponta Grossa - PR", "source_ref": "http://wiki.openstreetmap.org/wiki/Pt-br:WikiProject_Brazil/PR/Ponta_Grossa/Agreement"}}, {"type": "node", "id": 859537381, "lat": -25.0780976, "lon": -50.1337149, "tags": {"addr:housenumber": "2001", "addr:postcode": "84020-010", "addr:street": "Rua Fagundes Varela", "amenity": "school", "name": "Escola Municipal Professora Ruth Holzmann Ribas", "source": "Prefeitura de Ponta Grossa - PR", "source_ref": "http://wiki.openstreetmap.org/wiki/Pt-br:WikiProject_Brazil/PR/Ponta_Grossa/Agreement"}}, {"type": "node", "id": 859537382, "lat": -25.0923214, "lon": -50.1319743, "tags": {"addr:housenumber": "2145", "addr:postcode": "84025-000", "addr:street": "Avenida General Carlos Cavalcanti", "amenity": "school", "name": "Escola Estadual General Ant\u00f4nio Sampaio", "source": "Prefeitura de Ponta Grossa - PR", "source_ref": "http://wiki.openstreetmap.org/wiki/Pt-br:WikiProject_Brazil/PR/Ponta_Grossa/Agreement"}}, {"type": "node", "id": 859537383, "lat": -25.0985707, "lon": -50.1592301, "tags": {"addr:housenumber": "537", "addr:postcode": "84001-970", "addr:street": "Rua Santana", "amenity": "school", "name": "Escola Municipal Thereza Cristina Pusch", "source": "Prefeitura de Ponta Grossa - PR", "source_ref": "http://wiki.openstreetmap.org/wiki/Pt-br:WikiProject_Brazil/PR/Ponta_Grossa/Agreement"}}, {"type": "node", "id": 859537384, "lat": -25.0811689, "lon": -50.2367805, "tags": {"addr:housenumber": "88", "addr:street": "Avenida Bernardino de Campos", "amenity": "school", "name": "Escola Municipal Fel\u00edcio Franscisquini", "source": "Prefeitura de Ponta Grossa - PR", "source_ref": "http://wiki.openstreetmap.org/wiki/Pt-br:WikiProject_Brazil/PR/Ponta_Grossa/Agreement"}}, {"type": "node", "id": 859537385, "lat": -25.0782256, "lon": -50.1782109, "tags": {"addr:housenumber": "1076", "addr:street": "Rua Visconde de Porto Alegre", "amenity": "school", "name": "Escola Municipal S\u00e3o Jorge", "source": "Prefeitura de Ponta Grossa - PR", "source_ref": "http://wiki.openstreetmap.org/wiki/Pt-br:WikiProject_Brazil/PR/Ponta_Grossa/Agreement"}}, {"type": "node", "id": 859537386, "lat": -25.120542, "lon": -50.1436357, "tags": {"addr:housenumber": "1004", "addr:postcode": "84036-150", "addr:street": "Avenida Aldo Vergani", "amenity": "school", "name": "Escola Estadual Maestro Bento Mossurunga", "source": "Prefeitura de Ponta Grossa - PR", "source_ref": "http://wiki.openstreetmap.org/wiki/Pt-br:WikiProject_Brazil/PR/Ponta_Grossa/Agreement"}}, {"type": "node", "id": 859537388, "lat": -25.065647, "lon": -50.1546899, "tags": {"addr:housenumber": "34", "addr:postcode": "84015-140", "addr:street": "Rua Casemiro Popinigis", "amenity": "school", "name": "Escola Municipal Doutor Guilherme Heller Bauer", "source": "Prefeitura de Ponta Grossa - PR", "source_ref": "http://wiki.openstreetmap.org/wiki/Pt-br:WikiProject_Brazil/PR/Ponta_Grossa/Agreement"}}, {"type": "node", "id": 859537389, "lat": -25.0484777, "lon": -50.1406237, "tags": {"addr:street": "Avenida Israel", "amenity": "school", "name": "Escola Estadual Doranh Gomes Daitchaman", "postal_code": "84016-645", "source": "Prefeitura de Ponta Grossa - PR", "source_ref": "http://wiki.openstreetmap.org/wiki/Pt-br:WikiProject_Brazil/PR/Ponta_Grossa/Agreement"}}, {"type": "node", "id": 859537390, "lat": -25.0922514, "lon": -50.1185862, "tags": {"addr:housenumber": "3453", "addr:postcode": "84030-000", "addr:street": "Avenida General Carlos Cavalcanti", "amenity": "school", "name": "Escola Municipal Professora Otac\u00edlia Hasselmann de", "source": "Prefeitura de Ponta Grossa - PR", "source_ref": "http://wiki.openstreetmap.org/wiki/Pt-br:WikiProject_Brazil/PR/Ponta_Grossa/Agreement"}}, {"type": "node", "id": 859537392, "lat": -25.0541322, "lon": -50.1465013, "tags": {"addr:housenumber": "935", "addr:postcode": "84016-630", "addr:street": "Avenida Ant\u00f4nio Saad", "amenity": "school", "name": "Escola Municipal Professora Judith Macedo Silveira", "source": "Prefeitura de Ponta Grossa - PR", "source_ref": "http://wiki.openstreetmap.org/wiki/Pt-br:WikiProject_Brazil/PR/Ponta_Grossa/Agreement"}}, {"type": "node", "id": 859537393, "lat": -25.1720237, "lon": -50.1329261, "tags": {"addr:street": "Rua Dourados", "amenity": "school", "name": "Escola Municipal Agenoridas Stadler", "source": "Prefeitura de Ponta Grossa - PR", "source_ref": "http://wiki.openstreetmap.org/wiki/Pt-br:WikiProject_Brazil/PR/Ponta_Grossa/Agreement"}}, {"type": "node", "id": 859537394, "lat": -25.0679041, "lon": -50.2060441, "tags": {"addr:housenumber": "445", "addr:postcode": "84001-970", "addr:street": "Rua Bas\u00edlio da Gama", "amenity": "school", "name": "Escola Municipal Professor Walter Elias", "source": "Prefeitura de Ponta Grossa - PR", "source_ref": "http://wiki.openstreetmap.org/wiki/Pt-br:WikiProject_Brazil/PR/Ponta_Grossa/Agreement"}}, {"type": "node", "id": 859537395, "lat": -25.0582174, "lon": -50.167717, "tags": {"addr:housenumber": "370", "addr:postcode": "84073-110", "addr:street": "Rua Paulo Wagnitz", "amenity": "school", "name": "Escola Municipal Prefeito Jos\u00e9 Bonif\u00e1cio Guimar\u00e3es", "source": "Prefeitura de Ponta Grossa - PR", "source_ref": "http://wiki.openstreetmap.org/wiki/Pt-br:WikiProject_Brazil/PR/Ponta_Grossa/Agreement"}}, {"type": "node", "id": 859537396, "lat": -25.0654794, "lon": -50.2079441, "tags": {"addr:housenumber": "109", "addr:street": "Rua S\u00e3o M\u00e1rio", "amenity": "school", "name": "Escola Municipal Professora Maria Antonia Andrade", "source": "Prefeitura de Ponta Grossa - PR", "source_ref": "http://wiki.openstreetmap.org/wiki/Pt-br:WikiProject_Brazil/PR/Ponta_Grossa/Agreement"}}, {"type": "node", "id": 859537399, "lat": -25.0929083, "lon": -50.1308389, "tags": {"addr:housenumber": "2145", "addr:postcode": "84025-000", "addr:street": "Avenida General Carlos Cavalcanti", "amenity": "school", "name": "Escola Municipal Eno Teodoro Wanke", "source": "Prefeitura de Ponta Grossa - PR", "source_ref": "http://wiki.openstreetmap.org/wiki/Pt-br:WikiProject_Brazil/PR/Ponta_Grossa/Agreement"}}, {"type": "node", "id": 859537400, "lat": -25.0770948, "lon": -50.1681766, "tags": {"addr:housenumber": "1187", "addr:postcode": "84070-270", "addr:street": "Rua J\u00falia Lopes", "amenity": "school", "name": "Escola Municipal Catarina Mir\u00f3", "source": "Prefeitura de Ponta Grossa - PR", "source_ref": "http://wiki.openstreetmap.org/wiki/Pt-br:WikiProject_Brazil/PR/Ponta_Grossa/Agreement"}}, {"type": "node", "id": 859537401, "lat": -25.0788628, "lon": -50.1297907, "tags": {"addr:housenumber": "2730", "addr:postcode": "84020-360", "addr:street": "Rua Almirante Barroso", "amenity": "school", "name": "Escola Municipal Prefeito Doutor Plauto Mir\u00f3 Guima", "source": "Prefeitura de Ponta Grossa - PR", "source_ref": "http://wiki.openstreetmap.org/wiki/Pt-br:WikiProject_Brazil/PR/Ponta_Grossa/Agreement"}}, {"type": "node", "id": 859537402, "lat": -25.110573, "lon": -50.1326217, "tags": {"addr:housenumber": "110", "addr:postcode": "84026-360", "addr:street": "Rua Quer\u00eancia do Norte", "amenity": "school", "name": "Escola Municipal Prefeito Major Manoel Vicente Bit", "source": "Prefeitura de Ponta Grossa - PR", "source_ref": "http://wiki.openstreetmap.org/wiki/Pt-br:WikiProject_Brazil/PR/Ponta_Grossa/Agreement"}}, {"type": "node", "id": 859537403, "lat": -25.1065421, "lon": -50.1004955, "tags": {"addr:housenumber": "1383", "addr:postcode": "84032-000", "addr:street": "Avenida Euz\u00e9bio de Queir\u00f3z", "amenity": "school", "name": "Escola Municipal Doutor Carlos Ribeiro de Macedo", "source": "Prefeitura de Ponta Grossa - PR", "source_ref": "http://wiki.openstreetmap.org/wiki/Pt-br:WikiProject_Brazil/PR/Ponta_Grossa/Agreement"}}, {"type": "node", "id": 859537404, "lat": -25.1106646, "lon": -50.1635999, "tags": {"addr:housenumber": "740", "addr:street": "Rua Lopes Trov\u00e3o", "amenity": "school", "name": "Escola Municipal Humberto Cordeiro", "source": "Prefeitura de Ponta Grossa - PR", "source_ref": "http://wiki.openstreetmap.org/wiki/Pt-br:WikiProject_Brazil/PR/Ponta_Grossa/Agreement"}}, {"type": "node", "id": 859537405, "lat": -25.0855564, "lon": -50.1773924, "tags": {"addr:street": "Pra\u00e7a Get\u00falio Vargas", "amenity": "school", "name": "Escola Estadual Professor Am\u00e1lio Pinheiro", "postal_code": "84070-550", "source": "Prefeitura de Ponta Grossa - PR", "source_ref": "http://wiki.openstreetmap.org/wiki/Pt-br:WikiProject_Brazil/PR/Ponta_Grossa/Agreement"}}, {"type": "node", "id": 859537406, "lat": -25.0668816, "lon": -50.121366, "tags": {"addr:housenumber": "103", "addr:postcode": "84001-970", "addr:street": "Rua Jos\u00e9 Ferreira Menezes", "amenity": "school", "name": "Escola Municipal Prefeito Engenheiro Eurico Batist", "source": "Prefeitura de Ponta Grossa - PR", "source_ref": "http://wiki.openstreetmap.org/wiki/Pt-br:WikiProject_Brazil/PR/Ponta_Grossa/Agreement"}}, {"type": "node", "id": 859537407, "lat": -25.129416, "lon": -50.1061547, "tags": {"addr:housenumber": "12", "addr:postcode": "84033-000", "addr:street": "Rua Cedrilho", "amenity": "school", "name": "Escola Municipal Doutor Edgar Sponholz", "source": "Prefeitura de Ponta Grossa - PR", "source_ref": "http://wiki.openstreetmap.org/wiki/Pt-br:WikiProject_Brazil/PR/Ponta_Grossa/Agreement"}}, {"type": "node", "id": 859537409, "lat": -25.113786, "lon": -50.1481147, "tags": {"addr:housenumber": "10", "addr:postcode": "84035-490", "addr:street": "Rua Doutor Carlos Deszaunet Netto", "amenity": "school", "name": "Escola Municipal Prefeito Theodoro Batista Rosas", "source": "Prefeitura de Ponta Grossa - PR", "source_ref": "http://wiki.openstreetmap.org/wiki/Pt-br:WikiProject_Brazil/PR/Ponta_Grossa/Agreement"}}, {"type": "node", "id": 859537412, "lat": -25.0888669, "lon": -50.1835028, "tags": {"addr:housenumber": "228", "addr:postcode": "84020-320", "addr:street": "Rua Paes de Andrade", "amenity": "school", "name": "Escola Municipal Professor Nelson Pereira Jorge", "source": "Prefeitura de Ponta Grossa - PR", "source_ref": "http://wiki.openstreetmap.org/wiki/Pt-br:WikiProject_Brazil/PR/Ponta_Grossa/Agreement"}}, {"type": "node", "id": 859537413, "lat": -25.093372, "lon": -50.0904201, "tags": {"addr:street": "Avenida Guilherme Augusto Jansen", "amenity": "school", "name": "Escola Estadual Padre Pedro Grzelczaki", "postal_code": "84030-550", "source": "Prefeitura de Ponta Grossa - PR", "source_ref": "http://wiki.openstreetmap.org/wiki/Pt-br:WikiProject_Brazil/PR/Ponta_Grossa/Agreement"}}, {"type": "node", "id": 859537414, "lat": -25.0925264, "lon": -50.2026615, "tags": {"addr:street": "Rua Cinamomo", "amenity": "school", "name": "Escola Estadual Edson Pietrobelli", "postal_code": "84061-360", "source": "Prefeitura de Ponta Grossa - PR", "source_ref": "http://wiki.openstreetmap.org/wiki/Pt-br:WikiProject_Brazil/PR/Ponta_Grossa/Agreement"}}, {"type": "node", "id": 859537415, "lat": -25.127085, "lon": -50.1783371, "tags": {"addr:housenumber": "78", "addr:postcode": "84046-015", "addr:street": "Rua Doutor Nilton Luiz de Castro", "amenity": "school", "name": "Escola Estadual Alberto Rebello Valente", "source": "Prefeitura de Ponta Grossa - PR", "source_ref": "http://wiki.openstreetmap.org/wiki/Pt-br:WikiProject_Brazil/PR/Ponta_Grossa/Agreement"}}, {"type": "node", "id": 859537416, "lat": -25.1182842, "lon": -50.2056875, "tags": {"addr:street": "Rua Papoula", "amenity": "school", "name": "Escola Osni Villaca Mongruel", "postal_code": "84060-060", "source": "Prefeitura de Ponta Grossa - PR", "source_ref": "http://wiki.openstreetmap.org/wiki/Pt-br:WikiProject_Brazil/PR/Ponta_Grossa/Agreement"}}, {"type": "node", "id": 859537420, "lat": -25.0881292, "lon": -50.1260899, "tags": {"addr:housenumber": "262", "addr:postcode": "84030-060", "addr:street": "Rua Felix Pacheco", "amenity": "school", "name": "Escola Municipal Prefeito Jos\u00e9 Hoffmann", "source": "Prefeitura de Ponta Grossa - PR", "source_ref": "http://wiki.openstreetmap.org/wiki/Pt-br:WikiProject_Brazil/PR/Ponta_Grossa/Agreement"}}, {"type": "node", "id": 859537422, "lat": -25.1566075, "lon": -50.1881765, "tags": {"addr:housenumber": "332", "addr:street": "Rua Bernardo Guimar\u00e3es", "amenity": "school", "name": "Escola Municipal Doutor \u00c1varo Faria da Rocha", "source": "Prefeitura de Ponta Grossa - PR", "source_ref": "http://wiki.openstreetmap.org/wiki/Pt-br:WikiProject_Brazil/PR/Ponta_Grossa/Agreement"}}, {"type": "node", "id": 859537424, "lat": -25.0982371, "lon": -50.1388669, "tags": {"addr:housenumber": "650", "addr:postcode": "84025-490", "addr:street": "Rua Bituruna", "amenity": "school", "name": "Escola Municipal Professora Kazuko Inoue", "source": "Prefeitura de Ponta Grossa - PR", "source_ref": "http://wiki.openstreetmap.org/wiki/Pt-br:WikiProject_Brazil/PR/Ponta_Grossa/Agreement"}}, {"type": "node", "id": 859537425, "lat": -25.0991872, "lon": -50.1585414, "tags": {"addr:street": "Pra\u00e7a Roosevelt", "amenity": "school", "name": "Escola Municipal Lagoa Dourada", "postal_code": "84010-069", "source": "Prefeitura de Ponta Grossa - PR", "source_ref": "http://wiki.openstreetmap.org/wiki/Pt-br:WikiProject_Brazil/PR/Ponta_Grossa/Agreement"}}, {"type": "node", "id": 859537426, "lat": -25.0548255, "lon": -50.1588483, "tags": {"addr:street": "Rua Ren\u00ea Gomes Napoli", "amenity": "school", "name": "Escola Estadual Nossa Senhora das Gra\u00e7as", "postal_code": "84073-110", "source": "Prefeitura de Ponta Grossa - PR", "source_ref": "http://wiki.openstreetmap.org/wiki/Pt-br:WikiProject_Brazil/PR/Ponta_Grossa/Agreement"}}, {"type": "node", "id": 859537427, "lat": -25.0642919, "lon": -50.1373909, "tags": {"addr:housenumber": "25", "addr:postcode": "84016-480", "addr:street": "Rua Joaquim Mateus Branco e Silva", "amenity": "school", "name": "Escola Municipal Fioravante Slavieiro", "source": "Prefeitura de Ponta Grossa - PR", "source_ref": "http://wiki.openstreetmap.org/wiki/Pt-br:WikiProject_Brazil/PR/Ponta_Grossa/Agreement"}}, {"type": "node", "id": 859537428, "lat": -25.0690008, "lon": -50.2020463, "tags": {"addr:housenumber": "168", "addr:postcode": "84062-400", "addr:street": "Rua Foz do Igua\u00e7u", "amenity": "school", "name": "Escola Municipal Doutor Jos\u00e9 Pinto Rosas", "source": "Prefeitura de Ponta Grossa - PR", "source_ref": "http://wiki.openstreetmap.org/wiki/Pt-br:WikiProject_Brazil/PR/Ponta_Grossa/Agreement"}}, {"type": "node", "id": 859537429, "lat": -25.0648086, "lon": -50.1854008, "tags": {"addr:housenumber": "600", "addr:postcode": "84071-220", "addr:street": "Rua Professor F\u00e1bio Fanucchi", "amenity": "school", "name": "Escola Estadual Iolando Taques Fonseca", "source": "Prefeitura de Ponta Grossa - PR", "source_ref": "http://wiki.openstreetmap.org/wiki/Pt-br:WikiProject_Brazil/PR/Ponta_Grossa/Agreement"}}, {"type": "node", "id": 859537430, "lat": -25.086132, "lon": -50.1158099, "tags": {"addr:housenumber": "926", "addr:postcode": "84030-040", "addr:street": "Rua Rodrigo Silva", "amenity": "school", "name": "Escola Municipal Doutor Leopoldo Pinto Rosas", "source": "Prefeitura de Ponta Grossa - PR", "source_ref": "http://wiki.openstreetmap.org/wiki/Pt-br:WikiProject_Brazil/PR/Ponta_Grossa/Agreement"}}, {"type": "node", "id": 859537431, "lat": -25.0487529, "lon": -50.1714761, "tags": {"addr:housenumber": "534", "addr:postcode": "84072-090", "addr:street": "Rua Alfredo Pietrobelli", "amenity": "school", "name": "Escola Municipal Professor Kamal Tebcherani", "source": "Prefeitura de Ponta Grossa - PR", "source_ref": "http://wiki.openstreetmap.org/wiki/Pt-br:WikiProject_Brazil/PR/Ponta_Grossa/Agreement"}}, {"type": "node", "id": 859537433, "lat": -25.0853716, "lon": -50.1951856, "tags": {"addr:housenumber": "480", "addr:postcode": "84062-040", "addr:street": "Rua Presciliano Negr\u00e3o", "amenity": "school", "name": "Escola Municipal Prefeito Engenheiro Cyro Martins", "source": "Prefeitura de Ponta Grossa - PR", "source_ref": "http://wiki.openstreetmap.org/wiki/Pt-br:WikiProject_Brazil/PR/Ponta_Grossa/Agreement"}}, {"type": "node", "id": 859537434, "lat": -25.0681858, "lon": -50.2148164, "tags": {"addr:housenumber": "481", "addr:postcode": "84063-080", "addr:street": "Rua Moacyr Lazarotto de Oliveira", "amenity": "school", "name": "Escola Municipal Professor Jorge Dechandt", "source": "Prefeitura de Ponta Grossa - PR", "source_ref": "http://wiki.openstreetmap.org/wiki/Pt-br:WikiProject_Brazil/PR/Ponta_Grossa/Agreement"}}, {"type": "node", "id": 859537435, "lat": -25.1025177, "lon": -50.1841267, "tags": {"addr:housenumber": "762", "addr:postcode": "84051-090", "addr:street": "Rua Baltazar Lisboa", "amenity": "school", "name": "Escola Municipal Prefeito Doutor Elyseu de Campos", "source": "Prefeitura de Ponta Grossa - PR", "source_ref": "http://wiki.openstreetmap.org/wiki/Pt-br:WikiProject_Brazil/PR/Ponta_Grossa/Agreement"}}, {"type": "node", "id": 859537436, "lat": -25.1777802, "lon": -50.1422484, "tags": {"addr:housenumber": "318", "addr:postcode": "84031-120", "addr:street": "Rua Caraj\u00e1s", "amenity": "school", "name": "Col\u00e9gio Estadual Francisco Pires Machado", "source": "Prefeitura de Ponta Grossa - PR", "source_ref": "http://wiki.openstreetmap.org/wiki/Pt-br:WikiProject_Brazil/PR/Ponta_Grossa/Agreement"}}, {"type": "node", "id": 859537437, "lat": -25.0986533, "lon": -50.1466793, "tags": {"addr:housenumber": "240", "addr:street": "Rua Bonif\u00e1cio Ribas", "amenity": "school", "name": "Escola Municipal Coronel Cl\u00e1udio Gon\u00e7alves Guimar\u00e3", "source": "Prefeitura de Ponta Grossa - PR", "source_ref": "http://wiki.openstreetmap.org/wiki/Pt-br:WikiProject_Brazil/PR/Ponta_Grossa/Agreement"}}, {"type": "node", "id": 859537438, "lat": -25.0841923, "lon": -50.1451171, "tags": {"addr:housenumber": "852", "addr:postcode": "84020-240", "addr:street": "Rua Casemiro de Abreu", "amenity": "school", "name": "Escola Municipal Professora Minervina Fran\u00e7a Scudl", "source": "Prefeitura de Ponta Grossa - PR", "source_ref": "http://wiki.openstreetmap.org/wiki/Pt-br:WikiProject_Brazil/PR/Ponta_Grossa/Agreement"}}, {"type": "node", "id": 859537440, "lat": -25.0446488, "lon": -50.1688635, "tags": {"addr:housenumber": "310", "addr:postcode": "84072-160", "addr:street": "Rua Luiz Pereira Barreto", "amenity": "school", "name": "Escola Municipal Vereador Adelino Machado de Oliveira", "source": "Prefeitura de Ponta Grossa - PR", "source_ref": "http://wiki.openstreetmap.org/wiki/Pt-br:WikiProject_Brazil/PR/Ponta_Grossa/Agreement"}}, {"type": "node", "id": 859537444, "lat": -25.0962153, "lon": -50.1223438, "tags": {"addr:housenumber": "259", "addr:street": "Rua Jo\u00e3o Thom\u00e9", "amenity": "school", "name": "Escola Municipal Jo\u00e3o Maria Cruz", "source": "Prefeitura de Ponta Grossa - PR", "source_ref": "http://wiki.openstreetmap.org/wiki/Pt-br:WikiProject_Brazil/PR/Ponta_Grossa/Agreement"}}, {"type": "node", "id": 859537447, "lat": -25.0648607, "lon": -50.1855094, "tags": {"addr:housenumber": "600", "addr:postcode": "84071-220", "addr:street": "Rua Professor F\u00e1bio Fanucchi", "amenity": "school", "name": "Escola Municipal Professora Zair Santos Nascimento", "source": "Prefeitura de Ponta Grossa - PR", "source_ref": "http://wiki.openstreetmap.org/wiki/Pt-br:WikiProject_Brazil/PR/Ponta_Grossa/Agreement"}}, {"type": "node", "id": 859537448, "lat": -25.1049439, "lon": -50.1094774, "tags": {"addr:housenumber": "183", "addr:postcode": "84032-320", "addr:street": "Rua Miguel Droppa", "amenity": "school", "name": "Escola Municipal D\u00e9rcia do Carmo Noviski", "source": "Prefeitura de Ponta Grossa - PR", "source_ref": "http://wiki.openstreetmap.org/wiki/Pt-br:WikiProject_Brazil/PR/Ponta_Grossa/Agreement"}}, {"type": "node", "id": 859537449, "lat": -25.0739228, "lon": -50.1833464, "tags": {"addr:city": "Ponta Grossa", "addr:housenumber": "1071", "addr:street": "Rua Coronel Jos\u00e9 Mir\u00f3", "amenity": "school", "name": "Escola Municipal Ivon Zardo", "source": "Prefeitura de Ponta Grossa - PR", "source_ref": "http://wiki.openstreetmap.org/wiki/Pt-br:WikiProject_Brazil/PR/Ponta_Grossa/Agreement"}}, {"type": "node", "id": 859537450, "lat": -25.0969356, "lon": -50.1942278, "tags": {"addr:housenumber": "350", "addr:postcode": "84052-440", "addr:street": "Rua Manoel Ferreira Martins", "amenity": "school", "name": "Escola Municipal Professora Hayd\u00eae Ferreira de Oli", "source": "Prefeitura de Ponta Grossa - PR", "source_ref": "http://wiki.openstreetmap.org/wiki/Pt-br:WikiProject_Brazil/PR/Ponta_Grossa/Agreement"}}, {"type": "node", "id": 859537451, "lat": -25.0733257, "lon": -50.1760583, "tags": {"addr:housenumber": "1312", "addr:postcode": "84070-220", "addr:street": "Rua Alberto de Oliveira", "amenity": "school", "name": "Escola Municipal Professor Rubens Edgard Furstenbe", "source": "Prefeitura de Ponta Grossa - PR", "source_ref": "http://wiki.openstreetmap.org/wiki/Pt-br:WikiProject_Brazil/PR/Ponta_Grossa/Agreement"}}, {"type": "node", "id": 859537452, "lat": -25.1174836, "lon": -50.2055614, "tags": {"addr:street": "Rua Papoula", "amenity": "school", "name": "Escola Estadual Jos\u00e9 Gomes do Amaral", "postal_code": "84060-060", "source": "Prefeitura de Ponta Grossa - PR", "source_ref": "http://wiki.openstreetmap.org/wiki/Pt-br:WikiProject_Brazil/PR/Ponta_Grossa/Agreement"}}, {"type": "node", "id": 859537453, "lat": -25.0786682, "lon": -50.1305403, "tags": {"addr:housenumber": "100", "addr:postcode": "84020-380", "addr:street": "Rua Washington Luiz", "amenity": "school", "name": "Escola Municipal Geny de Jesus Souza Ribas", "source": "Prefeitura de Ponta Grossa - PR", "source_ref": "http://wiki.openstreetmap.org/wiki/Pt-br:WikiProject_Brazil/PR/Ponta_Grossa/Agreement"}}, {"type": "node", "id": 859537454, "lat": -25.057974, "lon": -50.1615784, "tags": {"addr:housenumber": "337", "addr:postcode": "84001-970", "addr:street": "Rua Engenheiro Virg\u00ednio Milanese", "amenity": "school", "name": "Escola Municipal Prefeito Doutor Amadeu Puppi", "source": "Prefeitura de Ponta Grossa - PR", "source_ref": "http://wiki.openstreetmap.org/wiki/Pt-br:WikiProject_Brazil/PR/Ponta_Grossa/Agreement"}}, {"type": "node", "id": 859537455, "lat": -25.0852651, "lon": -50.2068025, "tags": {"addr:housenumber": "600", "addr:postcode": "84062-170", "addr:street": "Avenida Paul Harris", "amenity": "school", "name": "Escola Municipal Frederico Constante Degraf", "source": "Prefeitura de Ponta Grossa - PR", "source_ref": "http://wiki.openstreetmap.org/wiki/Pt-br:WikiProject_Brazil/PR/Ponta_Grossa/Agreement"}}, {"type": "node", "id": 859537456, "lat": -25.0934765, "lon": -50.1807223, "tags": {"addr:housenumber": "950", "addr:postcode": "84053-320", "addr:street": "Rua Londrina", "amenity": "school", "name": "Escola Municipal Prefeito Doutor Othon Mader", "source": "Prefeitura de Ponta Grossa - PR", "source_ref": "http://wiki.openstreetmap.org/wiki/Pt-br:WikiProject_Brazil/PR/Ponta_Grossa/Agreement"}}, {"type": "node", "id": 859537457, "lat": -25.1342485, "lon": -50.15628, "tags": {"addr:housenumber": "288", "addr:postcode": "84045-340", "addr:street": "Rua Jorge Holzmann", "amenity": "school", "name": "Escola Estadual Esp\u00edrito Santo", "source": "Prefeitura de Ponta Grossa - PR", "source_ref": "http://wiki.openstreetmap.org/wiki/Pt-br:WikiProject_Brazil/PR/Ponta_Grossa/Agreement"}}, {"type": "node", "id": 859537458, "lat": -25.0681498, "lon": -50.1734352}, {"type": "node", "id": 859537459, "lat": -25.0584525, "lon": -50.13958, "tags": {"addr:housenumber": "100", "addr:postcode": "84016-590", "addr:street": "Rua Paulo Kloth", "amenity": "school", "name": "Escola Municipal Professora Braulina Carneiro de Q", "source": "Prefeitura de Ponta Grossa - PR", "source_ref": "http://wiki.openstreetmap.org/wiki/Pt-br:WikiProject_Brazil/PR/Ponta_Grossa/Agreement"}}, {"type": "node", "id": 859537460, "lat": -25.145997, "lon": -50.166843, "tags": {"addr:housenumber": "160", "addr:postcode": "84046-130", "addr:street": "Rua Inamb\u00fa", "amenity": "school", "name": "Escola Municipal Professora Armida Frare Gr\u00e1cia", "source": "Prefeitura de Ponta Grossa - PR", "source_ref": "http://wiki.openstreetmap.org/wiki/Pt-br:WikiProject_Brazil/PR/Ponta_Grossa/Agreement"}}, {"type": "node", "id": 859537461, "lat": -25.0407165, "lon": -50.2443751, "tags": {"addr:housenumber": "73", "addr:postcode": "84001-970", "addr:street": "Rua Rio Dan\u00fabio", "amenity": "school", "name": "Escola Municipal Professora Zeneida de Freitas Sch", "source": "Prefeitura de Ponta Grossa - PR", "source_ref": "http://wiki.openstreetmap.org/wiki/Pt-br:WikiProject_Brazil/PR/Ponta_Grossa/Agreement"}}, {"type": "node", "id": 859537462, "lat": -25.0991006, "lon": -50.118935, "tags": {"addr:housenumber": "318", "addr:postcode": "84031-120", "addr:street": "Rua Nicolau Florenzano", "amenity": "school", "name": "Escola Municipal Deodoro Alves Quintiliano", "source": "Prefeitura de Ponta Grossa - PR", "source_ref": "http://wiki.openstreetmap.org/wiki/Pt-br:WikiProject_Brazil/PR/Ponta_Grossa/Agreement"}}, {"type": "node", "id": 859537463, "lat": -25.1285606, "lon": -50.1460008, "tags": {"addr:housenumber": "1720", "addr:postcode": "84046-290", "addr:street": "Rua Bocai\u00fava do Sul", "amenity": "school", "name": "Escola Municipal Professora Zahira Catta Preta Mel", "source": "Prefeitura de Ponta Grossa - PR", "source_ref": "http://wiki.openstreetmap.org/wiki/Pt-br:WikiProject_Brazil/PR/Ponta_Grossa/Agreement"}}, {"type": "node", "id": 859537464, "lat": -25.1202059, "lon": -50.158453, "tags": {"addr:housenumber": "216", "addr:postcode": "84045-540", "addr:street": "Pra\u00e7a Frei Elias Zulian", "amenity": "school", "name": "Escola Estadual Jesus Divino Oper\u00e1rio", "source": "Prefeitura de Ponta Grossa - PR", "source_ref": "http://wiki.openstreetmap.org/wiki/Pt-br:WikiProject_Brazil/PR/Ponta_Grossa/Agreement"}}, {"type": "node", "id": 859537465, "lat": -25.0546587, "lon": -50.223165, "tags": {"addr:housenumber": "680", "addr:postcode": "84064-030", "addr:street": "Rua Andorinha", "amenity": "school", "name": "Escola Municipal Professor Faris Ant\u00f4nio Michaele", "source": "Prefeitura de Ponta Grossa - PR", "source_ref": "http://wiki.openstreetmap.org/wiki/Pt-br:WikiProject_Brazil/PR/Ponta_Grossa/Agreement"}}, {"type": "node", "id": 859537466, "lat": -25.0650002, "lon": -50.2101522, "tags": {"addr:housenumber": "600", "addr:postcode": "84063-310", "addr:street": "Rua Santo Ant\u00f4nio", "amenity": "school", "name": "Escola Estadual Professora Sirley Jagas", "source": "Prefeitura de Ponta Grossa - PR", "source_ref": "http://wiki.openstreetmap.org/wiki/Pt-br:WikiProject_Brazil/PR/Ponta_Grossa/Agreement"}}, {"type": "node", "id": 859537468, "lat": -25.0663171, "lon": -50.1471003, "tags": {"addr:housenumber": "340", "addr:postcode": "84015-810", "addr:street": "Rua Amante Garcia", "amenity": "school", "name": "Escola Municipal Professor Paulo Grott", "source": "Prefeitura de Ponta Grossa - PR", "source_ref": "http://wiki.openstreetmap.org/wiki/Pt-br:WikiProject_Brazil/PR/Ponta_Grossa/Agreement"}}, {"type": "node", "id": 859537469, "lat": -25.0828327, "lon": -50.101927, "tags": {"addr:housenumber": "122", "addr:postcode": "84030-430", "addr:street": "Rua Alberto Kampe", "amenity": "school", "name": "Escola Municipal Prefeito Professor Heitor Ditzel", "source": "Prefeitura de Ponta Grossa - PR", "source_ref": "http://wiki.openstreetmap.org/wiki/Pt-br:WikiProject_Brazil/PR/Ponta_Grossa/Agreement"}}, {"type": "node", "id": 859537470, "lat": -25.1078276, "lon": -50.2011709, "tags": {"addr:housenumber": "171", "addr:postcode": "84060-020", "addr:street": "Rua Jos\u00e9 Alberto C\u00e1us", "amenity": "school", "name": "Escola Municipal Cyrillo Domingos Ricci", "source": "Prefeitura de Ponta Grossa - PR", "source_ref": "http://wiki.openstreetmap.org/wiki/Pt-br:WikiProject_Brazil/PR/Ponta_Grossa/Agreement"}}, {"type": "node", "id": 859537471, "lat": -25.0777389, "lon": -50.1909816, "tags": {"addr:housenumber": "313", "addr:postcode": "84070-490", "addr:street": "Rua Henrique Hennenberg", "amenity": "school", "name": "Escola Municipal Senador Fl\u00e1vio Carvalho Guimar\u00e3es", "source": "Prefeitura de Ponta Grossa - PR", "source_ref": "http://wiki.openstreetmap.org/wiki/Pt-br:WikiProject_Brazil/PR/Ponta_Grossa/Agreement"}}, {"type": "node", "id": 859537472, "lat": -25.1456456, "lon": -50.1700701, "tags": {"addr:housenumber": "422", "addr:postcode": "84001-970", "addr:street": "Rua Furiel", "amenity": "school", "name": "Escola Municipal Professor Guitil Federmann", "source": "Prefeitura de Ponta Grossa - PR", "source_ref": "http://wiki.openstreetmap.org/wiki/Pt-br:WikiProject_Brazil/PR/Ponta_Grossa/Agreement"}}, {"type": "node", "id": 859537473, "lat": -25.0944094, "lon": -50.0893698, "tags": {"addr:housenumber": "680", "addr:postcode": "84030-510", "addr:street": "Avenida Jo\u00e3o Pedro da Silva", "amenity": "school", "name": "Escola Municipal Prefeito Ernesto Guimar\u00e3es Vilela", "source": "Prefeitura de Ponta Grossa - PR", "source_ref": "http://wiki.openstreetmap.org/wiki/Pt-br:WikiProject_Brazil/PR/Ponta_Grossa/Agreement"}}, {"type": "node", "id": 859537474, "lat": -25.0685365, "lon": -50.1790003, "tags": {"addr:city": "Ponta Grossa", "addr:housenumber": "1000", "addr:postcode": "84070-430", "addr:street": "Rua Doutor Eug\u00eanio Jos\u00e9 Bocchi", "amenity": "school", "name": "Escola Municipal Professora Ecl\u00e9a dos Passos Horn", "source": "Prefeitura de Ponta Grossa - PR", "source_ref": "http://wiki.openstreetmap.org/wiki/Pt-br:WikiProject_Brazil/PR/Ponta_Grossa/Agreement"}}, {"type": "node", "id": 859537475, "lat": -25.1357141, "lon": -50.157134, "tags": {"addr:housenumber": "401", "addr:postcode": "84045-350", "addr:street": "Rua Latino Coelho", "amenity": "school", "name": "Escola Municipal Professora Ana de Barros Holzmann", "source": "Prefeitura de Ponta Grossa - PR", "source_ref": "http://wiki.openstreetmap.org/wiki/Pt-br:WikiProject_Brazil/PR/Ponta_Grossa/Agreement"}}, {"type": "node", "id": 859537476, "lat": -25.0480338, "lon": -50.140758, "tags": {"addr:housenumber": "404", "addr:postcode": "84001-970", "addr:street": "Avenida Israel", "amenity": "school", "name": "Escola Municipal Professor Sebasti\u00e3o dos Santos e", "source": "Prefeitura de Ponta Grossa - PR", "source_ref": "http://wiki.openstreetmap.org/wiki/Pt-br:WikiProject_Brazil/PR/Ponta_Grossa/Agreement"}}, {"type": "node", "id": 859537479, "lat": -25.0983863, "lon": -50.1592676, "tags": {"addr:city": "Ponta Grossa", "addr:housenumber": "537", "addr:postcode": "84001-970", "addr:street": "Rua Santana", "amenity": "school", "name": "Escola Estadual Medalha Milagrosa", "source": "Prefeitura de Ponta Grossa - PR", "source_ref": "http://wiki.openstreetmap.org/wiki/Pt-br:WikiProject_Brazil/PR/Ponta_Grossa/Agreement"}}, {"type": "node", "id": 859537480, "lat": -25.0827841, "lon": -50.1331707, "tags": {"addr:housenumber": "1192", "addr:postcode": "84020-050", "addr:street": "Rua Quinze de Setembro", "amenity": "school", "name": "Escola Municipal Professora Maria Laura Pereira", "source": "Prefeitura de Ponta Grossa - PR", "source_ref": "http://wiki.openstreetmap.org/wiki/Pt-br:WikiProject_Brazil/PR/Ponta_Grossa/Agreement"}}, {"type": "node", "id": 859537481, "lat": -25.1021086, "lon": -50.1618568, "tags": {"addr:housenumber": "636", "addr:postcode": "84050-000", "addr:street": "Rua Doutor Joaquim de Paula Xavier", "amenity": "school", "name": "Escola Municipal Loise Foltran De Lara", "source": "Prefeitura de Ponta Grossa - PR", "source_ref": "http://wiki.openstreetmap.org/wiki/Pt-br:WikiProject_Brazil/PR/Ponta_Grossa/Agreement"}}, {"type": "node", "id": 859537482, "lat": -25.0888169, "lon": -50.0901226, "tags": {"addr:street": "Avenida General Carlos Cavalcanti", "amenity": "school", "name": "Escola Municipal Zanoni Rogoski", "source": "Prefeitura de Ponta Grossa - PR", "source_ref": "http://wiki.openstreetmap.org/wiki/Pt-br:WikiProject_Brazil/PR/Ponta_Grossa/Agreement"}}, {"type": "node", "id": 859537484, "lat": -25.0967579, "lon": -50.2090644, "tags": {"addr:housenumber": "175", "addr:postcode": "84001-970", "addr:street": "Rua Cajarana", "amenity": "school", "name": "Escola Municipal Ludovico Ant\u00f4nio Egg", "source": "Prefeitura de Ponta Grossa - PR", "source_ref": "http://wiki.openstreetmap.org/wiki/Pt-br:WikiProject_Brazil/PR/Ponta_Grossa/Agreement"}}, {"type": "node", "id": 859537485, "lat": -25.1191761, "lon": -50.1022335, "tags": {"addr:street": "Rua Santa M\u00f4nica", "amenity": "school", "name": "Escola Estadual Eug\u00eanio Malanski", "postal_code": "84033-240", "source": "Prefeitura de Ponta Grossa - PR", "source_ref": "http://wiki.openstreetmap.org/wiki/Pt-br:WikiProject_Brazil/PR/Ponta_Grossa/Agreement"}}, {"type": "node", "id": 859537486, "lat": -25.1142285, "lon": -50.1557444, "tags": {"addr:housenumber": "650", "addr:postcode": "84045-000", "addr:street": "Avenida Visconde de Mau\u00e1", "amenity": "school", "name": "Escola Municipal Vila Oficinas", "source": "Prefeitura de Ponta Grossa - PR", "source_ref": "http://wiki.openstreetmap.org/wiki/Pt-br:WikiProject_Brazil/PR/Ponta_Grossa/Agreement"}}, {"type": "node", "id": 859537487, "lat": -25.1272191, "lon": -50.178218, "tags": {"addr:housenumber": "78", "addr:postcode": "84046-015", "addr:street": "Rua Doutor Nilton Luiz de Castro", "amenity": "school", "name": "Escola Municipal Padre Jos\u00e9 Bugatti", "source": "Prefeitura de Ponta Grossa - PR", "source_ref": "http://wiki.openstreetmap.org/wiki/Pt-br:WikiProject_Brazil/PR/Ponta_Grossa/Agreement"}}, {"type": "node", "id": 859537488, "lat": -25.1245892, "lon": -50.1604402, "tags": {"addr:housenumber": "216", "addr:postcode": "84045-540", "addr:street": "Pra\u00e7a Frei Elias Zulian", "amenity": "school", "name": "Escola Municipal Frei Elias Zulian", "source": "Prefeitura de Ponta Grossa - PR", "source_ref": "http://wiki.openstreetmap.org/wiki/Pt-br:WikiProject_Brazil/PR/Ponta_Grossa/Agreement"}}, {"type": "node", "id": 859537490, "lat": -25.0668958, "lon": -50.1467174, "tags": {"addr:street": "Rua Amante Garcia", "amenity": "school", "name": "Escola Estadual Monteiro Lobato", "postal_code": "84015-810", "source": "Prefeitura de Ponta Grossa - PR", "source_ref": "http://wiki.openstreetmap.org/wiki/Pt-br:WikiProject_Brazil/PR/Ponta_Grossa/Agreement"}}, {"type": "node", "id": 859537492, "lat": -25.0905168, "lon": -50.104463, "tags": {"addr:street": "Rua Coronel Camis\u00e3o", "amenity": "school", "name": "Escola Estadual Professora H\u00e1lia Terezinha Gruba", "postal_code": "84031-020", "source": "Prefeitura de Ponta Grossa - PR", "source_ref": "http://wiki.openstreetmap.org/wiki/Pt-br:WikiProject_Brazil/PR/Ponta_Grossa/Agreement"}}, {"type": "node", "id": 859537494, "lat": -25.0931376, "lon": -50.1590652, "tags": {"addr:city": "Ponta Grossa", "addr:housenumber": "128", "addr:postcode": "84010-670", "addr:street": "Pra\u00e7a Bar\u00e3o do Rio Branco", "addr:suburb": "Centro", "amenity": "school", "name": "CEEBJA Professor Paschoal Salles Rosa", "source": "Prefeitura de Ponta Grossa - PR", "source_ref": "http://wiki.openstreetmap.org/wiki/Pt-br:WikiProject_Brazil/PR/Ponta_Grossa/Agreement"}}, {"type": "node", "id": 859537497, "lat": -25.0545114, "lon": -50.2231335, "tags": {"addr:housenumber": "666", "addr:postcode": "84064-030", "addr:street": "Rua Andorinha", "amenity": "school", "name": "Escola Estadual Ana Divanir Borato", "source": "Prefeitura de Ponta Grossa - PR", "source_ref": "http://wiki.openstreetmap.org/wiki/Pt-br:WikiProject_Brazil/PR/Ponta_Grossa/Agreement"}}, {"type": "node", "id": 859537498, "lat": -25.0788394, "lon": -50.15026, "tags": {"addr:housenumber": "1000", "addr:postcode": "84016-000", "addr:street": "Avenida Rocha Pombo", "amenity": "school", "name": "Escola Municipal Professora Adelaide Thom\u00e9 Chamma", "source": "Prefeitura de Ponta Grossa - PR", "source_ref": "http://wiki.openstreetmap.org/wiki/Pt-br:WikiProject_Brazil/PR/Ponta_Grossa/Agreement"}}, {"type": "node", "id": 859537499, "lat": -25.097002, "lon": -50.1732686, "tags": {"addr:housenumber": "1145", "addr:postcode": "84051-000", "addr:street": "Avenida Visconde de Taunay", "amenity": "school", "name": "Escola Estadual Professor Becker e Silva", "source": "Prefeitura de Ponta Grossa - PR", "source_ref": "http://wiki.openstreetmap.org/wiki/Pt-br:WikiProject_Brazil/PR/Ponta_Grossa/Agreement"}}, {"type": "node", "id": 859537500, "lat": -25.106685, "lon": -50.2212297, "tags": {"addr:housenumber": "133", "addr:postcode": "84001-970", "addr:street": "Rua Antenor de Louren\u00e7o Oliveira", "amenity": "school", "name": "Escola Municipal Professora Shirley Aggi Moura", "source": "Prefeitura de Ponta Grossa - PR", "source_ref": "http://wiki.openstreetmap.org/wiki/Pt-br:WikiProject_Brazil/PR/Ponta_Grossa/Agreement"}}, {"type": "node", "id": 859537502, "lat": -25.1027064, "lon": -50.1757419, "tags": {"addr:housenumber": "501", "addr:postcode": "84051-530", "addr:street": "Rua Euz\u00e9bio da Motta", "amenity": "school", "name": "Escola Municipal Professor Aristeu Costa Pinto", "source": "Prefeitura de Ponta Grossa - PR", "source_ref": "http://wiki.openstreetmap.org/wiki/Pt-br:WikiProject_Brazil/PR/Ponta_Grossa/Agreement"}}, {"type": "node", "id": 1031007456, "lat": -25.0690982, "lon": -50.1740102}, {"type": "node", "id": 1031007468, "lat": -25.068543, "lon": -50.172512}, {"type": "node", "id": 1031007482, "lat": -25.0695552, "lon": -50.1730912}, {"type": "node", "id": 1031292910, "lat": -25.0558186, "lon": -50.162901}, {"type": "node", "id": 1031943563, "lat": -25.0935183, "lon": -50.1558824, "tags": {"amenity": "pharmacy", "dispensing": "yes", "name": "Farmacia Nissei", "source": "Bing;Tracksource"}}, {"type": "node", "id": 1031943860, "lat": -25.0903485, "lon": -50.1640108, "tags": {"amenity": "pharmacy", "dispensing": "yes", "source": "Bing;Tracksource"}}, {"type": "node", "id": 1031943863, "lat": -25.0902901, "lon": -50.1614726, "tags": {"amenity": "pharmacy", "dispensing": "yes", "name": "Farmacia Erva Doce", "source": "Bing;Tracksource"}}, {"type": "node", "id": 1032627278, "lat": -25.1120932, "lon": -50.1588381}, {"type": "node", "id": 1032627281, "lat": -25.1088327, "lon": -50.1595308}, {"type": "node", "id": 1045579523, "lat": -25.1228612, "lon": -50.1525197}, {"type": "node", "id": 1045579534, "lat": -25.1215794, "lon": -50.1529718}, {"type": "node", "id": 1045582355, "lat": -25.1215706, "lon": -50.1534427}, {"type": "node", "id": 1049032303, "lat": -25.134307, "lon": -50.156457}, {"type": "node", "id": 1049032305, "lat": -25.1341826, "lon": -50.1562397}, {"type": "node", "id": 1049032405, "lat": -25.1347089, "lon": -50.1561914}, {"type": "node", "id": 1060496155, "lat": -25.1153214, "lon": -50.1396355}, {"type": "node", "id": 1060496173, "lat": -25.1155231, "lon": -50.1398309}, {"type": "node", "id": 1060496175, "lat": -25.1156376, "lon": -50.1398808}, {"type": "node", "id": 1060496176, "lat": -25.1158813, "lon": -50.1399176}, {"type": "node", "id": 1060496217, "lat": -25.1150908, "lon": -50.1381522}, {"type": "node", "id": 1082771722, "lat": -25.1458805, "lon": -50.178309}, {"type": "node", "id": 1095483133, "lat": -25.12283, "lon": -50.153131}, {"type": "node", "id": 1095483182, "lat": -25.1227981, "lon": -50.1532476}, {"type": "node", "id": 1095483186, "lat": -25.1220624, "lon": -50.1532816}, {"type": "node", "id": 1768663594, "lat": -25.0962554, "lon": -50.1549281}, {"type": "node", "id": 1768663595, "lat": -25.0963556, "lon": -50.1551259}, {"type": "node", "id": 1770717083, "lat": -25.0863354, "lon": -50.1760959}, {"type": "node", "id": 1770717086, "lat": -25.0856769, "lon": -50.1765728}, {"type": "node", "id": 1770717088, "lat": -25.0859686, "lon": -50.1759252}, {"type": "node", "id": 1770717090, "lat": -25.0861098, "lon": -50.1767945}, {"type": "node", "id": 1770873384, "lat": -25.0778827, "lon": -50.1556831, "tags": {"amenity": "pharmacy", "healthcare": "pharmacy", "name": "Farm\u00e1cia Fleming"}}, {"type": "node", "id": 1770952995, "lat": -25.0899209, "lon": -50.1595836}, {"type": "node", "id": 1770952996, "lat": -25.0898529, "lon": -50.1590364}, {"type": "node", "id": 1770952997, "lat": -25.0900181, "lon": -50.1590042}, {"type": "node", "id": 1770952998, "lat": -25.0900861, "lon": -50.1595728}, {"type": "node", "id": 1770955757, "lat": -25.0880476, "lon": -50.1598235, "tags": {"amenity": "restaurant"}}, {"type": "node", "id": 1770955882, "lat": -25.0880864, "lon": -50.1602204, "tags": {"amenity": "restaurant"}}, {"type": "node", "id": 1770957016, "lat": -25.0884945, "lon": -50.160199, "tags": {"amenity": "restaurant"}}, {"type": "node", "id": 1770957194, "lat": -25.1052264, "lon": -50.1638275, "tags": {"addr:city": "Ponta Grossa", "addr:housenumber": "737", "addr:street": "Rua Ricardo Lustosa Ribas", "amenity": "restaurant", "cuisine": "asian", "name": "Sukiyaki"}}, {"type": "node", "id": 1770963734, "lat": -25.0792802, "lon": -50.1665313, "tags": {"amenity": "pharmacy"}}, {"type": "node", "id": 1772889958, "lat": -25.0871992, "lon": -50.1720536, "tags": {"amenity": "restaurant"}}, {"type": "node", "id": 2086131282, "lat": -25.0976542, "lon": -50.1603634, "tags": {"amenity": "school", "name": "Centro Europeu", "source": "Survey"}}, {"type": "node", "id": 2286165355, "lat": -25.0997919, "lon": -50.101115}, {"type": "node", "id": 2286165398, "lat": -25.0984099, "lon": -50.1007382}, {"type": "node", "id": 2286226876, "lat": -25.0893091, "lon": -50.1064497}, {"type": "node", "id": 2286226880, "lat": -25.0893226, "lon": -50.106714}, {"type": "node", "id": 2286226881, "lat": -25.0893522, "lon": -50.1064146}, {"type": "node", "id": 2286226887, "lat": -25.0892873, "lon": -50.1066694}, {"type": "node", "id": 2286226901, "lat": -25.0894034, "lon": -50.1063969}, {"type": "node", "id": 2286226912, "lat": -25.089457, "lon": -50.1063984}, {"type": "node", "id": 2286226916, "lat": -25.0895768, "lon": -50.1065071}, {"type": "node", "id": 2286226923, "lat": -25.0895886, "lon": -50.1065648}, {"type": "node", "id": 2286226938, "lat": -25.08956, "lon": -50.1066772}, {"type": "node", "id": 2286226939, "lat": -25.0895828, "lon": -50.1066237}, {"type": "node", "id": 2286226940, "lat": -25.0895487, "lon": -50.1064567}, {"type": "node", "id": 2286226941, "lat": -25.0894748, "lon": -50.1067466}, {"type": "node", "id": 2286226942, "lat": -25.0895072, "lon": -50.1064191}, {"type": "node", "id": 2286226949, "lat": -25.0892671, "lon": -50.1066145}, {"type": "node", "id": 2286226951, "lat": -25.0894217, "lon": -50.1067548}, {"type": "node", "id": 2286226956, "lat": -25.0892641, "lon": -50.1065554}, {"type": "node", "id": 2286226967, "lat": -25.0893691, "lon": -50.1067435}, {"type": "node", "id": 2286226970, "lat": -25.0892786, "lon": -50.1064984}, {"type": "node", "id": 2286232726, "lat": -25.0937279, "lon": -50.1031252}, {"type": "node", "id": 2286232727, "lat": -25.0937192, "lon": -50.1030265}, {"type": "node", "id": 2286232731, "lat": -25.09388, "lon": -50.1031583}, {"type": "node", "id": 2286232732, "lat": -25.0938089, "lon": -50.1030179}, {"type": "node", "id": 2286232733, "lat": -25.0939042, "lon": -50.1031315}, {"type": "node", "id": 2286232734, "lat": -25.0938945, "lon": -50.10307}, {"type": "node", "id": 2286232735, "lat": -25.0939084, "lon": -50.1030973}, {"type": "node", "id": 2286232737, "lat": -25.0938497, "lon": -50.103165}, {"type": "node", "id": 2286232738, "lat": -25.0937437, "lon": -50.1030181}, {"type": "node", "id": 2286232739, "lat": -25.0937037, "lon": -50.103077}, {"type": "node", "id": 2286232740, "lat": -25.0938439, "lon": -50.1030303}, {"type": "node", "id": 2286232741, "lat": -25.0938734, "lon": -50.1030448}, {"type": "node", "id": 2286232742, "lat": -25.0937053, "lon": -50.1030507}, {"type": "node", "id": 2286232743, "lat": -25.0937623, "lon": -50.1031486}, {"type": "node", "id": 2286232744, "lat": -25.0938034, "lon": -50.1031614}, {"type": "node", "id": 2286232747, "lat": -25.0937117, "lon": -50.1031001}, {"type": "node", "id": 2286232749, "lat": -25.0937725, "lon": -50.1030131}, {"type": "node", "id": 2286237365, "lat": -25.0960616, "lon": -50.108625}, {"type": "node", "id": 2286237367, "lat": -25.0959265, "lon": -50.1085374}, {"type": "node", "id": 2286237368, "lat": -25.0959825, "lon": -50.1086468}, {"type": "node", "id": 2286237375, "lat": -25.0960415, "lon": -50.1086407}, {"type": "node", "id": 2286237377, "lat": -25.0959271, "lon": -50.1085863}, {"type": "node", "id": 2286237380, "lat": -25.095998, "lon": -50.1084712}, {"type": "node", "id": 2286237385, "lat": -25.0960218, "lon": -50.1084728}, {"type": "node", "id": 2286237389, "lat": -25.096012, "lon": -50.10865}, {"type": "node", "id": 2286237391, "lat": -25.0959392, "lon": -50.1085079}, {"type": "node", "id": 2286237394, "lat": -25.0960468, "lon": -50.1084837}, {"type": "node", "id": 2286237399, "lat": -25.0960597, "lon": -50.1084943}, {"type": "node", "id": 2286237402, "lat": -25.0960855, "lon": -50.1085721}, {"type": "node", "id": 2286237404, "lat": -25.0960791, "lon": -50.1085973}, {"type": "node", "id": 2286237405, "lat": -25.0960768, "lon": -50.1085189}, {"type": "node", "id": 2286237407, "lat": -25.095956, "lon": -50.1086322}, {"type": "node", "id": 2286237408, "lat": -25.0959577, "lon": -50.1084876}, {"type": "node", "id": 2286237413, "lat": -25.0960839, "lon": -50.1085396}, {"type": "node", "id": 2286237414, "lat": -25.0959398, "lon": -50.1086142}, {"type": "node", "id": 2286237415, "lat": -25.0959727, "lon": -50.1084783}, {"type": "node", "id": 2286237429, "lat": -25.0959239, "lon": -50.1085671}, {"type": "node", "id": 2286261265, "lat": -25.0901931, "lon": -50.1041597}, {"type": "node", "id": 2286261268, "lat": -25.0902392, "lon": -50.1040379}, {"type": "node", "id": 2286261270, "lat": -25.0909494, "lon": -50.1029515}, {"type": "node", "id": 2286261271, "lat": -25.0908632, "lon": -50.102879}, {"type": "node", "id": 2286261273, "lat": -25.0903451, "lon": -50.1040511}, {"type": "node", "id": 2286261274, "lat": -25.0903662, "lon": -50.1041793}, {"type": "node", "id": 2286261276, "lat": -25.0902129, "lon": -50.1040607}, {"type": "node", "id": 2286261277, "lat": -25.0902047, "lon": -50.1041872}, {"type": "node", "id": 2286261278, "lat": -25.0902297, "lon": -50.1042153}, {"type": "node", "id": 2286261280, "lat": -25.0902001, "lon": -50.104081}, {"type": "node", "id": 2286261281, "lat": -25.090901, "lon": -50.1029229}, {"type": "node", "id": 2286261282, "lat": -25.0910034, "lon": -50.1029619}, {"type": "node", "id": 2286261283, "lat": -25.0909511, "lon": -50.1025903}, {"type": "node", "id": 2286261284, "lat": -25.0903514, "lon": -50.1042019}, {"type": "node", "id": 2286261286, "lat": -25.0903768, "lon": -50.1041433}, {"type": "node", "id": 2286261288, "lat": -25.090374, "lon": -50.1041014}, {"type": "node", "id": 2286261293, "lat": -25.0903156, "lon": -50.104032}, {"type": "node", "id": 2286261295, "lat": -25.0911067, "lon": -50.1029259}, {"type": "node", "id": 2286261297, "lat": -25.0911691, "lon": -50.1027094}, {"type": "node", "id": 2286261305, "lat": -25.0901903, "lon": -50.1041459}, {"type": "node", "id": 2286261306, "lat": -25.0903588, "lon": -50.1040674}, {"type": "node", "id": 2286261307, "lat": -25.0908665, "lon": -50.1026585}, {"type": "node", "id": 2286261309, "lat": -25.0910577, "lon": -50.1029531}, {"type": "node", "id": 2286261313, "lat": -25.0911784, "lon": -50.1027691}, {"type": "node", "id": 2286261315, "lat": -25.090257, "lon": -50.1042297}, {"type": "node", "id": 2286261318, "lat": -25.0911702, "lon": -50.102829}, {"type": "node", "id": 2286261319, "lat": -25.0901904, "lon": -50.1041125}, {"type": "node", "id": 2286261320, "lat": -25.0903236, "lon": -50.1042239}, {"type": "node", "id": 2286261321, "lat": -25.0909039, "lon": -50.1026172}, {"type": "node", "id": 2286261322, "lat": -25.0902985, "lon": -50.1040271}, {"type": "node", "id": 2286261323, "lat": -25.0902874, "lon": -50.1042338}, {"type": "node", "id": 2286261324, "lat": -25.0910034, "lon": -50.1025806}, {"type": "node", "id": 2286261325, "lat": -25.090833, "lon": -50.1027681}, {"type": "node", "id": 2286261326, "lat": -25.0908404, "lon": -50.1028262}, {"type": "node", "id": 2286261332, "lat": -25.0910558, "lon": -50.1025888}, {"type": "node", "id": 2286261336, "lat": -25.090263, "lon": -50.1040282}, {"type": "node", "id": 2286261338, "lat": -25.090842, "lon": -50.1027105}, {"type": "node", "id": 2521260224, "lat": -25.146002, "lon": -50.1812842}, {"type": "node", "id": 2521260225, "lat": -25.1472454, "lon": -50.1795208}, {"type": "node", "id": 2521275296, "lat": -25.1461367, "lon": -50.178539}, {"type": "node", "id": 2521284309, "lat": -25.1460138, "lon": -50.1812037}, {"type": "node", "id": 2521284310, "lat": -25.1453723, "lon": -50.1806132}, {"type": "node", "id": 2521284311, "lat": -25.1456191, "lon": -50.1802226}, {"type": "node", "id": 2521284312, "lat": -25.1459357, "lon": -50.1803179}, {"type": "node", "id": 2521284313, "lat": -25.1457918, "lon": -50.1805587}, {"type": "node", "id": 2521284314, "lat": -25.146207, "lon": -50.1809493}, {"type": "node", "id": 2605173542, "lat": -25.1457118, "lon": -50.1802505}, {"type": "node", "id": 2615441521, "lat": -25.1451097, "lon": -50.1528658}, {"type": "node", "id": 2615441524, "lat": -25.1446108, "lon": -50.1521279}, {"type": "node", "id": 2615441564, "lat": -25.1444586, "lon": -50.1517076}, {"type": "node", "id": 2615441566, "lat": -25.1445178, "lon": -50.1510912}, {"type": "node", "id": 2615441568, "lat": -25.1442811, "lon": -50.1509604}, {"type": "node", "id": 2615441570, "lat": -25.1443995, "lon": -50.1506429}, {"type": "node", "id": 2615441572, "lat": -25.1446785, "lon": -50.1504467}, {"type": "node", "id": 2615441574, "lat": -25.1451689, "lon": -50.1510258}, {"type": "node", "id": 2615441576, "lat": -25.1448814, "lon": -50.1514461}, {"type": "node", "id": 2615441578, "lat": -25.1446447, "lon": -50.1517823}, {"type": "node", "id": 2615441581, "lat": -25.1447715, "lon": -50.1520999}, {"type": "node", "id": 2615441584, "lat": -25.1453295, "lon": -50.1525669}, {"type": "node", "id": 2615447226, "lat": -25.14401, "lon": -50.1488297}, {"type": "node", "id": 2615447229, "lat": -25.1441567, "lon": -50.1491292}, {"type": "node", "id": 2615517052, "lat": -25.1444628, "lon": -50.1504641}, {"type": "node", "id": 2615517061, "lat": -25.1448756, "lon": -50.1502176}, {"type": "node", "id": 2615517063, "lat": -25.1446637, "lon": -50.1498479}, {"type": "node", "id": 2615517065, "lat": -25.1447975, "lon": -50.1496014}, {"type": "node", "id": 2615517067, "lat": -25.1444628, "lon": -50.1493303}, {"type": "node", "id": 2615517069, "lat": -25.1443736, "lon": -50.1490961}, {"type": "node", "id": 2615517070, "lat": -25.1438269, "lon": -50.1485785}, {"type": "node", "id": 2615517072, "lat": -25.1438269, "lon": -50.1496137}, {"type": "node", "id": 2615523497, "lat": -25.1428585, "lon": -50.1527414}, {"type": "node", "id": 2615523499, "lat": -25.1427407, "lon": -50.1524975}, {"type": "node", "id": 2615523501, "lat": -25.1427555, "lon": -50.1523267}, {"type": "node", "id": 2615523503, "lat": -25.1428143, "lon": -50.1521966}, {"type": "node", "id": 2615523504, "lat": -25.1430572, "lon": -50.1525869}, {"type": "node", "id": 2619185854, "lat": -25.0693032, "lon": -50.1636175}, {"type": "node", "id": 2619185855, "lat": -25.0694443, "lon": -50.1633061}, {"type": "node", "id": 2619185856, "lat": -25.0700182, "lon": -50.163574}, {"type": "node", "id": 2619185857, "lat": -25.0698675, "lon": -50.1639077}, {"type": "node", "id": 2619186009, "lat": -25.0697922, "lon": -50.1634534}, {"type": "node", "id": 2619186010, "lat": -25.0699335, "lon": -50.1631308}, {"type": "node", "id": 2619186011, "lat": -25.0701595, "lon": -50.1632514}, {"type": "node", "id": 2619222904, "lat": -25.076274, "lon": -50.1577173}, {"type": "node", "id": 2619222905, "lat": -25.0751498, "lon": -50.1571098}, {"type": "node", "id": 2619222906, "lat": -25.07583, "lon": -50.1555753}, {"type": "node", "id": 2619222907, "lat": -25.0769543, "lon": -50.1561828}, {"type": "node", "id": 2620013148, "lat": -25.0838839, "lon": -50.1729205}, {"type": "node", "id": 2620013150, "lat": -25.0833926, "lon": -50.1727722}, {"type": "node", "id": 2620015412, "lat": -25.0834578, "lon": -50.1727361}, {"type": "node", "id": 2620015417, "lat": -25.0833655, "lon": -50.1729453}, {"type": "node", "id": 2620015421, "lat": -25.0830459, "lon": -50.1730481}, {"type": "node", "id": 2620016581, "lat": -25.0831503, "lon": -50.1732922}, {"type": "node", "id": 2620016585, "lat": -25.0832277, "lon": -50.173243}, {"type": "node", "id": 2620016589, "lat": -25.0835342, "lon": -50.1731393}, {"type": "node", "id": 2620016592, "lat": -25.0837779, "lon": -50.1729139}, {"type": "node", "id": 2620032774, "lat": -25.0846882, "lon": -50.1727062}, {"type": "node", "id": 2620035429, "lat": -25.0846082, "lon": -50.1726709}, {"type": "node", "id": 2620035430, "lat": -25.0844681, "lon": -50.1727349}, {"type": "node", "id": 2620035431, "lat": -25.0843981, "lon": -50.1728145}, {"type": "node", "id": 2620035432, "lat": -25.0842701, "lon": -50.1727438}, {"type": "node", "id": 2620035433, "lat": -25.0834664, "lon": -50.173225}, {"type": "node", "id": 2620035434, "lat": -25.0830459, "lon": -50.1733163}, {"type": "node", "id": 2620035435, "lat": -25.0827245, "lon": -50.1731516}, {"type": "node", "id": 2620035436, "lat": -25.082754, "lon": -50.1730327}, {"type": "node", "id": 2620035437, "lat": -25.0828418, "lon": -50.1729301}, {"type": "node", "id": 2620035438, "lat": -25.0832876, "lon": -50.1729701}, {"type": "node", "id": 2620035440, "lat": -25.0834661, "lon": -50.1725143}, {"type": "node", "id": 2620035441, "lat": -25.0836702, "lon": -50.1723668}, {"type": "node", "id": 2620035442, "lat": -25.0838573, "lon": -50.172525}, {"type": "node", "id": 2620035443, "lat": -25.0839253, "lon": -50.1725465}, {"type": "node", "id": 2620035444, "lat": -25.0840953, "lon": -50.1725546}, {"type": "node", "id": 2620035445, "lat": -25.0841779, "lon": -50.1725465}, {"type": "node", "id": 2620035446, "lat": -25.0842435, "lon": -50.172517}, {"type": "node", "id": 2620035447, "lat": -25.0843689, "lon": -50.1724508}, {"type": "node", "id": 2620035448, "lat": -25.0845821, "lon": -50.1722977}, {"type": "node", "id": 2620035449, "lat": -25.0848379, "lon": -50.1723728}, {"type": "node", "id": 2703031987, "lat": -25.0777205, "lon": -50.166189, "tags": {"amenity": "restaurant"}}, {"type": "node", "id": 2765914375, "lat": -25.2868964, "lon": -49.9060545}, {"type": "node", "id": 2765914380, "lat": -25.2870492, "lon": -49.9057361}, {"type": "node", "id": 2765914382, "lat": -25.2870744, "lon": -49.9061591}, {"type": "node", "id": 2765914383, "lat": -25.2872273, "lon": -49.9058406}, {"type": "node", "id": 2878355477, "lat": -25.0499931, "lon": -50.1324682}, {"type": "node", "id": 2878355478, "lat": -25.050915, "lon": -50.1305364}, {"type": "node", "id": 2878355479, "lat": -25.0500629, "lon": -50.1300909}, {"type": "node", "id": 2968825253, "lat": -25.1087204, "lon": -50.1597514}, {"type": "node", "id": 3014261692, "lat": -25.1078454, "lon": -50.1664127}, {"type": "node", "id": 3014261693, "lat": -25.1077167, "lon": -50.1659386}, {"type": "node", "id": 3070841716, "lat": -25.0701675, "lon": -50.1826579}, {"type": "node", "id": 3070841717, "lat": -25.0703262, "lon": -50.1827474}, {"type": "node", "id": 3070841718, "lat": -25.0704682, "lon": -50.1824403}, {"type": "node", "id": 3070841719, "lat": -25.0703094, "lon": -50.1823509}, {"type": "node", "id": 3094966274, "lat": -25.1507968, "lon": -50.1439194}, {"type": "node", "id": 3094966275, "lat": -25.1510044, "lon": -50.1434172}, {"type": "node", "id": 3094966276, "lat": -25.1512693, "lon": -50.1435635}, {"type": "node", "id": 3094966277, "lat": -25.151144, "lon": -50.1441369}, {"type": "node", "id": 3094966278, "lat": -25.1511798, "lon": -50.1440578}, {"type": "node", "id": 3094966279, "lat": -25.1512836, "lon": -50.1437138}, {"type": "node", "id": 3103044507, "lat": -25.0697759, "lon": -50.1634894}, {"type": "node", "id": 3103044508, "lat": -25.0700019, "lon": -50.16361}, {"type": "node", "id": 3108492266, "lat": -25.0897315, "lon": -50.1689063, "tags": {"addr:city": "Ponta Grossa", "addr:housenumber": "545", "addr:street": "Rua Frederico Bahls", "addr:suburb": "Centro", "amenity": "restaurant", "name": "Casa Velha Grill", "website": "http://www.casavelhaeventos.com.br/"}}, {"type": "node", "id": 3119758709, "lat": -25.0820883, "lon": -50.1609099}, {"type": "node", "id": 3119758710, "lat": -25.0822681, "lon": -50.1608401}, {"type": "node", "id": 3121438996, "lat": -25.0562129, "lon": -50.164047}, {"type": "node", "id": 3121438997, "lat": -25.0560513, "lon": -50.1640899}, {"type": "node", "id": 3121472094, "lat": -25.0558593, "lon": -50.1626522}, {"type": "node", "id": 3121472095, "lat": -25.056372, "lon": -50.1627877}, {"type": "node", "id": 3128066730, "lat": -25.0845481, "lon": -50.1727725}, {"type": "node", "id": 3128066731, "lat": -25.0847362, "lon": -50.1726245}, {"type": "node", "id": 3130423421, "lat": -25.0895226, "lon": -50.1067197}, {"type": "node", "id": 3147136038, "lat": -25.0911433, "lon": -50.102656}, {"type": "node", "id": 3171374769, "lat": -25.1003851, "lon": -50.1275108}, {"type": "node", "id": 3171374770, "lat": -25.1004737, "lon": -50.127512}, {"type": "node", "id": 3171374771, "lat": -25.1004756, "lon": -50.1273295}, {"type": "node", "id": 3171374772, "lat": -25.100884, "lon": -50.1273474}, {"type": "node", "id": 3171374773, "lat": -25.100882, "lon": -50.1275382}, {"type": "node", "id": 3171374774, "lat": -25.1010057, "lon": -50.1275397}, {"type": "node", "id": 3171374775, "lat": -25.1010091, "lon": -50.127215}, {"type": "node", "id": 3171374776, "lat": -25.1003884, "lon": -50.1271907}, {"type": "node", "id": 3171374777, "lat": -25.1006235, "lon": -50.1271392}, {"type": "node", "id": 3171374778, "lat": -25.1006229, "lon": -50.1271936}, {"type": "node", "id": 3171374779, "lat": -25.1007668, "lon": -50.127141}, {"type": "node", "id": 3171374780, "lat": -25.100766, "lon": -50.1272119}, {"type": "node", "id": 3171406321, "lat": -25.0887732, "lon": -50.1621012}, {"type": "node", "id": 3171406322, "lat": -25.0896404, "lon": -50.1619778}, {"type": "node", "id": 3171406323, "lat": -25.0896162, "lon": -50.1617471}, {"type": "node", "id": 3171406324, "lat": -25.0895166, "lon": -50.1617578}, {"type": "node", "id": 3171406325, "lat": -25.0894655, "lon": -50.1615084}, {"type": "node", "id": 3171406326, "lat": -25.0895651, "lon": -50.1614843}, {"type": "node", "id": 3171406327, "lat": -25.0895457, "lon": -50.1613689}, {"type": "node", "id": 3171406328, "lat": -25.0887392, "lon": -50.161495}, {"type": "node", "id": 3171406329, "lat": -25.0886518, "lon": -50.1616452}, {"type": "node", "id": 3171406330, "lat": -25.0886566, "lon": -50.1616854}, {"type": "node", "id": 3171406331, "lat": -25.0887732, "lon": -50.161664}, {"type": "node", "id": 3171406332, "lat": -25.0887878, "lon": -50.1618329}, {"type": "node", "id": 3171406333, "lat": -25.0887101, "lon": -50.161841}, {"type": "node", "id": 3171406334, "lat": -25.0887319, "lon": -50.1619858}, {"type": "node", "id": 3171406335, "lat": -25.088766, "lon": -50.1619805}, {"type": "node", "id": 3171461707, "lat": -25.0558412, "lon": -50.136468}, {"type": "node", "id": 3171461708, "lat": -25.0560405, "lon": -50.136417}, {"type": "node", "id": 3171461709, "lat": -25.0560283, "lon": -50.1363687}, {"type": "node", "id": 3171461710, "lat": -25.0562397, "lon": -50.1363044}, {"type": "node", "id": 3171461711, "lat": -25.0562276, "lon": -50.1362239}, {"type": "node", "id": 3171461712, "lat": -25.0561863, "lon": -50.1362293}, {"type": "node", "id": 3171461713, "lat": -25.0561498, "lon": -50.1360442}, {"type": "node", "id": 3171461714, "lat": -25.0562883, "lon": -50.1359959}, {"type": "node", "id": 3171461715, "lat": -25.0562616, "lon": -50.1358806}, {"type": "node", "id": 3171461716, "lat": -25.0560526, "lon": -50.1359369}, {"type": "node", "id": 3171461717, "lat": -25.0560453, "lon": -50.1359101}, {"type": "node", "id": 3171461718, "lat": -25.0562543, "lon": -50.135843}, {"type": "node", "id": 3171461719, "lat": -25.0562324, "lon": -50.1357411}, {"type": "node", "id": 3171461720, "lat": -25.0560113, "lon": -50.1358028}, {"type": "node", "id": 3171461721, "lat": -25.056004, "lon": -50.1357733}, {"type": "node", "id": 3171461722, "lat": -25.0560988, "lon": -50.1357438}, {"type": "node", "id": 3171461723, "lat": -25.0560623, "lon": -50.1356338}, {"type": "node", "id": 3171461724, "lat": -25.0559724, "lon": -50.1356553}, {"type": "node", "id": 3171461725, "lat": -25.0559676, "lon": -50.1356204}, {"type": "node", "id": 3171461726, "lat": -25.0561036, "lon": -50.1355775}, {"type": "node", "id": 3171461727, "lat": -25.0560793, "lon": -50.1354782}, {"type": "node", "id": 3171461728, "lat": -25.0557586, "lon": -50.1355802}, {"type": "node", "id": 3171461729, "lat": -25.0557805, "lon": -50.1356794}, {"type": "node", "id": 3171461730, "lat": -25.055919, "lon": -50.1356392}, {"type": "node", "id": 3171461731, "lat": -25.0559287, "lon": -50.1356633}, {"type": "node", "id": 3171461732, "lat": -25.055761, "lon": -50.1357196}, {"type": "node", "id": 3171461733, "lat": -25.0557489, "lon": -50.135666}, {"type": "node", "id": 3171461734, "lat": -25.0556493, "lon": -50.1357035}, {"type": "node", "id": 3178865854, "lat": -25.0393002, "lon": -50.244244}, {"type": "node", "id": 3178865855, "lat": -25.0395082, "lon": -50.2442874}, {"type": "node", "id": 3178865856, "lat": -25.0396049, "lon": -50.2437232}, {"type": "node", "id": 3178865857, "lat": -25.039397, "lon": -50.2436797}, {"type": "node", "id": 3186652193, "lat": -25.1154221, "lon": -50.1397542}, {"type": "node", "id": 3192151402, "lat": -25.102975, "lon": -50.1628438}, {"type": "node", "id": 3192151403, "lat": -25.1032051, "lon": -50.1627721}, {"type": "node", "id": 3192151404, "lat": -25.1031344, "lon": -50.1624955}, {"type": "node", "id": 3192151405, "lat": -25.1029043, "lon": -50.1625672}, {"type": "node", "id": 3192179958, "lat": -25.0931017, "lon": -50.1606185, "tags": {"addr:city": "Ponta Grossa", "addr:housenumber": "284", "addr:street": "Pra\u00e7a Bar\u00e3o do Rio Branco", "addr:suburb": "Centro", "amenity": "pharmacy", "name": "Farm\u00e1cia Fleming", "opening_hours": "24/7"}}, {"type": "node", "id": 3600686694, "lat": -25.0866715, "lon": -50.164254, "tags": {"addr:city": "Ponta Grossa", "addr:housenumber": "566", "addr:street": "Rua Doutor Penteado de Almeida", "amenity": "restaurant", "cuisine": "sushi;chinese;japanese;asian", "name": "Nagashi Asian Food"}}, {"type": "node", "id": 3644366401, "lat": -25.078257, "lon": -50.2056662, "tags": {"addr:city": "Ponta Grossa", "addr:housenumber": "3303", "addr:street": "Avenida Souza Naves", "amenity": "restaurant", "cuisine": "regional", "name": "Churrascaria Paran\u00e1 Primo"}}, {"type": "node", "id": 3868709183, "lat": -25.0846477, "lon": -50.1679602}, {"type": "node", "id": 3868709184, "lat": -25.0847812, "lon": -50.1679091}, {"type": "node", "id": 3868709187, "lat": -25.0848527, "lon": -50.1679009}, {"type": "node", "id": 3948074772, "lat": -25.0494247, "lon": -50.1320332}, {"type": "node", "id": 3948074773, "lat": -25.049306, "lon": -50.1314709}, {"type": "node", "id": 3948074774, "lat": -25.0496595, "lon": -50.1307306}, {"type": "node", "id": 4229272376, "lat": -25.074663, "lon": -50.1644531, "tags": {"addr:city": "Ponta Grossa", "addr:housenumber": "1627", "addr:postcode": "84015-050", "addr:street": "Avenida Anita Garibaldi", "addr:suburb": "\u00d3rf\u00e3s", "amenity": "school", "ele": "900", "name": "Escola Desafio", "operator": "Geovanni Chrestani"}}, {"type": "node", "id": 4259641589, "lat": -25.0856603, "lon": -50.166438, "tags": {"addr:housenumber": "464", "addr:street": "Rua Prefeito Bras\u00edlio Ribas", "amenity": "restaurant", "cuisine": "pizza", "fixme": "precisa do ddd 3027 5757", "internet_access": "wlan", "name": "Emp\u00f3rio da Pizza", "opening_hours": "Tu-Su 18:00-23:00", "website": "https://www.emporiodapizza.com.br/"}}, {"type": "node", "id": 4259722589, "lat": -25.0586747, "lon": -50.1633671, "tags": {"addr:street": "Rua Nilza Marques Neme", "amenity": "hospital", "name": "CAS posto de sa\u00fade"}}, {"type": "node", "id": 4287184389, "lat": -25.1011304, "lon": -50.1592929, "tags": {"addr:housenumber": "81", "addr:street": "Rua Augusto Ribas", "amenity": "hospital", "name": "Pronto Socorro", "opening_hours": "24/7", "phone": "+554232207800"}}, {"type": "node", "id": 4480989292, "lat": -25.1041319, "lon": -50.1798428, "tags": {"addr:housenumber": "120", "addr:postcode": "84051-370", "addr:street": "Rua Alfredo Munhoz", "amenity": "school", "name": "Escola Municipal Professor Pl\u00e1cido Cardon", "name:pt": "Escola Municipal Professor Pl\u00e1cido Cardon", "phone": "+554239011614"}}, {"type": "node", "id": 4637220577, "lat": -25.0834928, "lon": -50.1681581}, {"type": "node", "id": 4637220578, "lat": -25.0842011, "lon": -50.1679637}, {"type": "node", "id": 4637220579, "lat": -25.0845092, "lon": -50.169404}, {"type": "node", "id": 4637220580, "lat": -25.0844692, "lon": -50.1694261}, {"type": "node", "id": 4637220581, "lat": -25.0836649, "lon": -50.1690063}, {"type": "node", "id": 4643081790, "lat": -25.1108248, "lon": -50.1680141, "tags": {"amenity": "restaurant", "name": "Restaurante e Mercado Elite", "name:pt": "Restaurante e Mercado Elite"}}, {"type": "node", "id": 4646293503, "lat": -25.0966028, "lon": -50.1145294}, {"type": "node", "id": 4646293504, "lat": -25.0966093, "lon": -50.1145449}, {"type": "node", "id": 4646293505, "lat": -25.0966192, "lon": -50.1145579}, {"type": "node", "id": 4646293506, "lat": -25.0966061, "lon": -50.1143631}, {"type": "node", "id": 4646293507, "lat": -25.0967837, "lon": -50.1145931}, {"type": "node", "id": 4646293508, "lat": -25.0968335, "lon": -50.1140285}, {"type": "node", "id": 4646293509, "lat": -25.0968689, "lon": -50.1140213}, {"type": "node", "id": 4646293510, "lat": -25.0968766, "lon": -50.1140277}, {"type": "node", "id": 4646293511, "lat": -25.0968821, "lon": -50.1140365}, {"type": "node", "id": 4646293512, "lat": -25.0968597, "lon": -50.114018}, {"type": "node", "id": 4646293513, "lat": -25.0966209, "lon": -50.1143302}, {"type": "node", "id": 4646293514, "lat": -25.0966319, "lon": -50.1145676}, {"type": "node", "id": 4646293515, "lat": -25.0966064, "lon": -50.1144026}, {"type": "node", "id": 4646293516, "lat": -25.0966003, "lon": -50.1145126}, {"type": "node", "id": 4646293537, "lat": -25.0945276, "lon": -50.1146068}, {"type": "node", "id": 4646293538, "lat": -25.0948276, "lon": -50.1145103}, {"type": "node", "id": 4646293539, "lat": -25.0947383, "lon": -50.113854}, {"type": "node", "id": 4646293540, "lat": -25.0944258, "lon": -50.1139187}, {"type": "node", "id": 4646293622, "lat": -25.0980433, "lon": -50.1142295}, {"type": "node", "id": 4646293623, "lat": -25.0980914, "lon": -50.1140278}, {"type": "node", "id": 4646293624, "lat": -25.0975834, "lon": -50.1138632}, {"type": "node", "id": 4646293625, "lat": -25.0975417, "lon": -50.1141287}, {"type": "node", "id": 4646293626, "lat": -25.0980385, "lon": -50.1142508}, {"type": "node", "id": 4646293635, "lat": -25.0978789, "lon": -50.1139594}, {"type": "node", "id": 4646293643, "lat": -25.0939584, "lon": -50.1536814}, {"type": "node", "id": 4646293644, "lat": -25.0939872, "lon": -50.1534478}, {"type": "node", "id": 4646293645, "lat": -25.0939488, "lon": -50.1531363}, {"type": "node", "id": 4646293646, "lat": -25.0936026, "lon": -50.1524179}, {"type": "node", "id": 4646293647, "lat": -25.0932693, "lon": -50.1520817}, {"type": "node", "id": 4646293648, "lat": -25.0930001, "lon": -50.1519401}, {"type": "node", "id": 4646293649, "lat": -25.0928142, "lon": -50.152025}, {"type": "node", "id": 4646293650, "lat": -25.0927757, "lon": -50.1522232}, {"type": "node", "id": 4646293651, "lat": -25.0928013, "lon": -50.1523436}, {"type": "node", "id": 4646293652, "lat": -25.0928462, "lon": -50.1523648}, {"type": "node", "id": 4646305394, "lat": -25.0980119, "lon": -50.155266}, {"type": "node", "id": 4646305395, "lat": -25.0980622, "lon": -50.1550565}, {"type": "node", "id": 4646305396, "lat": -25.0976994, "lon": -50.1549302}, {"type": "node", "id": 4646305397, "lat": -25.0976604, "lon": -50.1551951}, {"type": "node", "id": 4646305399, "lat": -25.0980393, "lon": -50.1551517}, {"type": "node", "id": 4646305400, "lat": -25.0983346, "lon": -50.1552102}, {"type": "node", "id": 4646305401, "lat": -25.0996596, "lon": -50.1555718}, {"type": "node", "id": 4646305403, "lat": -25.099647, "lon": -50.1556357}, {"type": "node", "id": 4646305404, "lat": -25.0996749, "lon": -50.155494}, {"type": "node", "id": 4646305405, "lat": -25.0983496, "lon": -50.1551335}, {"type": "node", "id": 4646305406, "lat": -25.0983189, "lon": -50.1552907}, {"type": "node", "id": 4646305807, "lat": -25.1037644, "lon": -50.1586728}, {"type": "node", "id": 4646305808, "lat": -25.1038537, "lon": -50.1586239}, {"type": "node", "id": 4646305809, "lat": -25.1038898, "lon": -50.1585501}, {"type": "node", "id": 4646305811, "lat": -25.1041876, "lon": -50.1587811}, {"type": "node", "id": 4646305812, "lat": -25.1045191, "lon": -50.158931}, {"type": "node", "id": 4646305815, "lat": -25.1054837, "lon": -50.1591556}, {"type": "node", "id": 4646305816, "lat": -25.1061489, "lon": -50.1593169}, {"type": "node", "id": 4646305817, "lat": -25.1061519, "lon": -50.1593424}, {"type": "node", "id": 4646305819, "lat": -25.1054646, "lon": -50.1593672}, {"type": "node", "id": 4646305820, "lat": -25.1053036, "lon": -50.1593281}, {"type": "node", "id": 4646305821, "lat": -25.1048395, "lon": -50.1592046}, {"type": "node", "id": 4646305822, "lat": -25.1042093, "lon": -50.1590084}, {"type": "node", "id": 4646305824, "lat": -25.103986, "lon": -50.1588542}, {"type": "node", "id": 4646305826, "lat": -25.1043953, "lon": -50.1588924}, {"type": "node", "id": 4646305828, "lat": -25.1040534, "lon": -50.1586926}, {"type": "node", "id": 4646305833, "lat": -25.1059819, "lon": -50.1593886}, {"type": "node", "id": 4646305860, "lat": -25.1080504, "lon": -50.1570898}, {"type": "node", "id": 4646305861, "lat": -25.1081443, "lon": -50.157158}, {"type": "node", "id": 4674408654, "lat": -25.0698556, "lon": -50.1462905}, {"type": "node", "id": 4674408655, "lat": -25.0702854, "lon": -50.1470853}, {"type": "node", "id": 4674408656, "lat": -25.071231, "lon": -50.1464922}, {"type": "node", "id": 4674408657, "lat": -25.0707904, "lon": -50.1456737}, {"type": "node", "id": 4897676971, "lat": -25.0397607, "lon": -50.2501077, "tags": {"amenity": "restaurant"}}, {"type": "node", "id": 5023105123, "lat": -25.0542112, "lon": -50.162632}, {"type": "node", "id": 5023105124, "lat": -25.054114, "lon": -50.1623047}, {"type": "node", "id": 5023105125, "lat": -25.0548357, "lon": -50.1624657}, {"type": "node", "id": 5202630839, "lat": -25.040725, "lon": -50.2420871}, {"type": "node", "id": 5202630840, "lat": -25.0407778, "lon": -50.2420006}, {"type": "node", "id": 5202630841, "lat": -25.0406936, "lon": -50.2419381}, {"type": "node", "id": 5202630842, "lat": -25.0406409, "lon": -50.2420247}, {"type": "node", "id": 5283149026, "lat": -25.0965374, "lon": -50.155076}, {"type": "node", "id": 5283149075, "lat": -25.0988317, "lon": -50.1630434}, {"type": "node", "id": 5283149076, "lat": -25.0991508, "lon": -50.1635358}, {"type": "node", "id": 5283149077, "lat": -25.099661, "lon": -50.1636671}, {"type": "node", "id": 5283149078, "lat": -25.1006966, "lon": -50.1633334}, {"type": "node", "id": 5283149079, "lat": -25.1007228, "lon": -50.163082}, {"type": "node", "id": 5283234946, "lat": -25.0940878, "lon": -50.1602101}, {"type": "node", "id": 5283235133, "lat": -25.0825807, "lon": -50.1735959}, {"type": "node", "id": 5283235134, "lat": -25.082515, "lon": -50.1734627}, {"type": "node", "id": 5283235138, "lat": -25.0836497, "lon": -50.1731597}, {"type": "node", "id": 5284332999, "lat": -25.0705564, "lon": -50.1152054}, {"type": "node", "id": 5284333000, "lat": -25.0705313, "lon": -50.115113}, {"type": "node", "id": 5284333001, "lat": -25.0702425, "lon": -50.1152532}, {"type": "node", "id": 5284333002, "lat": -25.0704141, "lon": -50.1157631}, {"type": "node", "id": 5284333003, "lat": -25.070696, "lon": -50.1156599}, {"type": "node", "id": 5284341623, "lat": -25.0707503, "lon": -50.1159225}, {"type": "node", "id": 5284341624, "lat": -25.0701704, "lon": -50.1161317}, {"type": "node", "id": 5284353921, "lat": -25.0715624, "lon": -50.1191722}, {"type": "node", "id": 5284353922, "lat": -25.0717034, "lon": -50.1191156}, {"type": "node", "id": 5284353923, "lat": -25.0716041, "lon": -50.1187634}, {"type": "node", "id": 5284353924, "lat": -25.0713733, "lon": -50.1188519}, {"type": "node", "id": 5284353925, "lat": -25.0715175, "lon": -50.1191846}, {"type": "node", "id": 5284356283, "lat": -25.0719394, "lon": -50.1201332}, {"type": "node", "id": 5284356285, "lat": -25.0719043, "lon": -50.1196727}, {"type": "node", "id": 5284356286, "lat": -25.0717571, "lon": -50.1197266}, {"type": "node", "id": 5284359545, "lat": -25.0720962, "lon": -50.1205065}, {"type": "node", "id": 5284359546, "lat": -25.0722074, "lon": -50.1204602}, {"type": "node", "id": 5284359547, "lat": -25.0722924, "lon": -50.1203772}, {"type": "node", "id": 5284359548, "lat": -25.07212, "lon": -50.1200751}, {"type": "node", "id": 5284359549, "lat": -25.0719535, "lon": -50.1201525}, {"type": "node", "id": 5284367911, "lat": -25.0709863, "lon": -50.1223562}, {"type": "node", "id": 5284367912, "lat": -25.0712107, "lon": -50.1224553}, {"type": "node", "id": 5284367913, "lat": -25.0714126, "lon": -50.1220553}, {"type": "node", "id": 5284367914, "lat": -25.0710215, "lon": -50.1211634}, {"type": "node", "id": 5284367915, "lat": -25.0705791, "lon": -50.1213864}, {"type": "node", "id": 5284374190, "lat": -25.0715464, "lon": -50.121303}, {"type": "node", "id": 5284374195, "lat": -25.0717195, "lon": -50.1212146}, {"type": "node", "id": 5284376078, "lat": -25.0718757, "lon": -50.1207322}, {"type": "node", "id": 5284376079, "lat": -25.0720672, "lon": -50.1206225}, {"type": "node", "id": 5284376081, "lat": -25.0719531, "lon": -50.1210128}, {"type": "node", "id": 5284377324, "lat": -25.0719442, "lon": -50.1210856}, {"type": "node", "id": 5284377325, "lat": -25.0717628, "lon": -50.1211698}, {"type": "node", "id": 5284377326, "lat": -25.0716063, "lon": -50.1215247}, {"type": "node", "id": 5284377327, "lat": -25.0713821, "lon": -50.1216462}, {"type": "node", "id": 5284378947, "lat": -25.0693291, "lon": -50.1220293}, {"type": "node", "id": 5284379826, "lat": -25.0682197, "lon": -50.11603}, {"type": "node", "id": 5284379827, "lat": -25.0691351, "lon": -50.1155309}, {"type": "node", "id": 5284379828, "lat": -25.0687891, "lon": -50.1147298}, {"type": "node", "id": 5284379829, "lat": -25.0678737, "lon": -50.1152228}, {"type": "node", "id": 5284388711, "lat": -25.0667461, "lon": -50.1220474}, {"type": "node", "id": 5284388712, "lat": -25.0674569, "lon": -50.1216899}, {"type": "node", "id": 5284395589, "lat": -25.0750089, "lon": -50.1222867}, {"type": "node", "id": 5284395590, "lat": -25.0752042, "lon": -50.1221326}, {"type": "node", "id": 5284395591, "lat": -25.0747354, "lon": -50.1213685}, {"type": "node", "id": 5284395593, "lat": -25.0743726, "lon": -50.1211652}, {"type": "node", "id": 5284399684, "lat": -25.0736605, "lon": -50.1221415}, {"type": "node", "id": 5284399685, "lat": -25.0739809, "lon": -50.1219342}, {"type": "node", "id": 5284404619, "lat": -25.0734903, "lon": -50.1214892}, {"type": "node", "id": 5284413371, "lat": -25.0738067, "lon": -50.1220469}, {"type": "node", "id": 5284413372, "lat": -25.07367, "lon": -50.1217493}, {"type": "node", "id": 5284413373, "lat": -25.0738463, "lon": -50.1216502}, {"type": "node", "id": 5284416437, "lat": -25.0737055, "lon": -50.1213947}, {"type": "node", "id": 5284484785, "lat": -25.0965164, "lon": -50.1548845}, {"type": "node", "id": 5284484786, "lat": -25.096537, "lon": -50.1551209}, {"type": "node", "id": 5285891778, "lat": -25.0674051, "lon": -50.1506921}, {"type": "node", "id": 5285891780, "lat": -25.0679784, "lon": -50.1476237}, {"type": "node", "id": 5285891784, "lat": -25.0663166, "lon": -50.1487395}, {"type": "node", "id": 5285891786, "lat": -25.0690669, "lon": -50.1495334}, {"type": "node", "id": 5286174394, "lat": -25.0668827, "lon": -50.1496624}, {"type": "node", "id": 5286174395, "lat": -25.066909, "lon": -50.1496471}, {"type": "node", "id": 5286174396, "lat": -25.0668417, "lon": -50.1495061}, {"type": "node", "id": 5286174397, "lat": -25.0668114, "lon": -50.1495128}, {"type": "node", "id": 5294906336, "lat": -25.1078499, "lon": -50.157072}, {"type": "node", "id": 5294906351, "lat": -25.1038081, "lon": -50.1586584}, {"type": "node", "id": 5294906352, "lat": -25.1038792, "lon": -50.1585867}, {"type": "node", "id": 5294906353, "lat": -25.1057196, "lon": -50.1594168}, {"type": "node", "id": 5294906354, "lat": -25.1046782, "lon": -50.1591552}, {"type": "node", "id": 5294906355, "lat": -25.10385, "lon": -50.1587476}, {"type": "node", "id": 5294906356, "lat": -25.1050853, "lon": -50.159279}, {"type": "node", "id": 5294906361, "lat": -25.0847066, "lon": -50.1695546}, {"type": "node", "id": 5294906362, "lat": -25.084677, "lon": -50.1694215}, {"type": "node", "id": 5294906363, "lat": -25.0851887, "lon": -50.1692441}, {"type": "node", "id": 5294906364, "lat": -25.0852331, "lon": -50.1694075}, {"type": "node", "id": 5294906365, "lat": -25.0847256, "lon": -50.1695733}, {"type": "node", "id": 5294906367, "lat": -25.0847412, "lon": -50.1682584}, {"type": "node", "id": 5294906368, "lat": -25.0848, "lon": -50.1679691}, {"type": "node", "id": 5294906369, "lat": -25.0848641, "lon": -50.1679369}, {"type": "node", "id": 5322438312, "lat": -25.1199723, "lon": -50.1390025}, {"type": "node", "id": 5322438313, "lat": -25.1199771, "lon": -50.1390991}, {"type": "node", "id": 5322438314, "lat": -25.1177186, "lon": -50.1413012}, {"type": "node", "id": 5322438315, "lat": -25.1179298, "lon": -50.1416042}, {"type": "node", "id": 5322438316, "lat": -25.118146, "lon": -50.1417545}, {"type": "node", "id": 5322438318, "lat": -25.119149, "lon": -50.1372322}, {"type": "node", "id": 5322438319, "lat": -25.1190433, "lon": -50.1372269}, {"type": "node", "id": 5322438320, "lat": -25.1178813, "lon": -50.1373771}, {"type": "node", "id": 5322443821, "lat": -25.1178145, "lon": -50.1373583}, {"type": "node", "id": 5322443822, "lat": -25.1177283, "lon": -50.1373141}, {"type": "node", "id": 5322443823, "lat": -25.1179553, "lon": -50.1373851}, {"type": "node", "id": 5323517227, "lat": -25.244138, "lon": -50.0199768}, {"type": "node", "id": 5323517228, "lat": -25.244201, "lon": -50.0198695}, {"type": "node", "id": 5323517229, "lat": -25.2442083, "lon": -50.0198105}, {"type": "node", "id": 5323517230, "lat": -25.2441671, "lon": -50.01973}, {"type": "node", "id": 5323517231, "lat": -25.2441428, "lon": -50.0196308}, {"type": "node", "id": 5323517232, "lat": -25.2441404, "lon": -50.0194725}, {"type": "node", "id": 5323517233, "lat": -25.2441622, "lon": -50.0193143}, {"type": "node", "id": 5323517234, "lat": -25.2442374, "lon": -50.0191641}, {"type": "node", "id": 5323517235, "lat": -25.2451205, "lon": -50.0180027}, {"type": "node", "id": 5323517236, "lat": -25.2455426, "lon": -50.0178686}, {"type": "node", "id": 5323517237, "lat": -25.2456324, "lon": -50.0182414}, {"type": "node", "id": 5323517238, "lat": -25.2460206, "lon": -50.020017}, {"type": "node", "id": 5323517239, "lat": -25.2447202, "lon": -50.0199446}, {"type": "node", "id": 5345251408, "lat": -25.082707, "lon": -50.1706076}, {"type": "node", "id": 5345251409, "lat": -25.0828182, "lon": -50.1703661}, {"type": "node", "id": 5345251410, "lat": -25.0833453, "lon": -50.1706354}, {"type": "node", "id": 5345251411, "lat": -25.0832234, "lon": -50.1709165}, {"type": "node", "id": 5345251412, "lat": -25.1184004, "lon": -50.1508442}, {"type": "node", "id": 5345251413, "lat": -25.1186414, "lon": -50.1504471}, {"type": "node", "id": 5345251414, "lat": -25.1186189, "lon": -50.1508532}, {"type": "node", "id": 5349214637, "lat": -25.0733903, "lon": -50.1500961}, {"type": "node", "id": 5349214638, "lat": -25.0738519, "lon": -50.1497877}, {"type": "node", "id": 5349214639, "lat": -25.0735458, "lon": -50.1502933}, {"type": "node", "id": 5378197311, "lat": -25.0563246, "lon": -50.1627749}, {"type": "node", "id": 5395917889, "lat": -25.1178108, "lon": -50.1414675}, {"type": "node", "id": 5417055585, "lat": -25.1147733, "lon": -50.119492, "tags": {"amenity": "marketplace", "name": "Super Cipa"}}, {"type": "node", "id": 5417055742, "lat": -25.0987891, "lon": -50.104948, "tags": {"entrance": "main"}}, {"type": "node", "id": 5422301171, "lat": -25.1066514, "lon": -50.1289592}, {"type": "node", "id": 5422301172, "lat": -25.1066782, "lon": -50.1288063}, {"type": "node", "id": 5422301173, "lat": -25.1067808, "lon": -50.1288282}, {"type": "node", "id": 5422301174, "lat": -25.1067541, "lon": -50.128981}, {"type": "node", "id": 5422301209, "lat": -25.1047617, "lon": -50.1256638}, {"type": "node", "id": 5422301210, "lat": -25.1053859, "lon": -50.1247036}, {"type": "node", "id": 5422301211, "lat": -25.1057842, "lon": -50.1249128}, {"type": "node", "id": 5422301212, "lat": -25.1052135, "lon": -50.125806}, {"type": "node", "id": 5429849672, "lat": -25.0970539, "lon": -50.1040203}, {"type": "node", "id": 5429849673, "lat": -25.0970461, "lon": -50.1038903}, {"type": "node", "id": 5429849674, "lat": -25.0969439, "lon": -50.1038978}, {"type": "node", "id": 5429849675, "lat": -25.0969376, "lon": -50.1037927}, {"type": "node", "id": 5429849676, "lat": -25.0962799, "lon": -50.1038413}, {"type": "node", "id": 5429849677, "lat": -25.0963053, "lon": -50.1040113}, {"type": "node", "id": 5429849678, "lat": -25.0966959, "lon": -50.1039894}, {"type": "node", "id": 5429849679, "lat": -25.0966993, "lon": -50.1040464}, {"type": "node", "id": 5443122610, "lat": -25.1006138, "lon": -50.1273313}, {"type": "node", "id": 5443122611, "lat": -25.100775, "lon": -50.1273461}, {"type": "node", "id": 5443122612, "lat": -25.100773, "lon": -50.1275362}, {"type": "node", "id": 5443122613, "lat": -25.1006117, "lon": -50.1275341}, {"type": "node", "id": 5443122614, "lat": -25.1007441, "lon": -50.1269092}, {"type": "node", "id": 5443122615, "lat": -25.1007522, "lon": -50.1266679}, {"type": "node", "id": 5443122616, "lat": -25.1008745, "lon": -50.1266729}, {"type": "node", "id": 5443122617, "lat": -25.100877, "lon": -50.1265965}, {"type": "node", "id": 5443122618, "lat": -25.1007567, "lon": -50.1265916}, {"type": "node", "id": 5443122619, "lat": -25.1007608, "lon": -50.1264701}, {"type": "node", "id": 5443122620, "lat": -25.1011106, "lon": -50.1264845}, {"type": "node", "id": 5443122721, "lat": -25.101096, "lon": -50.1269218}, {"type": "node", "id": 5443122722, "lat": -25.1010299, "lon": -50.1269191}, {"type": "node", "id": 5443122723, "lat": -25.101033, "lon": -50.1268263}, {"type": "node", "id": 5443122724, "lat": -25.1008753, "lon": -50.1268198}, {"type": "node", "id": 5443122725, "lat": -25.1008721, "lon": -50.1269144}, {"type": "node", "id": 5457833869, "lat": -25.0891213, "lon": -50.1583566}, {"type": "node", "id": 5457833870, "lat": -25.0890288, "lon": -50.1577175}, {"type": "node", "id": 5457833871, "lat": -25.0898422, "lon": -50.157574}, {"type": "node", "id": 5457833872, "lat": -25.0899347, "lon": -50.1582131}, {"type": "node", "id": 5457833878, "lat": -25.0868205, "lon": -50.1604213}, {"type": "node", "id": 5457833879, "lat": -25.0867686, "lon": -50.16016}, {"type": "node", "id": 5457833880, "lat": -25.0862709, "lon": -50.1602}, {"type": "node", "id": 5457833881, "lat": -25.0862788, "lon": -50.1605125}, {"type": "node", "id": 5457833882, "lat": -25.0862387, "lon": -50.1602483}, {"type": "node", "id": 5459323504, "lat": -25.0946776, "lon": -50.1257566}, {"type": "node", "id": 5459323505, "lat": -25.0945534, "lon": -50.1249979}, {"type": "node", "id": 5459323506, "lat": -25.095321, "lon": -50.1249416}, {"type": "node", "id": 5459323507, "lat": -25.0954054, "lon": -50.1256416}, {"type": "node", "id": 5459323827, "lat": -25.0946201, "lon": -50.1253947}, {"type": "node", "id": 5459323828, "lat": -25.095051, "lon": -50.125698}, {"type": "node", "id": 5459323831, "lat": -25.0953597, "lon": -50.1252824}, {"type": "node", "id": 5459323835, "lat": -25.0949505, "lon": -50.1249688}, {"type": "node", "id": 5459446456, "lat": -25.1140161, "lon": -50.1520682}, {"type": "node", "id": 5522838308, "lat": -25.0843052, "lon": -50.1774464}, {"type": "node", "id": 5522842326, "lat": -25.0843023, "lon": -50.177465}, {"type": "node", "id": 5522842327, "lat": -25.0843015, "lon": -50.1774267}, {"type": "node", "id": 5564525350, "lat": -25.0906841, "lon": -50.1393035}, {"type": "node", "id": 5564525351, "lat": -25.0906383, "lon": -50.139221}, {"type": "node", "id": 5564525352, "lat": -25.0905913, "lon": -50.1391691}, {"type": "node", "id": 5564525353, "lat": -25.0905998, "lon": -50.1391319}, {"type": "node", "id": 5564525354, "lat": -25.0906166, "lon": -50.1391226}, {"type": "node", "id": 5564525355, "lat": -25.0906504, "lon": -50.1391359}, {"type": "node", "id": 5564525356, "lat": -25.0906658, "lon": -50.1391605}, {"type": "node", "id": 5564525357, "lat": -25.090691, "lon": -50.1392149}, {"type": "node", "id": 5564525358, "lat": -25.0907074, "lon": -50.1392569}, {"type": "node", "id": 5564525359, "lat": -25.0906973, "lon": -50.1392799}, {"type": "node", "id": 5564527331, "lat": -25.0905371, "lon": -50.1391049}, {"type": "node", "id": 5564527332, "lat": -25.0906001, "lon": -50.1390454}, {"type": "node", "id": 5564527333, "lat": -25.0904803, "lon": -50.1388314}, {"type": "node", "id": 5564527334, "lat": -25.0902229, "lon": -50.1385441}, {"type": "node", "id": 5564527335, "lat": -25.0899324, "lon": -50.1383027}, {"type": "node", "id": 5564527336, "lat": -25.0896805, "lon": -50.1381591}, {"type": "node", "id": 5564527337, "lat": -25.0893761, "lon": -50.1380109}, {"type": "node", "id": 5564527338, "lat": -25.0890855, "lon": -50.137881}, {"type": "node", "id": 5564527339, "lat": -25.0888115, "lon": -50.1378016}, {"type": "node", "id": 5564527340, "lat": -25.0885748, "lon": -50.1378}, {"type": "node", "id": 5564527341, "lat": -25.0883991, "lon": -50.1378214}, {"type": "node", "id": 5564527342, "lat": -25.0882164, "lon": -50.1378963}, {"type": "node", "id": 5564527343, "lat": -25.0880186, "lon": -50.1380308}, {"type": "node", "id": 5564527344, "lat": -25.0877944, "lon": -50.1382004}, {"type": "node", "id": 5564527345, "lat": -25.0876547, "lon": -50.1382752}, {"type": "node", "id": 5564527346, "lat": -25.0874471, "lon": -50.1383761}, {"type": "node", "id": 5564527347, "lat": -25.0872478, "lon": -50.1383822}, {"type": "node", "id": 5564527348, "lat": -25.0870887, "lon": -50.1383822}, {"type": "node", "id": 5564527349, "lat": -25.0869323, "lon": -50.1383333}, {"type": "node", "id": 5564527350, "lat": -25.0868161, "lon": -50.1382599}, {"type": "node", "id": 5564527351, "lat": -25.086758, "lon": -50.1382004}, {"type": "node", "id": 5564527352, "lat": -25.0867192, "lon": -50.138179}, {"type": "node", "id": 5564527353, "lat": -25.0866708, "lon": -50.1382049}, {"type": "node", "id": 5564527354, "lat": -25.0866708, "lon": -50.1382477}, {"type": "node", "id": 5564527355, "lat": -25.0866902, "lon": -50.1382966}, {"type": "node", "id": 5564527356, "lat": -25.0867483, "lon": -50.1383547}, {"type": "node", "id": 5564527357, "lat": -25.0869323, "lon": -50.1384341}, {"type": "node", "id": 5564527358, "lat": -25.0870389, "lon": -50.1384723}, {"type": "node", "id": 5564527359, "lat": -25.0872368, "lon": -50.1384723}, {"type": "node", "id": 5564527360, "lat": -25.0873959, "lon": -50.1384448}, {"type": "node", "id": 5564527361, "lat": -25.0875273, "lon": -50.1384143}, {"type": "node", "id": 5564527362, "lat": -25.087692, "lon": -50.1383287}, {"type": "node", "id": 5564527363, "lat": -25.0878221, "lon": -50.1382554}, {"type": "node", "id": 5564527364, "lat": -25.0879632, "lon": -50.1381484}, {"type": "node", "id": 5564527365, "lat": -25.088103, "lon": -50.1380415}, {"type": "node", "id": 5564527366, "lat": -25.0882234, "lon": -50.1379666}, {"type": "node", "id": 5564527367, "lat": -25.088312, "lon": -50.137907}, {"type": "node", "id": 5564527368, "lat": -25.088442, "lon": -50.1378749}, {"type": "node", "id": 5564527369, "lat": -25.088568, "lon": -50.1378657}, {"type": "node", "id": 5564527370, "lat": -25.0886787, "lon": -50.1378642}, {"type": "node", "id": 5564527371, "lat": -25.0888724, "lon": -50.1378917}, {"type": "node", "id": 5564527372, "lat": -25.0889845, "lon": -50.137907}, {"type": "node", "id": 5564527373, "lat": -25.0893318, "lon": -50.1380827}, {"type": "node", "id": 5564527374, "lat": -25.0895522, "lon": -50.1381883}, {"type": "node", "id": 5564527375, "lat": -25.0898307, "lon": -50.1383508}, {"type": "node", "id": 5564527376, "lat": -25.0900727, "lon": -50.138575}, {"type": "node", "id": 5564527377, "lat": -25.0903281, "lon": -50.1388451}, {"type": "node", "id": 5564535103, "lat": -25.0889774, "lon": -50.1462333}, {"type": "node", "id": 5564535104, "lat": -25.0889153, "lon": -50.1461083}, {"type": "node", "id": 5564535105, "lat": -25.0884041, "lon": -50.1475478}, {"type": "node", "id": 5564535106, "lat": -25.0883274, "lon": -50.1480276}, {"type": "node", "id": 5564535107, "lat": -25.0883274, "lon": -50.1484349}, {"type": "node", "id": 5564535108, "lat": -25.0884187, "lon": -50.148451}, {"type": "node", "id": 5564535109, "lat": -25.0884954, "lon": -50.1479954}, {"type": "node", "id": 5564535110, "lat": -25.0885574, "lon": -50.1475599}, {"type": "node", "id": 5564535111, "lat": -25.0886597, "lon": -50.1471244}, {"type": "node", "id": 5564535448, "lat": -25.0883274, "lon": -50.1486203}, {"type": "node", "id": 5564535449, "lat": -25.0883785, "lon": -50.14858}, {"type": "node", "id": 5564535450, "lat": -25.0884296, "lon": -50.14858}, {"type": "node", "id": 5564535451, "lat": -25.0884954, "lon": -50.1489752}, {"type": "node", "id": 5564535452, "lat": -25.0885976, "lon": -50.1492695}, {"type": "node", "id": 5564535453, "lat": -25.0889044, "lon": -50.1497816}, {"type": "node", "id": 5564535454, "lat": -25.0888788, "lon": -50.1498784}, {"type": "node", "id": 5564535455, "lat": -25.0886853, "lon": -50.1496526}, {"type": "node", "id": 5564535456, "lat": -25.08851, "lon": -50.149326}, {"type": "node", "id": 5564535457, "lat": -25.0884041, "lon": -50.1490599}, {"type": "node", "id": 5564535475, "lat": -25.0890807, "lon": -50.1501817}, {"type": "node", "id": 5564535476, "lat": -25.0891101, "lon": -50.1501134}, {"type": "node", "id": 5564535477, "lat": -25.0890115, "lon": -50.1500566}, {"type": "node", "id": 5564537074, "lat": -25.0882358, "lon": -50.1486726}, {"type": "node", "id": 5564537075, "lat": -25.08824, "lon": -50.148581}, {"type": "node", "id": 5564537076, "lat": -25.0882303, "lon": -50.148555}, {"type": "node", "id": 5564537077, "lat": -25.0881735, "lon": -50.148555}, {"type": "node", "id": 5613070621, "lat": -25.0990281, "lon": -50.1633496}, {"type": "node", "id": 5613070622, "lat": -25.0997912, "lon": -50.1630564}, {"type": "node", "id": 5613070623, "lat": -25.0995762, "lon": -50.1635872}, {"type": "node", "id": 5613070624, "lat": -25.1001098, "lon": -50.1634921}, {"type": "node", "id": 5613070625, "lat": -25.1005017, "lon": -50.1633589}, {"type": "node", "id": 5659978697, "lat": -25.0779466, "lon": -50.1578906}, {"type": "node", "id": 5659978698, "lat": -25.0776891, "lon": -50.158478}, {"type": "node", "id": 5659978699, "lat": -25.0779831, "lon": -50.1586068}, {"type": "node", "id": 5659978700, "lat": -25.0710358, "lon": -50.1168054}, {"type": "node", "id": 5659978701, "lat": -25.0705438, "lon": -50.1169874}, {"type": "node", "id": 5659978702, "lat": -25.0561276, "lon": -50.1627514}, {"type": "node", "id": 5659978703, "lat": -25.056152, "lon": -50.1640129}, {"type": "node", "id": 5659978704, "lat": -25.0560789, "lon": -50.164031}, {"type": "node", "id": 5659978705, "lat": -25.0558526, "lon": -50.1629563}, {"type": "node", "id": 5659978706, "lat": -25.055886, "lon": -50.1626885}, {"type": "node", "id": 5659978707, "lat": -25.0563468, "lon": -50.1628085}, {"type": "node", "id": 5716236925, "lat": -25.0767654, "lon": -50.152636}, {"type": "node", "id": 5716236926, "lat": -25.0774359, "lon": -50.1515417}, {"type": "node", "id": 5716236927, "lat": -25.0781161, "lon": -50.1520137}, {"type": "node", "id": 5716236928, "lat": -25.0773945, "lon": -50.1531087}, {"type": "node", "id": 5718126932, "lat": -25.0933496, "lon": -50.1503726}, {"type": "node", "id": 5718126933, "lat": -25.0932968, "lon": -50.1501707}, {"type": "node", "id": 5718126934, "lat": -25.093175, "lon": -50.1502546}, {"type": "node", "id": 6260873767, "lat": -25.0918967, "lon": -50.1367739, "tags": {"amenity": "school", "name": "Col\u00e9gio Estadual General Os\u00f3rio"}}, {"type": "node", "id": 6380908940, "lat": -25.082059, "lon": -50.1357819}, {"type": "node", "id": 6380908941, "lat": -25.082547, "lon": -50.1366674}, {"type": "node", "id": 6380908942, "lat": -25.0839802, "lon": -50.135684}, {"type": "node", "id": 6380908943, "lat": -25.0825845, "lon": -50.1355822, "tags": {"amenity": "school", "name": "Col\u00e9gio Sagrada Fam\u00edlia"}}, {"type": "node", "id": 6381557798, "lat": -25.0517635, "lon": -50.1316933}, {"type": "node", "id": 6381557799, "lat": -25.0519031, "lon": -50.1317703}, {"type": "node", "id": 6381557800, "lat": -25.0520064, "lon": -50.131567}, {"type": "node", "id": 6381557801, "lat": -25.0518556, "lon": -50.1314715}, {"type": "node", "id": 6381557802, "lat": -25.0516323, "lon": -50.1316194}, {"type": "node", "id": 6381557803, "lat": -25.0517356, "lon": -50.1314129}, {"type": "node", "id": 6381557804, "lat": -25.0515933, "lon": -50.1313205}, {"type": "node", "id": 6381557805, "lat": -25.05149, "lon": -50.1315362}, {"type": "node", "id": 6381613544, "lat": -25.1127564, "lon": -50.152123}, {"type": "node", "id": 6381613545, "lat": -25.1161773, "lon": -50.1526073}, {"type": "node", "id": 6381613546, "lat": -25.1180839, "lon": -50.1528952}, {"type": "node", "id": 6381613547, "lat": -25.119964, "lon": -50.1532043}, {"type": "node", "id": 6381613548, "lat": -25.1199825, "lon": -50.1535871}, {"type": "node", "id": 6381613553, "lat": -25.1130919, "lon": -50.1522499}, {"type": "node", "id": 6381613554, "lat": -25.1126391, "lon": -50.1523411}, {"type": "node", "id": 6381613555, "lat": -25.1124945, "lon": -50.1525076}, {"type": "node", "id": 6389074127, "lat": -25.0517744, "lon": -50.1328639}, {"type": "node", "id": 6389074128, "lat": -25.0522443, "lon": -50.1318133}, {"type": "node", "id": 6389074129, "lat": -25.0531503, "lon": -50.1323069}, {"type": "node", "id": 6389074130, "lat": -25.0526804, "lon": -50.1333577}, {"type": "node", "id": 6389077943, "lat": -25.1124972, "lon": -50.1590243}, {"type": "node", "id": 6399690950, "lat": -25.1245198, "lon": -50.154359, "tags": {"amenity": "taxi", "capacity": "2", "name": "Pra\u00e7a Sim\u00e3o Bolivar", "source": "Prefeitura de Ponta Grossa - PR", "source_ref": "http://wiki.openstreetmap.org/wiki/Pt-br:WikiProject_Brazil/PR/Ponta_Grossa/Agreement"}}, {"type": "node", "id": 6399690952, "lat": -25.1257336, "lon": -50.1550273, "tags": {"access": "yes", "historic": "monument", "name": "monimento da cidade"}}, {"type": "node", "id": 6595962556, "lat": -25.0658288, "lon": -50.1758685}, {"type": "node", "id": 6595962557, "lat": -25.0658192, "lon": -50.1758339}, {"type": "node", "id": 6595962558, "lat": -25.0658405, "lon": -50.1758815}, {"type": "node", "id": 6595962559, "lat": -25.0658215, "lon": -50.175852}, {"type": "node", "id": 6595962560, "lat": -25.0658223, "lon": -50.1758158}, {"type": "node", "id": 6595962561, "lat": -25.0661095, "lon": -50.1752358}, {"type": "node", "id": 6595962562, "lat": -25.0660847, "lon": -50.1752499}, {"type": "node", "id": 6595962563, "lat": -25.066096, "lon": -50.1752405}, {"type": "node", "id": 6595962564, "lat": -25.0661236, "lon": -50.1752365}, {"type": "node", "id": 6595962566, "lat": -25.0668972, "lon": -50.1757184}, {"type": "node", "id": 6595962567, "lat": -25.0668792, "lon": -50.1756911}, {"type": "node", "id": 6595962568, "lat": -25.0668938, "lon": -50.1757074}, {"type": "node", "id": 6595962569, "lat": -25.0668974, "lon": -50.17573}, {"type": "node", "id": 6595962570, "lat": -25.0666299, "lon": -50.1762986}, {"type": "node", "id": 6595962571, "lat": -25.0666083, "lon": -50.1763113}, {"type": "node", "id": 6595962572, "lat": -25.066596, "lon": -50.1763122}, {"type": "node", "id": 6595962573, "lat": -25.0666374, "lon": -50.1762879}, {"type": "node", "id": 6595962574, "lat": -25.0666199, "lon": -50.1763066}, {"type": "node", "id": 6595962575, "lat": -25.066584, "lon": -50.1763093}, {"type": "node", "id": 6605849983, "lat": -25.0689877, "lon": -50.1727579}, {"type": "node", "id": 6605849984, "lat": -25.0685448, "lon": -50.1736862}, {"type": "node", "id": 6620306789, "lat": -25.0801278, "lon": -50.1279883}, {"type": "node", "id": 6620306790, "lat": -25.0798684, "lon": -50.1282001}, {"type": "node", "id": 6620306793, "lat": -25.0799597, "lon": -50.1281096}, {"type": "node", "id": 6620306795, "lat": -25.0771767, "lon": -50.1331003}, {"type": "node", "id": 6620306796, "lat": -25.0773634, "lon": -50.1327743}, {"type": "node", "id": 6620306797, "lat": -25.0772565, "lon": -50.1325383}, {"type": "node", "id": 6620306798, "lat": -25.0769725, "lon": -50.1327396}, {"type": "node", "id": 6620520857, "lat": -25.0561169, "lon": -50.1730076}, {"type": "node", "id": 6620520858, "lat": -25.0558302, "lon": -50.1729405}, {"type": "node", "id": 6620520859, "lat": -25.056146, "lon": -50.1713902}, {"type": "node", "id": 6620520860, "lat": -25.0564327, "lon": -50.1712668}, {"type": "node", "id": 6620520861, "lat": -25.0569138, "lon": -50.1726964}, {"type": "node", "id": 6641976472, "lat": -25.0874169, "lon": -50.1598543, "tags": {"amenity": "restaurant", "name": "Esquina do Sabor"}}, {"type": "node", "id": 6641976473, "lat": -25.0867074, "lon": -50.1599658, "tags": {"amenity": "restaurant", "name": "M & Munnary Costel\u00e3o"}}, {"type": "node", "id": 6642024644, "lat": -25.087594, "lon": -50.1598504, "tags": {"amenity": "restaurant", "name": "Companhia do Espeto"}}, {"type": "node", "id": 6700650392, "lat": -25.0885191, "lon": -50.1427614, "tags": {"amenity": "restaurant", "name": "Porca Chic"}}, {"type": "node", "id": 6790724474, "lat": -25.0951316, "lon": -50.1058461}, {"type": "node", "id": 6790724475, "lat": -25.0955115, "lon": -50.1055159}, {"type": "node", "id": 6790724476, "lat": -25.0956182, "lon": -50.1066688}, {"type": "node", "id": 6790724477, "lat": -25.0955538, "lon": -50.1068777}, {"type": "node", "id": 6790724478, "lat": -25.0949935, "lon": -50.1067214}, {"type": "node", "id": 6790724479, "lat": -25.0949883, "lon": -50.1064788}, {"type": "node", "id": 6790724480, "lat": -25.0946022, "lon": -50.1064513}, {"type": "node", "id": 6790724481, "lat": -25.0945741, "lon": -50.1066577}, {"type": "node", "id": 6790724483, "lat": -25.0942715, "lon": -50.1065706}, {"type": "node", "id": 6790724484, "lat": -25.0933128, "lon": -50.1066714}, {"type": "node", "id": 6790725785, "lat": -25.0931727, "lon": -50.1065407}, {"type": "node", "id": 6790725786, "lat": -25.093101, "lon": -50.1062106}, {"type": "node", "id": 6790725787, "lat": -25.0931509, "lon": -50.1055503}, {"type": "node", "id": 6790725788, "lat": -25.0932754, "lon": -50.1049657}, {"type": "node", "id": 6790725789, "lat": -25.0932225, "lon": -50.1046115}, {"type": "node", "id": 6790725790, "lat": -25.0934841, "lon": -50.1045908}, {"type": "node", "id": 6790725791, "lat": -25.0936865, "lon": -50.1046115}, {"type": "node", "id": 6790725792, "lat": -25.0938734, "lon": -50.10489}, {"type": "node", "id": 6790725793, "lat": -25.0944372, "lon": -50.1044515}, {"type": "node", "id": 6790725794, "lat": -25.0945329, "lon": -50.1044189}, {"type": "node", "id": 6790725795, "lat": -25.0953979, "lon": -50.1055314}, {"type": "node", "id": 6790725796, "lat": -25.0949759, "lon": -50.1056156}, {"type": "node", "id": 6790725797, "lat": -25.0945274, "lon": -50.1049278}, {"type": "node", "id": 6790725798, "lat": -25.0942938, "lon": -50.1051105}, {"type": "node", "id": 6790725799, "lat": -25.0944706, "lon": -50.1054337}, {"type": "node", "id": 6790725800, "lat": -25.0941991, "lon": -50.1056008}, {"type": "node", "id": 6790725801, "lat": -25.0940416, "lon": -50.1054127}, {"type": "node", "id": 6790725802, "lat": -25.0938293, "lon": -50.1055243}, {"type": "node", "id": 6790725803, "lat": -25.0938838, "lon": -50.1061702}, {"type": "node", "id": 6790725804, "lat": -25.0937036, "lon": -50.1061847}, {"type": "node", "id": 6790725805, "lat": -25.0937146, "lon": -50.1064169}, {"type": "node", "id": 6790725806, "lat": -25.0944807, "lon": -50.1063172}, {"type": "node", "id": 6790725807, "lat": -25.0949074, "lon": -50.1060524}, {"type": "node", "id": 6790725808, "lat": -25.0951814, "lon": -50.1064238}, {"type": "node", "id": 6790725809, "lat": -25.0953683, "lon": -50.1062794}, {"type": "node", "id": 6790725810, "lat": -25.0952207, "lon": -50.1054051}, {"type": "node", "id": 6790725811, "lat": -25.0957201, "lon": -50.1049946}, {"type": "node", "id": 6790725812, "lat": -25.0950262, "lon": -50.1040725}, {"type": "node", "id": 6790725813, "lat": -25.0947486, "lon": -50.1045418}, {"type": "node", "id": 6790725814, "lat": -25.0950627, "lon": -50.1041298}, {"type": "node", "id": 6790725815, "lat": -25.0952239, "lon": -50.1039086}, {"type": "node", "id": 6790725816, "lat": -25.0955808, "lon": -50.1045186}, {"type": "node", "id": 6802158262, "lat": -25.0968501, "lon": -50.1140182}, {"type": "node", "id": 6802158263, "lat": -25.096841, "lon": -50.1140218}, {"type": "node", "id": 6838536583, "lat": -25.1249448, "lon": -50.154288, "tags": {"amenity": "restaurant"}}, {"type": "node", "id": 6838557343, "lat": -25.124915, "lon": -50.1543732, "tags": {"historic": "monument", "memorial": "monument"}}, {"type": "node", "id": 6838557344, "lat": -25.1254274, "lon": -50.1543945}, {"type": "node", "id": 6838679958, "lat": -25.1393427, "lon": -50.1752233}, {"type": "node", "id": 6838679959, "lat": -25.1401767, "lon": -50.1749002}, {"type": "node", "id": 6838679960, "lat": -25.1390664, "lon": -50.1728661}, {"type": "node", "id": 6838679961, "lat": -25.1382595, "lon": -50.1734225}, {"type": "node", "id": 6838685885, "lat": -25.1253239, "lon": -50.1543124, "tags": {"amenity": "restaurant"}}, {"type": "node", "id": 6839363879, "lat": -25.0953058, "lon": -50.2002096}, {"type": "node", "id": 6839363880, "lat": -25.095423, "lon": -50.199957}, {"type": "node", "id": 6839363881, "lat": -25.0950324, "lon": -50.1997937}, {"type": "node", "id": 6839363887, "lat": -25.0956198, "lon": -50.2022653}, {"type": "node", "id": 6839363888, "lat": -25.0954499, "lon": -50.2019999}, {"type": "node", "id": 6839363889, "lat": -25.0950044, "lon": -50.2023078}, {"type": "node", "id": 6839363961, "lat": -25.10157, "lon": -50.2039895}, {"type": "node", "id": 6839363962, "lat": -25.101383, "lon": -50.2037132}, {"type": "node", "id": 6839363963, "lat": -25.1015846, "lon": -50.203732}, {"type": "node", "id": 6839363964, "lat": -25.101445, "lon": -50.2049108}, {"type": "node", "id": 6839363965, "lat": -25.1012494, "lon": -50.2045608}, {"type": "node", "id": 6839363966, "lat": -25.1015105, "lon": -50.2043851}, {"type": "node", "id": 6839451935, "lat": -25.0802034, "lon": -50.1885558}, {"type": "node", "id": 6839451936, "lat": -25.0803295, "lon": -50.1889075}, {"type": "node", "id": 6839451937, "lat": -25.0807117, "lon": -50.1887824}, {"type": "node", "id": 6839451938, "lat": -25.080298, "lon": -50.1883221}, {"type": "node", "id": 6839451939, "lat": -25.0807384, "lon": -50.1885434}, {"type": "node", "id": 6839451940, "lat": -25.0806538, "lon": -50.1881836}, {"type": "node", "id": 6839451983, "lat": -25.1298212, "lon": -50.1566248}, {"type": "node", "id": 6839451984, "lat": -25.1301608, "lon": -50.1565788}, {"type": "node", "id": 6839451985, "lat": -25.1302089, "lon": -50.1567664}, {"type": "node", "id": 6839451986, "lat": -25.1298629, "lon": -50.1568195}, {"type": "node", "id": 6839452027, "lat": -25.1077914, "lon": -50.1664596}, {"type": "node", "id": 6839452065, "lat": -25.1079326, "lon": -50.1712408}, {"type": "node", "id": 6839452066, "lat": -25.1077852, "lon": -50.1710745}, {"type": "node", "id": 6839452067, "lat": -25.1083973, "lon": -50.1704799}, {"type": "node", "id": 6839519350, "lat": -25.0829838, "lon": -50.1871213}, {"type": "node", "id": 6839519351, "lat": -25.0831511, "lon": -50.1871766}, {"type": "node", "id": 6839519352, "lat": -25.0833397, "lon": -50.1865366}, {"type": "node", "id": 6839519353, "lat": -25.0832644, "lon": -50.1864991}, {"type": "node", "id": 6839519355, "lat": -25.0825759, "lon": -50.1880732}, {"type": "node", "id": 6839519356, "lat": -25.0829331, "lon": -50.1873015}, {"type": "node", "id": 6839519357, "lat": -25.0830802, "lon": -50.1873929}, {"type": "node", "id": 6839519358, "lat": -25.0826922, "lon": -50.1879658}, {"type": "node", "id": 6841281220, "lat": -25.0717769, "lon": -50.132287}, {"type": "node", "id": 6842493200, "lat": -25.088717, "lon": -50.1371837}, {"type": "node", "id": 6842493201, "lat": -25.088784, "lon": -50.1368756}, {"type": "node", "id": 6842493202, "lat": -25.0895792, "lon": -50.137042}, {"type": "node", "id": 6842493203, "lat": -25.0895848, "lon": -50.1370852}, {"type": "node", "id": 6842493204, "lat": -25.0895457, "lon": -50.1371314}, {"type": "node", "id": 6844998494, "lat": -25.1368773, "lon": -50.1578987}, {"type": "node", "id": 6844998495, "lat": -25.1374827, "lon": -50.1577269}, {"type": "node", "id": 6844998496, "lat": -25.137437, "lon": -50.1577324}, {"type": "node", "id": 6844998497, "lat": -25.1375274, "lon": -50.1577391}, {"type": "node", "id": 6844998498, "lat": -25.1375657, "lon": -50.1577672}, {"type": "node", "id": 6844998499, "lat": -25.1379833, "lon": -50.1585639}, {"type": "node", "id": 6844998500, "lat": -25.1373714, "lon": -50.1587489}, {"type": "node", "id": 6844998543, "lat": -25.1365871, "lon": -50.1390374}, {"type": "node", "id": 6844998544, "lat": -25.1358538, "lon": -50.1391232}, {"type": "node", "id": 6844998545, "lat": -25.1357542, "lon": -50.1381201}, {"type": "node", "id": 6844998546, "lat": -25.1362119, "lon": -50.1384175}, {"type": "node", "id": 6844998547, "lat": -25.1362759, "lon": -50.1386593}, {"type": "node", "id": 6844998548, "lat": -25.1363527, "lon": -50.1387544}, {"type": "node", "id": 6844998549, "lat": -25.1364511, "lon": -50.1388206}, {"type": "node", "id": 6844998550, "lat": -25.1362302, "lon": -50.1382917}, {"type": "node", "id": 6844998551, "lat": -25.1362276, "lon": -50.1385437}, {"type": "node", "id": 6844998552, "lat": -25.1365628, "lon": -50.1388523}, {"type": "node", "id": 6844998560, "lat": -25.1365349, "lon": -50.1380353}, {"type": "node", "id": 6844998582, "lat": -25.1369299, "lon": -50.1384862}, {"type": "node", "id": 6844998583, "lat": -25.1368849, "lon": -50.1385841}, {"type": "node", "id": 6844998584, "lat": -25.1369306, "lon": -50.1382694}, {"type": "node", "id": 6845024685, "lat": -25.1369456, "lon": -50.1383779}, {"type": "node", "id": 6845024686, "lat": -25.1368114, "lon": -50.1386649}, {"type": "node", "id": 6845024687, "lat": -25.1367183, "lon": -50.1387156}, {"type": "node", "id": 6845024688, "lat": -25.1366155, "lon": -50.1387309}, {"type": "node", "id": 6845024689, "lat": -25.1365136, "lon": -50.1387092}, {"type": "node", "id": 6845024690, "lat": -25.1364234, "lon": -50.1386527}, {"type": "node", "id": 6845024691, "lat": -25.1363565, "lon": -50.1385716}, {"type": "node", "id": 6845024692, "lat": -25.1363154, "lon": -50.1384717}, {"type": "node", "id": 6845024693, "lat": -25.1363038, "lon": -50.1383627}, {"type": "node", "id": 6845024694, "lat": -25.136323, "lon": -50.1382551}, {"type": "node", "id": 6845024695, "lat": -25.1363711, "lon": -50.138159}, {"type": "node", "id": 6845024696, "lat": -25.1364434, "lon": -50.1380838}, {"type": "node", "id": 6845024697, "lat": -25.1366315, "lon": -50.138022}, {"type": "node", "id": 6845024698, "lat": -25.1367293, "lon": -50.1380413}, {"type": "node", "id": 6845024699, "lat": -25.136817, "lon": -50.1380927}, {"type": "node", "id": 6845024700, "lat": -25.1368864, "lon": -50.1381712}, {"type": "node", "id": 6884194628, "lat": -25.07192, "lon": -50.1318767}, {"type": "node", "id": 6884194629, "lat": -25.0718972, "lon": -50.131917}, {"type": "node", "id": 6884194630, "lat": -25.072022, "lon": -50.131997}, {"type": "node", "id": 6884194631, "lat": -25.0721162, "lon": -50.1321373}, {"type": "node", "id": 6884194632, "lat": -25.072126, "lon": -50.1321794}, {"type": "node", "id": 6884194633, "lat": -25.071887, "lon": -50.1322943}, {"type": "node", "id": 6884194634, "lat": -25.0720491, "lon": -50.1322172}, {"type": "node", "id": 6884194635, "lat": -25.0719831, "lon": -50.132242}, {"type": "node", "id": 6884194636, "lat": -25.0720957, "lon": -50.1321935}, {"type": "node", "id": 6884194637, "lat": -25.071818, "lon": -50.1323164}, {"type": "node", "id": 6887384513, "lat": -25.0937697, "lon": -50.1606597}, {"type": "node", "id": 6887384516, "lat": -25.0935817, "lon": -50.1606888}, {"type": "node", "id": 6950221404, "lat": -25.1190992, "lon": -50.1372215}, {"type": "node", "id": 6952972234, "lat": -25.1122957, "lon": -50.1586827}, {"type": "node", "id": 6952972237, "lat": -25.1123051, "lon": -50.1591769}, {"type": "node", "id": 6952972241, "lat": -25.1191939, "lon": -50.1372752}, {"type": "node", "id": 7009829736, "lat": -25.0524606, "lon": -50.1296532}, {"type": "node", "id": 7009829737, "lat": -25.0526672, "lon": -50.1292122}, {"type": "node", "id": 7009829738, "lat": -25.053027, "lon": -50.1294177}, {"type": "node", "id": 7009829739, "lat": -25.0528204, "lon": -50.1298586}, {"type": "node", "id": 7101544655, "lat": -25.0832931, "lon": -50.1594367}, {"type": "node", "id": 7101544658, "lat": -25.0833318, "lon": -50.1595032}, {"type": "node", "id": 7129370940, "lat": -25.0660808, "lon": -50.1483687}, {"type": "node", "id": 7129370942, "lat": -25.0662942, "lon": -50.1487304}, {"type": "node", "id": 7129370943, "lat": -25.0665855, "lon": -50.1485222}, {"type": "node", "id": 7129370944, "lat": -25.0664356, "lon": -50.1482749}, {"type": "node", "id": 7129370945, "lat": -25.0664087, "lon": -50.1482824}, {"type": "node", "id": 7129370946, "lat": -25.0663851, "lon": -50.1482805}, {"type": "node", "id": 7129370947, "lat": -25.0663195, "lon": -50.1483288}, {"type": "node", "id": 7129370948, "lat": -25.0662605, "lon": -50.1482396}, {"type": "node", "id": 7129370949, "lat": -25.0662437, "lon": -50.1482452}, {"type": "node", "id": 7129370950, "lat": -25.0660433, "lon": -50.1481448}, {"type": "node", "id": 7129370951, "lat": -25.0659812, "lon": -50.1481894}, {"type": "node", "id": 7129370952, "lat": -25.0660258, "lon": -50.1482702}, {"type": "node", "id": 7129370953, "lat": -25.066058, "lon": -50.1483285}, {"type": "node", "id": 7129370954, "lat": -25.0661864, "lon": -50.1481987, "tags": {"amenity": "parking", "park_ride": "yes"}}, {"type": "node", "id": 7129370955, "lat": -25.0661143, "lon": -50.1480931}, {"type": "node", "id": 7129370956, "lat": -25.066137, "lon": -50.1481445}, {"type": "node", "id": 7129370957, "lat": -25.0661463, "lon": -50.1481582}, {"type": "node", "id": 7129370958, "lat": -25.0661359, "lon": -50.148175}, {"type": "node", "id": 7129370959, "lat": -25.0661351, "lon": -50.1481926}, {"type": "node", "id": 7129370960, "lat": -25.0661444, "lon": -50.1482046}, {"type": "node", "id": 7129370961, "lat": -25.066165, "lon": -50.1482125}, {"type": "node", "id": 7129370962, "lat": -25.0661771, "lon": -50.1482116}, {"type": "node", "id": 7129370963, "lat": -25.0662078, "lon": -50.1482687}, {"type": "node", "id": 7129370964, "lat": -25.0661863, "lon": -50.1482288}, {"type": "node", "id": 7129370965, "lat": -25.0662105, "lon": -50.148252}, {"type": "node", "id": 7129370966, "lat": -25.066239, "lon": -50.14823}, {"type": "node", "id": 7129370967, "lat": -25.0662067, "lon": -50.1481642}, {"type": "node", "id": 7129370968, "lat": -25.0661552, "lon": -50.1480722}, {"type": "node", "id": 7129370969, "lat": -25.0661536, "lon": -50.1480671}, {"type": "node", "id": 7129370970, "lat": -25.0661225, "lon": -50.1480896}, {"type": "node", "id": 7129370971, "lat": -25.0661579, "lon": -50.1481523}, {"type": "node", "id": 7129370972, "lat": -25.0661721, "lon": -50.1481532}, {"type": "node", "id": 7129370973, "lat": -25.0661813, "lon": -50.1481591}, {"type": "node", "id": 7129370974, "lat": -25.0661878, "lon": -50.1481719}, {"type": "node", "id": 7129370975, "lat": -25.0661909, "lon": -50.1481888}, {"type": "node", "id": 7129370976, "lat": -25.0661855, "lon": -50.148205}, {"type": "node", "id": 7161634469, "lat": -25.0546778, "lon": -50.1563488, "tags": {"amenity": "pharmacy", "dispensing": "yes", "healthcare": "pharmacy", "name": "Fleming"}}, {"type": "node", "id": 7516035689, "lat": -25.1782388, "lon": -50.1423671, "tags": {"addr:city": "Ponta Grossa", "addr:street": "Rua 14 Bis", "addr:suburb": "Car\u00e1-Car\u00e1", "amenity": "pharmacy", "dispensing": "yes", "healthcare": "pharmacy", "name": "Farm\u00e1cia Bom Jesus"}}, {"type": "node", "id": 7516035692, "lat": -25.1776605, "lon": -50.1427224, "tags": {"addr:city": "Ponta Grossa", "addr:street": "Rua Caraj\u00e1s", "amenity": "school", "name": "Escola Municipal Deodoro Alves Quintiliano"}}, {"type": "node", "id": 7516035693, "lat": -25.1774935, "lon": -50.1421923, "tags": {"amenity": "school", "name": "Centro Municipal de Educa\u00e7\u00e3o Infantil Augusto Canto"}}, {"type": "node", "id": 7622768030, "lat": -25.096327, "lon": -50.155026}, {"type": "node", "id": 7622768031, "lat": -25.0963222, "lon": -50.155075}, {"type": "node", "id": 7631297794, "lat": -25.0867449, "lon": -50.1601343}, {"type": "node", "id": 7710093191, "lat": -25.0976144, "lon": -50.104111}, {"type": "node", "id": 7710093192, "lat": -25.0986346, "lon": -50.1049055}, {"type": "node", "id": 7801603813, "lat": -25.1352467, "lon": -50.2082035}, {"type": "node", "id": 7801603814, "lat": -25.1353463, "lon": -50.2069643}, {"type": "node", "id": 7802224997, "lat": -25.1125893, "lon": -50.1525074}, {"type": "node", "id": 7802224998, "lat": -25.112576, "lon": -50.1522791}, {"type": "node", "id": 7802224999, "lat": -25.1126112, "lon": -50.1522218}, {"type": "node", "id": 7802225000, "lat": -25.1126488, "lon": -50.1521681}, {"type": "node", "id": 7802225049, "lat": -25.1136579, "lon": -50.1526067}, {"type": "node", "id": 7802225050, "lat": -25.1135851, "lon": -50.1522365}, {"type": "node", "id": 7802225051, "lat": -25.1136628, "lon": -50.1520112}, {"type": "node", "id": 7802225052, "lat": -25.1139032, "lon": -50.1525745}, {"type": "node", "id": 7802225053, "lat": -25.1140708, "lon": -50.1525745}, {"type": "node", "id": 7802225054, "lat": -25.1142894, "lon": -50.1526013}, {"type": "node", "id": 7802225057, "lat": -25.1174271, "lon": -50.1532906}, {"type": "node", "id": 7802225058, "lat": -25.1175388, "lon": -50.1532343}, {"type": "node", "id": 7802225059, "lat": -25.1160428, "lon": -50.1531887}, {"type": "node", "id": 7802225060, "lat": -25.1160841, "lon": -50.1529714}, {"type": "node", "id": 7802225061, "lat": -25.1154114, "lon": -50.15284}, {"type": "node", "id": 7802225062, "lat": -25.1153264, "lon": -50.1529822}, {"type": "node", "id": 7802225063, "lat": -25.1143093, "lon": -50.152492}, {"type": "node", "id": 7802225072, "lat": -25.116718, "lon": -50.1531646}, {"type": "node", "id": 7802225073, "lat": -25.1162954, "lon": -50.1530305}, {"type": "node", "id": 7802225074, "lat": -25.1165477, "lon": -50.1530781}, {"type": "node", "id": 7806323938, "lat": -25.0911456, "lon": -50.1028831}, {"type": "node", "id": 7806323939, "lat": -25.0910999, "lon": -50.1026162}, {"type": "node", "id": 8136921487, "lat": -25.113663, "lon": -50.2067325}, {"type": "node", "id": 8136921488, "lat": -25.1139245, "lon": -50.2068967}, {"type": "node", "id": 8136921489, "lat": -25.1142227, "lon": -50.2068526}, {"type": "node", "id": 8136921490, "lat": -25.1143808, "lon": -50.2067129}, {"type": "node", "id": 8136921491, "lat": -25.1144713, "lon": -50.2065128}, {"type": "node", "id": 8136921492, "lat": -25.1144853, "lon": -50.2064014}, {"type": "node", "id": 8136921493, "lat": -25.1141538, "lon": -50.205889}, {"type": "node", "id": 8136921494, "lat": -25.1140538, "lon": -50.2058676}, {"type": "node", "id": 8136921495, "lat": -25.113853, "lon": -50.2058972}, {"type": "node", "id": 8136921496, "lat": -25.1136821, "lon": -50.2060172}, {"type": "node", "id": 8136921497, "lat": -25.1136181, "lon": -50.2061047}, {"type": "node", "id": 8136921498, "lat": -25.1136038, "lon": -50.2066409}, {"type": "node", "id": 8136921499, "lat": -25.1135448, "lon": -50.206427}, {"type": "node", "id": 8136921500, "lat": -25.1135638, "lon": -50.2065375}, {"type": "node", "id": 8136921501, "lat": -25.1143086, "lon": -50.2067923}, {"type": "node", "id": 8136921502, "lat": -25.1144476, "lon": -50.2061816}, {"type": "node", "id": 8136921503, "lat": -25.1137387, "lon": -50.2068078}, {"type": "node", "id": 8136921504, "lat": -25.114127, "lon": -50.2068912}, {"type": "node", "id": 8136921505, "lat": -25.1142473, "lon": -50.2059338}, {"type": "node", "id": 8136921506, "lat": -25.114026, "lon": -50.2069061}, {"type": "node", "id": 8136921507, "lat": -25.1143298, "lon": -50.2059996}, {"type": "node", "id": 8136921508, "lat": -25.1138272, "lon": -50.2068634}, {"type": "node", "id": 8136921509, "lat": -25.1143977, "lon": -50.2060835}, {"type": "node", "id": 8136921510, "lat": -25.1144359, "lon": -50.2066183}, {"type": "node", "id": 8136921511, "lat": -25.1144773, "lon": -50.2062892}, {"type": "node", "id": 8136921512, "lat": -25.1135726, "lon": -50.2062054}, {"type": "node", "id": 8136921513, "lat": -25.1135478, "lon": -50.2063145}, {"type": "node", "id": 8136921514, "lat": -25.113952, "lon": -50.2058704}, {"type": "node", "id": 8136921515, "lat": -25.1137617, "lon": -50.205947}, {"type": "node", "id": 8136933166, "lat": -25.1040371, "lon": -50.2026169}, {"type": "node", "id": 8136933167, "lat": -25.1039933, "lon": -50.2025922}, {"type": "node", "id": 8136933168, "lat": -25.1039572, "lon": -50.2025553}, {"type": "node", "id": 8136933169, "lat": -25.1039315, "lon": -50.2025091}, {"type": "node", "id": 8136933170, "lat": -25.103918, "lon": -50.2024569}, {"type": "node", "id": 8136933171, "lat": -25.1039177, "lon": -50.2024027}, {"type": "node", "id": 8136933172, "lat": -25.1039307, "lon": -50.2023503}, {"type": "node", "id": 8136933173, "lat": -25.103956, "lon": -50.2023038}, {"type": "node", "id": 8136933174, "lat": -25.1039918, "lon": -50.2022666}, {"type": "node", "id": 8136933175, "lat": -25.1040353, "lon": -50.2022413}, {"type": "node", "id": 8136933176, "lat": -25.1040834, "lon": -50.20223}, {"type": "node", "id": 8136933177, "lat": -25.1041324, "lon": -50.2022334}, {"type": "node", "id": 8136933178, "lat": -25.1041788, "lon": -50.2022513}, {"type": "node", "id": 8136933179, "lat": -25.1042191, "lon": -50.2022824}, {"type": "node", "id": 8136933180, "lat": -25.1042503, "lon": -50.2023243}, {"type": "node", "id": 8136933181, "lat": -25.1042701, "lon": -50.202374}, {"type": "node", "id": 8136933182, "lat": -25.1042771, "lon": -50.2024277}, {"type": "node", "id": 8136933183, "lat": -25.1042706, "lon": -50.2024815}, {"type": "node", "id": 8136933184, "lat": -25.1042513, "lon": -50.2025314}, {"type": "node", "id": 8136933185, "lat": -25.1042205, "lon": -50.2025737}, {"type": "node", "id": 8136933186, "lat": -25.1041805, "lon": -50.2026052}, {"type": "node", "id": 8136933187, "lat": -25.1041343, "lon": -50.2026236}, {"type": "node", "id": 8136933188, "lat": -25.1040853, "lon": -50.2026276}, {"type": "node", "id": 8136933363, "lat": -25.1357858, "lon": -50.2073237}, {"type": "node", "id": 8136933364, "lat": -25.135764, "lon": -50.2072325}, {"type": "node", "id": 8136933365, "lat": -25.1355454, "lon": -50.2082303}, {"type": "node", "id": 8136933373, "lat": -25.138112, "lon": -50.2159591}, {"type": "node", "id": 8136933374, "lat": -25.1385212, "lon": -50.2161174}, {"type": "node", "id": 8136933375, "lat": -25.1386025, "lon": -50.2158746}, {"type": "node", "id": 8136933376, "lat": -25.1379481, "lon": -50.2156171}, {"type": "node", "id": 8136933377, "lat": -25.137987, "lon": -50.2156843}, {"type": "node", "id": 8136933378, "lat": -25.1380208, "lon": -50.2157126}, {"type": "node", "id": 8136933379, "lat": -25.1380498, "lon": -50.2157469}, {"type": "node", "id": 8136933380, "lat": -25.138092, "lon": -50.2158355}, {"type": "node", "id": 8136933381, "lat": -25.1381019, "lon": -50.215888}, {"type": "node", "id": 8136933382, "lat": -25.1379493, "lon": -50.2156627}, {"type": "node", "id": 8136933383, "lat": -25.1380732, "lon": -50.2157861}, {"type": "node", "id": 8136933384, "lat": -25.1381023, "lon": -50.2159417}, {"type": "node", "id": 8191231647, "lat": -25.0952744, "lon": -50.1621816}, {"type": "node", "id": 8191231648, "lat": -25.0944912, "lon": -50.1631755}, {"type": "node", "id": 8191231649, "lat": -25.0953789, "lon": -50.1629771}, {"type": "node", "id": 8191231650, "lat": -25.0944106, "lon": -50.1623098}, {"type": "node", "id": 8191231651, "lat": -25.0939468, "lon": -50.1656414}, {"type": "node", "id": 8191231652, "lat": -25.093994, "lon": -50.1654208}, {"type": "node", "id": 8191231653, "lat": -25.094043, "lon": -50.1650498}, {"type": "node", "id": 8191231654, "lat": -25.0938397, "lon": -50.1650813}, {"type": "node", "id": 8227789756, "lat": -25.1199091, "lon": -50.1388872}, {"type": "node", "id": 8227789757, "lat": -25.1176153, "lon": -50.1372457}, {"type": "node", "id": 8227789758, "lat": -25.1175182, "lon": -50.1372309}, {"type": "node", "id": 8227789759, "lat": -25.117432, "lon": -50.137243}, {"type": "node", "id": 8227789760, "lat": -25.1173543, "lon": -50.1372859}, {"type": "node", "id": 8227789761, "lat": -25.117143, "lon": -50.1374656}, {"type": "node", "id": 8227789762, "lat": -25.1170896, "lon": -50.1374951}, {"type": "node", "id": 8227789763, "lat": -25.1169997, "lon": -50.1375246}, {"type": "node", "id": 8227789764, "lat": -25.1158024, "lon": -50.1376909}, {"type": "node", "id": 8227789765, "lat": -25.1152681, "lon": -50.1377124}, {"type": "node", "id": 8227789766, "lat": -25.1152001, "lon": -50.1377258}, {"type": "node", "id": 8227789767, "lat": -25.1151321, "lon": -50.1377606}, {"type": "node", "id": 8227789768, "lat": -25.1150787, "lon": -50.1378062}, {"type": "node", "id": 8227789769, "lat": -25.1150422, "lon": -50.1379108}, {"type": "node", "id": 8227789770, "lat": -25.1150592, "lon": -50.138053}, {"type": "node", "id": 8227789771, "lat": -25.1182941, "lon": -50.1418108}, {"type": "node", "id": 8227789772, "lat": -25.1183888, "lon": -50.1418188}, {"type": "node", "id": 8227789773, "lat": -25.1185127, "lon": -50.1418161}, {"type": "node", "id": 8227789774, "lat": -25.1187774, "lon": -50.1417571}, {"type": "node", "id": 8227789775, "lat": -25.119183, "lon": -50.1416686}, {"type": "node", "id": 8227789776, "lat": -25.1192316, "lon": -50.1416364}, {"type": "node", "id": 8227789777, "lat": -25.119285, "lon": -50.1415533}, {"type": "node", "id": 8227789778, "lat": -25.1196274, "lon": -50.1403651}, {"type": "node", "id": 8227789779, "lat": -25.1199601, "lon": -50.1392332}, {"type": "node", "id": 8227791528, "lat": -25.1192, "lon": -50.1373248}, {"type": "node", "id": 8227791580, "lat": -25.115256, "lon": -50.1393002}, {"type": "node", "id": 8227791581, "lat": -25.1160155, "lon": -50.1398824}, {"type": "node", "id": 8227791582, "lat": -25.1161231, "lon": -50.1398251}, {"type": "node", "id": 8227791583, "lat": -25.1163782, "lon": -50.1396378}, {"type": "node", "id": 8227791584, "lat": -25.1165106, "lon": -50.1395556}, {"type": "node", "id": 8227791585, "lat": -25.1166702, "lon": -50.1395141}, {"type": "node", "id": 8227791586, "lat": -25.1168319, "lon": -50.1395084}, {"type": "node", "id": 8227791587, "lat": -25.116998, "lon": -50.1395464}, {"type": "node", "id": 8227791588, "lat": -25.117167, "lon": -50.1396307}, {"type": "node", "id": 8227791589, "lat": -25.1172911, "lon": -50.1397907}, {"type": "node", "id": 8227791590, "lat": -25.1173686, "lon": -50.13998}, {"type": "node", "id": 8227791591, "lat": -25.1176086, "lon": -50.140986}, {"type": "node", "id": 8227791594, "lat": -25.1152829, "lon": -50.1394827}, {"type": "node", "id": 8227791595, "lat": -25.1157638, "lon": -50.1399137}, {"type": "node", "id": 8444546032, "lat": -25.1200642, "lon": -50.153617}, {"type": "node", "id": 8444546033, "lat": -25.1200697, "lon": -50.1531501}, {"type": "node", "id": 8444570608, "lat": -25.0853103, "lon": -50.1774574}, {"type": "node", "id": 8444570609, "lat": -25.0851238, "lon": -50.1780192}, {"type": "node", "id": 8444570610, "lat": -25.0855813, "lon": -50.1765995}, {"type": "node", "id": 8444570611, "lat": -25.0849534, "lon": -50.1761889}, {"type": "node", "id": 8444570612, "lat": -25.0845568, "lon": -50.1769249}, {"type": "node", "id": 8444570613, "lat": -25.0845036, "lon": -50.1776378}, {"type": "node", "id": 8444775322, "lat": -25.1090088, "lon": -50.1597145}, {"type": "node", "id": 8444796502, "lat": -25.0822135, "lon": -50.1737128}, {"type": "node", "id": 8444796503, "lat": -25.0820426, "lon": -50.173619}, {"type": "node", "id": 8444796504, "lat": -25.082072, "lon": -50.1735585}, {"type": "node", "id": 8445015652, "lat": -25.0820476, "lon": -50.1626432}, {"type": "node", "id": 8445015654, "lat": -25.0826594, "lon": -50.1610641}, {"type": "node", "id": 8445015655, "lat": -25.0812852, "lon": -50.1622512}, {"type": "node", "id": 8445015656, "lat": -25.0812418, "lon": -50.1613941}, {"type": "node", "id": 8445015657, "lat": -25.0812126, "lon": -50.1606296}, {"type": "node", "id": 8445015658, "lat": -25.0827045, "lon": -50.1621304}, {"type": "node", "id": 8445015659, "lat": -25.0827179, "lon": -50.1629342}, {"type": "node", "id": 8445015662, "lat": -25.0826632, "lon": -50.1590456}, {"type": "node", "id": 8445015663, "lat": -25.0830614, "lon": -50.1592629}, {"type": "node", "id": 8445015664, "lat": -25.0823662, "lon": -50.1589556}, {"type": "node", "id": 8445015666, "lat": -25.0830389, "lon": -50.1593579}, {"type": "node", "id": 8445015667, "lat": -25.083391, "lon": -50.1595355}, {"type": "node", "id": 8445026999, "lat": -25.1257695, "lon": -50.1544083}, {"type": "node", "id": 8445052805, "lat": -25.0924201, "lon": -50.1600047}, {"type": "node", "id": 8445052806, "lat": -25.0929879, "lon": -50.1592696}, {"type": "node", "id": 8445052807, "lat": -25.0923321, "lon": -50.1593477}, {"type": "node", "id": 8445052808, "lat": -25.0930836, "lon": -50.1599072}, {"type": "node", "id": 8445052809, "lat": -25.0940272, "lon": -50.1598275}, {"type": "node", "id": 8445052810, "lat": -25.0940591, "lon": -50.159642}, {"type": "node", "id": 8445052811, "lat": -25.0940952, "lon": -50.1591277}, {"type": "node", "id": 8445052812, "lat": -25.0941529, "lon": -50.1592193}, {"type": "node", "id": 8445052813, "lat": -25.0931045, "lon": -50.1592468}, {"type": "node", "id": 8445052814, "lat": -25.0931371, "lon": -50.1599447}, {"type": "node", "id": 8445052815, "lat": -25.0941346, "lon": -50.1605835}, {"type": "node", "id": 8445052816, "lat": -25.0933086, "lon": -50.1607447}, {"type": "node", "id": 8445075517, "lat": -25.0933608, "lon": -50.1607429}, {"type": "node", "id": 8445075518, "lat": -25.0932477, "lon": -50.1607668}, {"type": "node", "id": 8445459011, "lat": -25.121574, "lon": -50.1532822}, {"type": "node", "id": 8445570563, "lat": -25.0975522, "lon": -50.1586727}, {"type": "node", "id": 8445570564, "lat": -25.0978918, "lon": -50.1589399}, {"type": "node", "id": 8445570565, "lat": -25.0978492, "lon": -50.1586206}, {"type": "node", "id": 8445570566, "lat": -25.0979261, "lon": -50.1592495}, {"type": "node", "id": 8445570567, "lat": -25.0976207, "lon": -50.1592879}, {"type": "node", "id": 8445570568, "lat": -25.0972754, "lon": -50.1590366}, {"type": "node", "id": 8445570569, "lat": -25.0972427, "lon": -50.1587203}, {"type": "node", "id": 8445570570, "lat": -25.097299, "lon": -50.1593233}, {"type": "node", "id": 8447967449, "lat": -25.0847155, "lon": -50.1695717}, {"type": "node", "id": 8447967450, "lat": -25.0850649, "lon": -50.1678315}, {"type": "node", "id": 8447967451, "lat": -25.0850007, "lon": -50.1676537}, {"type": "node", "id": 8447967452, "lat": -25.0843722, "lon": -50.1683871}, {"type": "node", "id": 8447967453, "lat": -25.084269, "lon": -50.1678945}, {"type": "node", "id": 8456336367, "lat": -25.0863232, "lon": -50.1543484}, {"type": "node", "id": 8456336368, "lat": -25.0859804, "lon": -50.1548556}, {"type": "node", "id": 8456336369, "lat": -25.08548, "lon": -50.1544762}, {"type": "node", "id": 8456336370, "lat": -25.0855145, "lon": -50.1542529}, {"type": "node", "id": 8456336373, "lat": -25.0858691, "lon": -50.1539489}, {"type": "node", "id": 8456336380, "lat": -25.0860542, "lon": -50.1538332}, {"type": "node", "id": 8456336381, "lat": -25.0861631, "lon": -50.1538155}, {"type": "node", "id": 8456336382, "lat": -25.0862632, "lon": -50.1538726}, {"type": "node", "id": 8456336385, "lat": -25.0864081, "lon": -50.1541907}, {"type": "node", "id": 8456342017, "lat": -25.0912728, "lon": -50.1525147}, {"type": "node", "id": 8456342018, "lat": -25.0912985, "lon": -50.1525102}, {"type": "node", "id": 8456342019, "lat": -25.0912521, "lon": -50.1525292}, {"type": "node", "id": 8456342020, "lat": -25.0915158, "lon": -50.1533216}, {"type": "node", "id": 8456342021, "lat": -25.0913347, "lon": -50.1533661}, {"type": "node", "id": 8456358199, "lat": -25.0942287, "lon": -50.1538094}, {"type": "node", "id": 8456358200, "lat": -25.0944293, "lon": -50.1554037}, {"type": "node", "id": 8456358201, "lat": -25.0944836, "lon": -50.1557642}, {"type": "node", "id": 8456358202, "lat": -25.0952696, "lon": -50.1556798}, {"type": "node", "id": 8456358203, "lat": -25.0959908, "lon": -50.155531}, {"type": "node", "id": 8456358204, "lat": -25.0975016, "lon": -50.1552865}, {"type": "node", "id": 8456358205, "lat": -25.0974813, "lon": -50.1549595}, {"type": "node", "id": 8456358206, "lat": -25.0974541, "lon": -50.1547885}, {"type": "node", "id": 8456358207, "lat": -25.0960015, "lon": -50.1544266}, {"type": "node", "id": 8456358208, "lat": -25.0954763, "lon": -50.1542666}, {"type": "node", "id": 8456358209, "lat": -25.0953621, "lon": -50.154182}, {"type": "node", "id": 8456358210, "lat": -25.0952841, "lon": -50.1540955}, {"type": "node", "id": 8456358211, "lat": -25.0943366, "lon": -50.1529182}, {"type": "node", "id": 8456358212, "lat": -25.0942673, "lon": -50.1528922}, {"type": "node", "id": 8456358213, "lat": -25.0942171, "lon": -50.1529035}, {"type": "node", "id": 8456358214, "lat": -25.0941872, "lon": -50.1529293}, {"type": "node", "id": 8456358215, "lat": -25.0941746, "lon": -50.1529516}, {"type": "node", "id": 8456358216, "lat": -25.094157, "lon": -50.1529738}, {"type": "node", "id": 8456372417, "lat": -25.0941466, "lon": -50.1530054}, {"type": "node", "id": 8456372438, "lat": -25.0906346, "lon": -50.1458684}, {"type": "node", "id": 8456372439, "lat": -25.0906802, "lon": -50.1464705}, {"type": "node", "id": 8456372440, "lat": -25.0905365, "lon": -50.1464117}, {"type": "node", "id": 8456414892, "lat": -25.0873557, "lon": -50.1543243}, {"type": "node", "id": 8456414893, "lat": -25.0874825, "lon": -50.1543025}, {"type": "node", "id": 8456414894, "lat": -25.0875552, "lon": -50.1543459}, {"type": "node", "id": 8456414895, "lat": -25.0874591, "lon": -50.1543779}, {"type": "node", "id": 8456414896, "lat": -25.0872757, "lon": -50.1544376}, {"type": "node", "id": 8456414897, "lat": -25.0872777, "lon": -50.1544642}, {"type": "node", "id": 8456414908, "lat": -25.082404, "lon": -50.1588592}, {"type": "node", "id": 8456414909, "lat": -25.0817753, "lon": -50.158432}, {"type": "node", "id": 8456414910, "lat": -25.0817008, "lon": -50.158611}, {"type": "node", "id": 8456700649, "lat": -25.0933725, "lon": -50.1504554}, {"type": "node", "id": 8458775844, "lat": -25.0802327, "lon": -50.1885094}, {"type": "node", "id": 8458775846, "lat": -25.0803189, "lon": -50.1882881}, {"type": "node", "id": 8498826667, "lat": -25.1091138, "lon": -50.1537681}, {"type": "node", "id": 8498826668, "lat": -25.109993, "lon": -50.1532504}, {"type": "node", "id": 8498826669, "lat": -25.110599, "lon": -50.1530747}, {"type": "node", "id": 8498826670, "lat": -25.110871, "lon": -50.1535407}, {"type": "node", "id": 8498826671, "lat": -25.1084022, "lon": -50.1551816}, {"type": "node", "id": 8498826672, "lat": -25.1101509, "lon": -50.1541013}, {"type": "node", "id": 8498826673, "lat": -25.1095625, "lon": -50.1545875}, {"type": "node", "id": 8498826674, "lat": -25.1091533, "lon": -50.1552171}, {"type": "node", "id": 8498826675, "lat": -25.1088236, "lon": -50.1558837}, {"type": "node", "id": 8498826676, "lat": -25.1086068, "lon": -50.1544775}, {"type": "node", "id": 8498826677, "lat": -25.1082045, "lon": -50.1572141}, {"type": "node", "id": 8498826678, "lat": -25.1077529, "lon": -50.1571137}, {"type": "node", "id": 8506023002, "lat": -25.0976779, "lon": -50.1550765}, {"type": "node", "id": 8519532718, "lat": -25.1245007, "lon": -50.1550241}, {"type": "node", "id": 8531568774, "lat": -25.0701396, "lon": -50.1575768}, {"type": "node", "id": 8531568775, "lat": -25.0693039, "lon": -50.1579134}, {"type": "node", "id": 8531568776, "lat": -25.0695845, "lon": -50.1572603}, {"type": "node", "id": 8531568777, "lat": -25.0698609, "lon": -50.1582266}, {"type": "node", "id": 8531755334, "lat": -25.0774037, "lon": -50.1531854}, {"type": "node", "id": 8531755335, "lat": -25.0776995, "lon": -50.1527039}, {"type": "node", "id": 8531755336, "lat": -25.0775889, "lon": -50.1528963}, {"type": "node", "id": 8531755337, "lat": -25.0768874, "lon": -50.152325}, {"type": "node", "id": 8531755338, "lat": -25.0767016, "lon": -50.1526516}, {"type": "node", "id": 8531755339, "lat": -25.0774189, "lon": -50.1515003}, {"type": "node", "id": 8531755340, "lat": -25.0781234, "lon": -50.1520065}, {"type": "node", "id": 8531755341, "lat": -25.0770611, "lon": -50.1529279}, {"type": "node", "id": 8531755342, "lat": -25.0770885, "lon": -50.1520079}, {"type": "node", "id": 8531755343, "lat": -25.0767599, "lon": -50.1525389}, {"type": "node", "id": 8531755344, "lat": -25.0768704, "lon": -50.1527837}, {"type": "node", "id": 8531922443, "lat": -25.0766457, "lon": -50.1456463}, {"type": "node", "id": 8531922444, "lat": -25.076209, "lon": -50.146113}, {"type": "node", "id": 8531922445, "lat": -25.0755124, "lon": -50.1453607}, {"type": "node", "id": 8531922446, "lat": -25.0759424, "lon": -50.1448752}, {"type": "node", "id": 8562589690, "lat": -25.1445638, "lon": -50.1800278}, {"type": "node", "id": 8759500585, "lat": -25.0746179, "lon": -50.1210877}, {"type": "node", "id": 8759500586, "lat": -25.072087, "lon": -50.1200305}, {"type": "node", "id": 8759500587, "lat": -25.0721399, "lon": -50.1206904}, {"type": "node", "id": 8759500589, "lat": -25.071493, "lon": -50.1219201}, {"type": "node", "id": 8759500590, "lat": -25.0702167, "lon": -50.1222117}, {"type": "node", "id": 8759500591, "lat": -25.0699988, "lon": -50.1217019}, {"type": "node", "id": 8759500592, "lat": -25.0671717, "lon": -50.1210964}, {"type": "node", "id": 8759500593, "lat": -25.0664357, "lon": -50.1214613}, {"type": "node", "id": 8763674071, "lat": -25.0800538, "lon": -50.1285578}, {"type": "node", "id": 8763674072, "lat": -25.0803871, "lon": -50.1283551}, {"type": "node", "id": 8763674073, "lat": -25.0800718, "lon": -50.1285883}, {"type": "node", "id": 9857791428, "lat": -25.0891856, "lon": -50.1706056}, {"type": "node", "id": 9857791429, "lat": -25.089058, "lon": -50.1707183}, {"type": "node", "id": 9857791430, "lat": -25.0888297, "lon": -50.1700491}, {"type": "node", "id": 9857791431, "lat": -25.0894212, "lon": -50.1704192}, {"type": "node", "id": 9857791432, "lat": -25.0893483, "lon": -50.1704782}, {"type": "node", "id": 9857791433, "lat": -25.0889475, "lon": -50.1708658}, {"type": "node", "id": 9857791434, "lat": -25.0888953, "lon": -50.170949}, {"type": "node", "id": 9857791435, "lat": -25.0885018, "lon": -50.170733}, {"type": "node", "id": 9873845797, "lat": -25.0993936, "lon": -50.1027524}, {"type": "node", "id": 9873845798, "lat": -25.0988471, "lon": -50.1049633}, {"type": "node", "id": 9972361783, "lat": -25.0511478, "lon": -50.139944, "tags": {"amenity": "school", "name": "Marista Escola Social Santa M\u00f4nica"}}, {"type": "node", "id": 10295859322, "lat": -25.1437446, "lon": -49.9631319, "tags": {"amenity": "marketplace", "name": "Mercearia"}}, {"type": "node", "id": 10937309675, "lat": -25.0931208, "lon": -50.2057824}, {"type": "node", "id": 10937309676, "lat": -25.0928585, "lon": -50.2053049}, {"type": "node", "id": 10937309702, "lat": -25.092583, "lon": -50.2056677, "tags": {"addr:street": "Rua Eug\u00eania", "leisure": "park", "name": "Pracinha da Associa\u00e7\u00e3o"}}, {"type": "node", "id": 10937309703, "lat": -25.0928637, "lon": -50.2051389}, {"type": "node", "id": 10937332855, "lat": -25.0923982, "lon": -50.2045069}, {"type": "node", "id": 10937332856, "lat": -25.0926247, "lon": -50.2044979}, {"type": "node", "id": 10937332857, "lat": -25.0926086, "lon": -50.2040011}, {"type": "node", "id": 10937332858, "lat": -25.092382, "lon": -50.2040101}, {"type": "node", "id": 11051886958, "lat": -25.0697894, "lon": -50.1153013}, {"type": "node", "id": 11051886959, "lat": -25.0693667, "lon": -50.1143357}, {"type": "node", "id": 11051886960, "lat": -25.0701684, "lon": -50.1139173}, {"type": "node", "id": 11051886961, "lat": -25.070494, "lon": -50.1150116}, {"type": "node", "id": 11051886962, "lat": -25.0703336, "lon": -50.1150813}, {"type": "node", "id": 12184515501, "lat": -25.2416341, "lon": -50.0502926, "tags": {"amenity": "restaurant", "opening_hours": "We-Mo 00:00-24:00"}}, {"type": "node", "id": 12186594923, "lat": -25.1326551, "lon": -50.1211751}, {"type": "node", "id": 12256464715, "lat": -25.1021798, "lon": -50.2016295, "tags": {"amenity": "hospital", "healthcare": "hospital", "name": "UPA Santa Paula"}}, {"type": "node", "id": 12256464716, "lat": -25.1019855, "lon": -50.2016}, {"type": "node", "id": 12256464717, "lat": -25.1024421, "lon": -50.2016564}, {"type": "node", "id": 12256464718, "lat": -25.1024567, "lon": -50.2014203}, {"type": "node", "id": 12256464719, "lat": -25.1025174, "lon": -50.2014257}, {"type": "node", "id": 12256464720, "lat": -25.1025271, "lon": -50.201313}, {"type": "node", "id": 12256464721, "lat": -25.1020098, "lon": -50.201254}, {"type": "node", "id": 12256464728, "lat": -25.0987215, "lon": -50.2013072, "tags": {"amenity": "restaurant", "cuisine": "barbecue", "name": "Churrascaria Treviso"}}, {"type": "node", "id": 12256491257, "lat": -25.1015324, "lon": -50.1589453, "tags": {"amenity": "hospital", "healthcare": "hospital", "name": "HU Hospital Universit\u00e1rio UEPG"}}, {"type": "node", "id": 12256491258, "lat": -25.1010054, "lon": -50.1592378}, {"type": "node", "id": 12256491259, "lat": -25.1012096, "lon": -50.1597376}, {"type": "node", "id": 12256491260, "lat": -25.1012606, "lon": -50.1597193}, {"type": "node", "id": 12256491261, "lat": -25.101291, "lon": -50.159797}, {"type": "node", "id": 12256491262, "lat": -25.1019077, "lon": -50.1594496}, {"type": "node", "id": 12256491263, "lat": -25.1017297, "lon": -50.1590047}, {"type": "node", "id": 12256491264, "lat": -25.1016566, "lon": -50.1590459}, {"type": "node", "id": 12256491265, "lat": -25.1016345, "lon": -50.1589849}, {"type": "node", "id": 12256491266, "lat": -25.1013558, "lon": -50.1591464}, {"type": "node", "id": 12256491267, "lat": -25.1013158, "lon": -50.159052}, {"type": "node", "id": 12258827595, "lat": -25.1263165, "lon": -50.1542101}, {"type": "node", "id": 12258827596, "lat": -25.1264571, "lon": -50.1542162}, {"type": "node", "id": 12258827597, "lat": -25.1264599, "lon": -50.1536982}, {"type": "node", "id": 12258827598, "lat": -25.1263275, "lon": -50.1536921}, {"type": "node", "id": 12716815160, "lat": -25.0761819, "lon": -50.1460837}, {"type": "node", "id": 12741868301, "lat": -25.2495895, "lon": -50.0138107, "tags": {"leisure": "park", "name": "visitor\u2019s Center"}}, {"type": "node", "id": 13469187078, "lat": -25.1314373, "lon": -50.121228}, {"type": "node", "id": 13469187079, "lat": -25.1316295, "lon": -50.121386}, {"type": "node", "id": 13469187080, "lat": -25.1322128, "lon": -50.1215897}, {"type": "node", "id": 13469187081, "lat": -25.1324687, "lon": -50.1216188}, {"type": "node", "id": 13469187082, "lat": -25.1326644, "lon": -50.1215689}, {"type": "node", "id": 13469187083, "lat": -25.1327961, "lon": -50.1215066}, {"type": "node", "id": 13469187084, "lat": -25.1327769, "lon": -50.1211715}, {"type": "node", "id": 13469187085, "lat": -25.1324418, "lon": -50.1211844}, {"type": "node", "id": 13469187086, "lat": -25.1318534, "lon": -50.1215003}, {"type": "way", "id": 70883610, "nodes": [5522838308, 5522842326, 8444570613, 8444570609, 8444570608, 8444570610, 8444570611, 8444570612, 5522842327, 5522838308], "tags": {"leisure": "park", "name": "Pra\u00e7a Get\u00falio Vargas"}}, {"type": "way", "id": 70948751, "nodes": [845504629, 845504630, 845504631, 845504632, 845504629], "tags": {"amenity": "school", "building": "school", "name": "Escola Estudual Amalio Pinherio"}}, {"type": "way", "id": 70948759, "nodes": [8456358204, 8456358205, 8456358206, 8456358207, 8456358208, 8456358209, 8456358210, 8456358211, 8456358212, 8456358213, 8456358214, 8456358215, 8456358216, 8456372417, 8456358199, 8456358200, 8456358201, 8456358202, 8456358203, 8456358204], "tags": {"leisure": "park", "name": "Parque Ambiental Governador Manoel Ribas", "tourism": "attraction"}}, {"type": "way", "id": 70948762, "nodes": [8445075518, 8445052816, 8445075517, 6887384516, 6887384513, 8445052815, 5283234946, 8445052809, 8445052810, 8445052812, 8445052811, 8445052813, 8445052814, 8445075518], "tags": {"leisure": "park", "name": "Pra\u00e7a Bar\u00e3o do Rio Branco"}}, {"type": "way", "id": 71189680, "nodes": [8445570570, 8445570567, 8445570566, 8445570564, 8445570565, 8445570563, 8445570569, 8445570568, 8445570570], "tags": {"leisure": "park"}}, {"type": "way", "id": 71255444, "nodes": [848167009, 848167010, 848167011, 848167012, 848167013, 848167014, 848167015, 848167016, 848167017, 848167018, 848167019, 848167020, 848167009], "tags": {"addr:city": "Ponta Grossa", "addr:housenumber": "500", "addr:street": "Rua Doutor Joaquim de Paula Xavier", "addr:suburb": "Vila Estrela", "amenity": "hospital", "building": "hospital", "healthcare": "hospital", "healthcare:speciality": "paediatrics", "name": "Hospital da Crian\u00e7a Jo\u00e3o Vargas de Oliveira", "opening_hours": "24/7"}}, {"type": "way", "id": 165475568, "nodes": [8191231648, 8191231650, 8191231647, 8191231649, 8191231648], "tags": {"leisure": "park", "name": "Pra\u00e7a Bar\u00e3o de Guara\u00fana"}}, {"type": "way", "id": 165530986, "nodes": [1770717090, 1770717086, 1770717088, 1770717083, 1770717090], "tags": {"addr:city": "Ponta Grossa", "addr:housenumber": "108", "addr:street": "Avenida Dom Pedro II", "amenity": "hospital", "building": "hospital", "building:levels": "2", "name": "Hospital Bom Jesus"}}, {"type": "way", "id": 165555581, "nodes": [1770952995, 1770952996, 1770952997, 1770952998, 1770952995], "tags": {"amenity": "school", "name": "Colegio Sepam,Cursinho"}}, {"type": "way", "id": 166236877, "nodes": [5457833869, 5457833870, 5457833871, 5457833872, 5457833869], "tags": {"addr:city": "Ponta Grossa", "addr:housenumber": "1171", "addr:street": "Rua General Carneiro", "amenity": "school", "name": "Col\u00e9gio Sepam"}}, {"type": "way", "id": 219473031, "nodes": [2286226941, 3130423421, 2286226938, 2286226939, 2286226923, 2286226916, 2286226940, 2286226942, 2286226912, 2286226901, 2286226881, 2286226876, 2286226970, 2286226956, 2286226949, 2286226887, 2286226880, 2286226967, 2286226951, 2286226941], "tags": {"leisure": "park"}}, {"type": "way", "id": 219473471, "nodes": [2286232737, 2286232744, 2286232743, 2286232726, 2286232747, 2286232739, 2286232742, 2286232727, 2286232738, 2286232749, 2286232732, 2286232740, 2286232741, 2286232734, 2286232735, 2286232733, 2286232731, 2286232737], "tags": {"leisure": "park"}}, {"type": "way", "id": 219473975, "nodes": [2286237389, 2286237375, 2286237365, 2286237404, 2286237402, 2286237413, 2286237405, 2286237399, 2286237394, 2286237385, 2286237380, 2286237415, 2286237408, 2286237391, 2286237367, 2286237429, 2286237377, 2286237414, 2286237407, 2286237368, 2286237389], "tags": {"leisure": "park"}}, {"type": "way", "id": 219476438, "nodes": [2286261309, 2286261295, 7806323938, 2286261318, 2286261313, 2286261297, 3147136038, 7806323939, 2286261332, 2286261324, 2286261283, 2286261321, 2286261307, 2286261338, 2286261325, 2286261326, 2286261271, 2286261281, 2286261270, 2286261282, 2286261309], "tags": {"leisure": "park"}}, {"type": "way", "id": 219476440, "nodes": [2286261320, 2286261284, 2286261274, 2286261286, 2286261288, 2286261306, 2286261273, 2286261293, 2286261322, 2286261336, 2286261268, 2286261276, 2286261280, 2286261319, 2286261305, 2286261265, 2286261277, 2286261278, 2286261315, 2286261323, 2286261320], "tags": {"leisure": "park"}}, {"type": "way", "id": 244855996, "nodes": [8562589690, 2521260224, 2521260225, 2521275296, 1082771722, 8562589690], "tags": {"leisure": "park", "name": "A.C.E.N.B.P.G."}}, {"type": "way", "id": 244857778, "nodes": [2521284309, 2521284310, 2521284311, 2605173542, 2521284312, 2521284313, 2521284314, 2521284309], "tags": {"leisure": "park", "name": "Campo de Park Golf"}}, {"type": "way", "id": 255838441, "nodes": [2615441521, 2615441524, 2615441564, 2615441566, 2615441568, 2615441570, 2615441572, 2615441574, 2615441576, 2615441578, 2615441581, 2615441584, 2615441521], "tags": {"leisure": "park"}}, {"type": "way", "id": 255841656, "nodes": [2615517052, 2615517061, 2615517063, 2615517065, 2615517067, 2615517069, 2615447229, 2615447226, 2615517070, 2615517072, 2615517052], "tags": {"leisure": "park"}}, {"type": "way", "id": 255841804, "nodes": [2615523497, 2615523499, 2615523501, 2615523503, 2615523504, 2615523497], "tags": {"leisure": "park"}}, {"type": "way", "id": 256244132, "nodes": [2619185854, 2619185855, 3103044507, 3103044508, 2619185857, 2619185854], "tags": {"amenity": "school", "building": "yes"}}, {"type": "way", "id": 256244192, "nodes": [2619186009, 2619186010, 2619186011, 2619185856, 2619186009], "tags": {"amenity": "school", "building": "yes"}}, {"type": "way", "id": 256249058, "nodes": [2619222904, 2619222905, 2619222906, 2619222907, 2619222904], "tags": {"addr:street": "Rua Padre Jo\u00e3o Ant\u00f4nio", "amenity": "school", "name": "Col\u00e9gio Estadual Polivalente"}}, {"type": "way", "id": 256339388, "nodes": [2620032774, 2620035429, 3128066730, 2620035430, 2620035431, 2620035432, 845102460, 2620013148, 2620016592, 5283235138, 2620016589, 2620035433, 2620016585, 2620016581, 2620035434, 5283235133, 8444796502, 8444796503, 8444796504, 5283235134, 2620035435, 2620035436, 2620035437, 2620015421, 2620035438, 2620015417, 2620013150, 2620015412, 2620035440, 2620035441, 2620035442, 2620035443, 2620035444, 2620035445, 2620035446, 2620035447, 2620035448, 2620035449, 3128066731, 2620032774], "tags": {"leisure": "park", "name": "Parque Linear do Arroio Madureira"}}, {"type": "way", "id": 271660946, "nodes": [2765914375, 2765914380, 2765914383, 2765914382, 2765914375], "tags": {"amenity": "restaurant", "building": "yes", "cuisine": "regional"}}, {"type": "way", "id": 297537822, "nodes": [848165486, 6839452027, 3014261692, 3014261693, 848165486], "tags": {"leisure": "park", "name": "Pra\u00e7a Guarani"}}, {"type": "way", "id": 302801419, "nodes": [3070841716, 3070841717, 3070841718, 3070841719, 3070841716], "tags": {"amenity": "restaurant", "building": "yes", "cuisine": "regional", "name": "Churrascaria Estrela de Prata"}}, {"type": "way", "id": 304927169, "nodes": [3094966274, 3094966275, 3094966276, 3094966279, 3094966278, 3094966277, 3094966274], "tags": {"amenity": "restaurant", "building": "yes", "name": "Churrascaria Estrela de Prata"}}, {"type": "way", "id": 306062081, "nodes": [8445052805, 8445052808, 8445052806, 8445052807, 8445052805], "tags": {"addr:city": "Ponta Grossa", "addr:housenumber": "194", "addr:street": "Rua do Ros\u00e1rio", "addr:suburb": "Centro", "amenity": "school", "name": "Col\u00e9gio Estadual Regente Feij\u00f3", "wikidata": "Q9818306"}}, {"type": "way", "id": 306778599, "nodes": [8456336369, 8456336368, 8456336367, 8456336385, 8456336382, 8456336381, 8456336380, 8456336373, 8456336370, 8456336369], "tags": {"addr:city": "Ponta Grossa", "addr:housenumber": "20", "addr:street": "Rua Graciliano Ramos", "amenity": "school", "name": "Col\u00e9gio Estadual Meneleu de Almeida Torres"}}, {"type": "way", "id": 306779367, "nodes": [8456414897, 8456414896, 8456414892, 8456414893, 8456414894, 8456414895, 8456414897], "tags": {"leisure": "park"}}, {"type": "way", "id": 306952578, "nodes": [8445015657, 3119758709, 3119758710, 8445015654, 8445015658, 8445015659, 8445015652, 8445015655, 8445015656, 8445015657], "tags": {"addr:city": "Ponta Grossa", "addr:housenumber": "701", "addr:street": "Rua Rodrigues Alves", "amenity": "school", "name": "Col\u00e9gio Marista Pio XII", "wikidata": "Q55607897"}}, {"type": "way", "id": 306954356, "nodes": [5457833880, 5457833882, 5457833881, 5457833878, 5457833879, 7631297794, 5457833880], "tags": {"leisure": "park", "name": "Pra\u00e7a Santos Andrade"}}, {"type": "way", "id": 311477265, "nodes": [3171374769, 3171374770, 3171374771, 5443122610, 5443122613, 5443122612, 5443122611, 3171374772, 3171374773, 3171374774, 3171374775, 3171374780, 3171374779, 3171374777, 3171374778, 3171374776, 3171374769], "tags": {"addr:city": "Ponta Grossa", "addr:housenumber": "236", "addr:street": "Rua Dolarico Correia", "addr:suburb": "Uvaranas", "amenity": "hospital", "healthcare": "hospital", "name": "Hospital Vicentino S\u00e3o Camilo"}}, {"type": "way", "id": 311478181, "nodes": [3171406321, 3171406322, 3171406323, 3171406324, 3171406325, 3171406326, 3171406327, 3171406328, 3171406329, 3171406330, 3171406331, 3171406332, 3171406333, 3171406334, 3171406335, 3171406321], "tags": {"addr:city": "Ponta Grossa", "addr:housenumber": "774", "addr:street": "Rua Doutor Francisco B\u00farzio", "addr:suburb": "Centro", "amenity": "hospital", "building:levels": "3", "name": "Santa Casa de Miseric\u00f3rdia de Ponta Grossa", "opening_hours": "24/7", "phone": "+55 42 30268000"}}, {"type": "way", "id": 311481151, "nodes": [3171461707, 3171461708, 3171461709, 3171461710, 3171461711, 3171461712, 3171461713, 3171461714, 3171461715, 3171461716, 3171461717, 3171461718, 3171461719, 3171461720, 3171461721, 3171461722, 3171461723, 3171461724, 3171461725, 3171461726, 3171461727, 3171461728, 3171461729, 3171461730, 3171461731, 3171461732, 3171461733, 3171461734, 3171461707], "tags": {"addr:city": "Ponta Grossa", "addr:housenumber": "2967", "addr:street": "Avenida Monteiro Lobato", "amenity": "hospital", "building": "hospital", "name": "Hospital S\u00e3o Camilo"}}, {"type": "way", "id": 312070545, "nodes": [3178865854, 3178865855, 3178865856, 3178865857, 3178865854], "tags": {"amenity": "restaurant", "building": "yes", "cuisine": "barbecue", "name": "Churrascaria Estrela de Prata"}}, {"type": "way", "id": 313305351, "nodes": [3192151402, 3192151403, 3192151404, 3192151405, 3192151402], "tags": {"addr:city": "Ponta Grossa", "addr:housenumber": "340", "addr:street": "Rua Doutor Joaquim de Paula Xavier", "amenity": "marketplace", "building": "yes", "name": "Shopping Capt\u00f3lio Vest & Art", "shop": "mall"}}, {"type": "way", "id": 469394607, "nodes": [4637220577, 4637220578, 4637220579, 4637220580, 4637220581, 4637220577], "tags": {"amenity": "school", "name": "Col\u00e9gio Sagrada Fam\u00edlia - Unidade S\u00e3o Jos\u00e9"}}, {"type": "way", "id": 470435296, "nodes": [4646293507, 4646293514, 4646293505, 4646293504, 4646293503, 4646293516, 4646293515, 4646293506, 4646293513, 4646293508, 6802158263, 6802158262, 4646293512, 4646293509, 4646293510, 4646293511, 4646293507], "tags": {"leisure": "park"}}, {"type": "way", "id": 470435302, "nodes": [4646293537, 4646293538, 4646293539, 4646293540, 4646293537], "tags": {"addr:city": "Ponta Grossa", "addr:housenumber": "1354", "addr:street": "Rua Teixeira Mendes", "addr:suburb": "Uvaranas", "amenity": "school", "name": "Elite Rede de Ensino - Ponta Grossa", "website": "https://ensinoelite.com.br"}}, {"type": "way", "id": 470435320, "nodes": [4646293622, 4646293623, 4646293635, 4646293624, 4646293625, 4646293626, 4646293622], "tags": {"leisure": "park"}}, {"type": "way", "id": 470435327, "nodes": [4646293643, 4646293644, 4646293645, 4646293646, 4646293647, 4646293648, 4646293649, 4646293650, 4646293651, 4646293652, 4646293643], "tags": {"leisure": "park"}}, {"type": "way", "id": 470437002, "nodes": [4646305394, 4646305399, 4646305395, 4646305396, 8506023002, 4646305397, 4646305394], "tags": {"amenity": "restaurant", "building": "yes", "name": "Restaurante Popular"}}, {"type": "way", "id": 470437004, "nodes": [4646305403, 4646305401, 4646305404, 4646305405, 4646305400, 4646305406, 4646305403], "tags": {"amenity": "marketplace", "building": "yes", "name": "Feirinha"}}, {"type": "way", "id": 470437022, "nodes": [4646305807, 5294906351, 4646305808, 5294906352, 4646305809, 4646305828, 4646305811, 4646305826, 4646305812, 4646305815, 4646305816, 4646305817, 4646305833, 5294906353, 4646305819, 4646305820, 5294906356, 4646305821, 5294906354, 4646305822, 4646305824, 5294906355, 4646305807], "tags": {"leisure": "park"}}, {"type": "way", "id": 470437029, "nodes": [8498826678, 5294906336, 4646305860, 4646305861, 8498826677, 8498826675, 8498826674, 8498826673, 8498826672, 8498826670, 8498826669, 8498826668, 8498826667, 8498826676, 8498826671, 8498826678], "tags": {"leisure": "park"}}, {"type": "way", "id": 473305435, "nodes": [4674408654, 4674408655, 4674408656, 4674408657, 4674408654], "tags": {"amenity": "school", "name": "APAE"}}, {"type": "way", "id": 503753464, "nodes": [6841281220, 6884194637, 6884194633, 6884194635, 6884194634, 6884194636, 6884194632, 6884194631, 6884194630, 6884194628, 6884194629, 6841281220], "tags": {"leisure": "park"}}, {"type": "way", "id": 503974959, "nodes": [2878355477, 3948074772, 3948074773, 3948074774, 2878355479, 2878355478, 2878355477], "tags": {"amenity": "school", "name": "Escola Agr\u00edcola Municipal S\u00edlvio Batista Rosas"}}, {"type": "way", "id": 511751316, "nodes": [8456342021, 8456342019, 8456342017, 8456342018, 8456342020, 8456342021], "tags": {"leisure": "park", "name": "Pra\u00e7a Duque de Caxias"}}, {"type": "way", "id": 514038368, "nodes": [5023105123, 5023105124, 5023105125, 5023105123], "tags": {"leisure": "park", "name": "Pracinha do Tri\u00e2ngulo"}}, {"type": "way", "id": 537208797, "nodes": [5202630839, 5202630840, 5202630841, 5202630842, 5202630839], "tags": {"amenity": "restaurant", "building": "yes"}}, {"type": "way", "id": 546721750, "nodes": [5283149075, 5613070621, 5283149076, 5613070623, 5283149077, 5613070624, 5613070625, 5283149078, 5283149079, 848165664, 5613070622, 5283149075], "tags": {"addr:city": "Ponta Grossa", "addr:street": "Rua Visconde de Nacar", "addr:suburb": "Centro", "leisure": "park", "name": "Pra\u00e7a do P\u00f4r do Sol", "start_date": "09/05/2018"}}, {"type": "way", "id": 546730997, "nodes": [8531922444, 12716815160, 8531922445, 8531922446, 8531922443, 8531922444], "tags": {"leisure": "park"}}, {"type": "way", "id": 546730998, "nodes": [8531755338, 8531755344, 8531755341, 8531755334, 8531755336, 8531755335, 8531755340, 8531755339, 8531755342, 8531755337, 8531755343, 8531755338], "tags": {"leisure": "park", "name": "Pra\u00e7a Dom Antnio Mazzaroto"}}, {"type": "way", "id": 546866199, "nodes": [5284332999, 5284333000, 5284333001, 5284333002, 5284333003, 5284332999], "tags": {"leisure": "park", "name": "Pra\u00e7a e antiga pista de skate"}}, {"type": "way", "id": 546867138, "nodes": [5659978701, 5659978700, 5284341623, 5284341624, 5659978701], "tags": {"addr:housenumber": "461", "addr:postcode": "84020-520", "addr:street": "Rua Iap\u00f3", "amenity": "school", "name": "Escola Municipal Professora Alda dos Santos Rebona", "source": "Prefeitura de Ponta Grossa - PR", "source_ref": "http://wiki.openstreetmap.org/wiki/Pt-br:WikiProject_Brazil/PR/Ponta_Grossa/Agreement"}}, {"type": "way", "id": 546868389, "nodes": [5284353921, 5284353922, 5284353923, 5284353924, 5284353925, 5284353921], "tags": {"leisure": "park", "name": "pra\u00e7a municipal e centro esportivo"}}, {"type": "way", "id": 546869884, "nodes": [5284356283, 8759500586, 5284356285, 5284356286, 5284356283], "tags": {"leisure": "park", "name": "Pra\u00e7a e parque de lazer Nucleo pitangui e Rio Verde"}}, {"type": "way", "id": 546870103, "nodes": [5284359545, 5284359546, 5284359547, 5284359548, 5284359549, 5284359545], "tags": {"leisure": "park", "name": "Estadio acustico Nucleo Pitangui e Rio Verde"}}, {"type": "way", "id": 546871142, "nodes": [5284367911, 5284367912, 5284367913, 5284367914, 5284367915, 5284367911], "tags": {"addr:postcode": "84020-770", "addr:street": "Rua Ewaldo Nack", "amenity": "school", "name": "Escola Estadual Nossa Senhora da Gl\u00f3ria", "source": "Prefeitura de Ponta Grossa - PR", "source_ref": "http://wiki.openstreetmap.org/wiki/Pt-br:WikiProject_Brazil/PR/Ponta_Grossa/Agreement"}}, {"type": "way", "id": 546872135, "nodes": [5284376078, 5284376079, 8759500587, 5284376081, 5284376078], "tags": {"leisure": "park", "name": "\u00c1rea verde"}}, {"type": "way", "id": 546872274, "nodes": [8759500589, 5284377324, 5284377325, 5284374195, 5284374190, 5284377326, 5284377327, 8759500589], "tags": {"leisure": "park", "name": "\u00c1rea verde"}}, {"type": "way", "id": 546872372, "nodes": [5284378947, 8759500591, 8759500590, 5284378947], "tags": {"leisure": "park", "name": "\u00c1rea verde"}}, {"type": "way", "id": 546872705, "nodes": [5284379826, 5284379827, 5284379828, 5284379829, 5284379826], "tags": {"leisure": "park", "name": "\u00c1rea verde"}}, {"type": "way", "id": 546873536, "nodes": [5284388711, 5284388712, 8759500592, 8759500593, 5284388711], "tags": {"amenity": "school", "name": "Escola Municipal Eurico Batista Rosas"}}, {"type": "way", "id": 546874216, "nodes": [5284395589, 5284395590, 5284395591, 8759500585, 5284395593, 5284395589], "tags": {"leisure": "park", "name": "Pra\u00e7a Rio Verde"}}, {"type": "way", "id": 546876561, "nodes": [5284399685, 5284413371, 5284413372, 5284413373, 5284399685], "tags": {"amenity": "school", "name": "Catequese da igreja Nossa Senhora da Gl\u00f3ria"}}, {"type": "way", "id": 546876942, "nodes": [5284413373, 5284416437, 5284404619, 5284399684, 5284413371, 5284413372, 5284413373], "tags": {"leisure": "park", "name": "Espa\u00e7o de festas a ceu aberto da igrela Nossa Senhora da Gl\u00f3ria"}}, {"type": "way", "id": 546883742, "nodes": [1768663595, 7622768031, 7622768030, 1768663594, 5284484785, 5283149026, 5284484786, 1768663595], "tags": {"leisure": "park", "name": "Parque dos Mamonas"}}, {"type": "way", "id": 547046149, "nodes": [5285891778, 5285891784, 5285891780, 5285891786, 5285891778], "tags": {"leisure": "park", "name": "Parque Monteiro Lobato"}}, {"type": "way", "id": 547076619, "nodes": [8191231651, 8191231654, 8191231653, 8191231652, 8191231651], "tags": {"leisure": "park", "name": "Pra\u00e7a do Expedicion\u00e1rio"}}, {"type": "way", "id": 547082841, "nodes": [5286174394, 5286174395, 5286174396, 5286174397, 5286174394], "tags": {"leisure": "park"}}, {"type": "way", "id": 548042716, "nodes": [8456414910, 8445015664, 8445015666, 7101544658, 8445015667, 7101544655, 8445015663, 8445015662, 8456414908, 8456414909, 8456414910], "tags": {"leisure": "park"}}, {"type": "way", "id": 548042724, "nodes": [8447967449, 5294906361, 5294906362, 5294906363, 5294906364, 5294906365, 8447967449], "tags": {"leisure": "park"}}, {"type": "way", "id": 548042725, "nodes": [8447967452, 5294906367, 3868709183, 3868709184, 5294906368, 5294906369, 3868709187, 8447967450, 8447967451, 8447967453, 8447967452], "tags": {"leisure": "park"}}, {"type": "way", "id": 551110529, "nodes": [8227789756, 5322438312, 5322438313, 8227789779, 8227789778, 8227789777, 8227789776, 8227789775, 8227789774, 8227789773, 8227789772, 8227789771, 5322438316, 5322438315, 5395917889, 5322438314, 8227791591, 8227791590, 8227791589, 8227791588, 8227791587, 8227791586, 8227791585, 8227791584, 8227791583, 8227791582, 8227791581, 1060496176, 8227791595, 1060496175, 1060496173, 3186652193, 1060496155, 8227791594, 8227791580]}, {"type": "way", "id": 551110530, "nodes": [1060496217, 8227789770, 8227789769, 8227789768, 8227789767, 8227789766, 8227789765, 8227789764, 8227789763, 8227789762, 8227789761, 8227789760, 8227789759, 8227789758, 8227789757, 5322443822, 5322443821, 5322438320, 5322443823, 5322438319, 6950221404, 5322438318, 6952972241, 8227791528]}, {"type": "way", "id": 551233099, "nodes": [5323517239, 5323517238, 5323517237, 5323517236, 5323517235, 5323517234, 5323517233, 5323517232, 5323517231, 5323517230, 5323517229, 5323517228, 5323517227, 5323517239], "tags": {"leisure": "park"}}, {"type": "way", "id": 553798598, "nodes": [5345251408, 5345251409, 5345251410, 5345251411, 5345251408], "tags": {"leisure": "park", "name": "Pra\u00e7a Osvaldo Tramontim"}}, {"type": "way", "id": 553798599, "nodes": [5345251412, 5345251413, 5345251414, 5345251412], "tags": {"leisure": "park", "name": "Pra\u00e7a Professor Mauro Paes"}}, {"type": "way", "id": 554275260, "nodes": [5349214639, 5349214638, 5349214637, 5349214639], "tags": {"leisure": "park"}}, {"type": "way", "id": 555310727, "nodes": [3121438997, 1031292910, 3121472094, 5378197311, 3121472095, 3121438996, 3121438997], "tags": {"addr:street": "Rua R\u00f4mulo Gardenal", "description": "\u00e1rea para pr\u00e1tica de esportes", "leisure": "park"}}, {"type": "way", "id": 557682624, "nodes": [5659978704, 5659978705, 5659978706, 5659978702, 5659978707, 5659978703, 5659978704], "tags": {"leisure": "park"}}, {"type": "way", "id": 559463341, "nodes": [8531568777, 8531568775, 8531568776, 8531568774, 8531568777], "tags": {"addr:street": "Rua Professora Sinhara Natel de Paula", "leisure": "park"}}, {"type": "way", "id": 562461630, "nodes": [5422301171, 5422301172, 5422301173, 5422301174, 5422301171], "tags": {"amenity": "marketplace", "name": "Mercado Cl\u00e1udia"}}, {"type": "way", "id": 562461635, "nodes": [5422301209, 5422301210, 5422301211, 5422301212, 5422301209], "tags": {"amenity": "school", "name": "Escola Municipal Pref. Fulton Vital de Macedo", "operator": "Prefeitura Municipal de Ponta Grossa"}}, {"type": "way", "id": 563456150, "nodes": [5429849672, 5429849673, 5429849674, 5429849675, 5429849676, 5429849677, 5429849678, 5429849679, 5429849672], "tags": {"amenity": "pharmacy", "building": "yes", "healthcare": "pharmacy", "name": "Laborat\u00f3rio Farmac\u00eautico UEPG", "operator": "UEPG"}}, {"type": "way", "id": 565081124, "nodes": [5443122614, 5443122615, 5443122616, 5443122617, 5443122618, 5443122619, 5443122620, 5443122721, 5443122722, 5443122723, 5443122724, 5443122725, 5443122614], "tags": {"amenity": "hospital", "healthcare": "hospital", "name": "Vicentino"}}, {"type": "way", "id": 567043535, "nodes": [5459323504, 5459323827, 5459323505, 5459323835, 5459323506, 5459323831, 5459323507, 5459323828, 5459323504], "tags": {"leisure": "park", "name": "Pra\u00e7a Bom Jesus"}}, {"type": "way", "id": 581613720, "nodes": [5564525350, 5564525351, 5564525352, 5564525353, 5564525354, 5564525355, 5564525356, 5564525357, 5564525358, 5564525359, 5564525350], "tags": {"leisure": "park"}}, {"type": "way", "id": 581614004, "nodes": [5564527331, 5564527332, 5564527333, 5564527334, 5564527335, 5564527336, 5564527337, 5564527338, 5564527339, 5564527340, 5564527341, 5564527342, 5564527343, 5564527344, 5564527345, 5564527346, 5564527347, 5564527348, 5564527349, 5564527350, 5564527351, 5564527352, 5564527353, 5564527354, 5564527355, 5564527356, 5564527357, 5564527358, 5564527359, 5564527360, 5564527361, 5564527362, 5564527363, 5564527364, 5564527365, 5564527366, 5564527367, 5564527368, 5564527369, 5564527370, 5564527371, 5564527372, 5564527373, 5564527374, 5564527375, 5564527376, 5564527377, 5564527331], "tags": {"leisure": "park"}}, {"type": "way", "id": 581614796, "nodes": [5564535103, 5564535104, 5564535105, 5564535106, 5564535107, 5564535108, 5564535109, 5564535110, 5564535111, 5564535103], "tags": {"leisure": "park"}}, {"type": "way", "id": 581614934, "nodes": [5564535448, 5564535449, 5564535450, 5564535451, 5564535452, 5564535453, 5564535454, 5564535455, 5564535456, 5564535457, 5564535448], "tags": {"leisure": "park"}}, {"type": "way", "id": 581615034, "nodes": [5564537074, 5564537075, 5564537076, 5564537077, 5564537074], "tags": {"leisure": "park"}}, {"type": "way", "id": 581615044, "nodes": [5564535475, 5564535476, 5564535477, 5564535475], "tags": {"leisure": "park"}}, {"type": "way", "id": 593240168, "nodes": [5659978699, 5659978698, 5659978697, 5659978699], "tags": {"leisure": "park", "name": "Pra\u00e7a das Pedras"}}, {"type": "way", "id": 601417965, "nodes": [5716236925, 5716236926, 5716236927, 8531755334, 5716236928, 5716236925], "tags": {"leisure": "park", "name": "Pra\u00e7a Santo Ant\u00f4nio"}}, {"type": "way", "id": 601755620, "nodes": [5718126932, 5718126933, 5718126934, 8456700649, 5718126932], "tags": {"leisure": "park", "name": "Pra\u00e7a sem nome"}}, {"type": "way", "id": 679334539, "nodes": [848165581, 848165580, 848165570, 848165571, 848165581], "tags": {"addr:city": "ponta grossa", "addr:housenumber": "630", "addr:postcode": "84040-050", "addr:street": "Rua Freire Alem\u00e3o", "addr:suburb": "Vila Estrela", "leisure": "park", "name": "Pra\u00e7a Jo\u00e3o Montes Filho", "opening_hours": "24/7", "operator": "Prefeitura Municipal de Ponta Grossa"}}, {"type": "way", "id": 679334843, "nodes": [2968825253, 1032627281, 845139320, 8444775322, 2968825253], "tags": {"leisure": "park", "name": "Pra\u00e7a Madre Maria", "opening_hours": "24/7", "operator": "Prefeitura de Ponta Grossa e Rotary Club"}}, {"type": "way", "id": 681385116, "nodes": [6380908940, 6380908941, 6380908942, 853366724, 6380908940], "tags": {"amenity": "school"}}, {"type": "way", "id": 681438540, "nodes": [8136921498, 8136921487, 8136921503, 8136921508, 8136921488, 8136921506, 8136921504, 8136921489, 8136921501, 8136921490, 8136921510, 8136921491, 8136921492, 8136921511, 8136921502, 8136921509, 8136921507, 8136921505, 8136921493, 8136921494, 8136921514, 8136921495, 8136921515, 8136921496, 8136921497, 8136921512, 8136921513, 8136921499, 8136921500, 8136921498], "tags": {"addr:city": "Ponta grossa", "addr:housenumber": "184", "addr:postcode": "84043-560", "addr:street": "R. Ruy Holzmann", "leisure": "park", "name": "Pra\u00e7a do Jardim Cana\u00e3"}}, {"type": "way", "id": 681447954, "nodes": [6381557798, 6381557799, 6381557800, 6381557801, 6381557798], "tags": {"leisure": "park"}}, {"type": "way", "id": 681447955, "nodes": [6381557802, 6381557803, 6381557804, 6381557805, 6381557802], "tags": {"leisure": "park"}}, {"type": "way", "id": 681453997, "nodes": [7802224998, 7802224999, 7802225000, 6381613544, 7802225051, 5459446456, 6381613545, 6381613546, 6381613547, 6381613548, 7802225058, 7802225057, 7802225072, 7802225074, 7802225073, 7802225060, 7802225059, 7802225061, 7802225062, 7802225063, 7802225054, 7802225053, 7802225052, 7802225049, 7802225050, 6381613553, 6381613554, 7802224997, 6381613555, 7802224998], "tags": {"leisure": "park"}}, {"type": "way", "id": 682251057, "nodes": [6389074127, 6389074128, 6389074129, 6389074130, 6389074127], "tags": {"leisure": "park", "name": "Campo de Futebol da UTFPR"}}, {"type": "way", "id": 682251461, "nodes": [6952972234, 6389077943, 6952972237, 1032627278, 6952972234], "tags": {"leisure": "park", "name": "Pra\u00e7a da Igreja Santa Terrezinha", "operator": "Igreja Santa Terrezinha", "source": "local knowledge"}}, {"type": "way", "id": 683259494, "nodes": [8519532718, 6399690952, 8445026999, 6838557344, 6838557343, 6399690950, 8519532718], "tags": {"leisure": "park"}}, {"type": "way", "id": 702387696, "nodes": [6595962575, 6595962572, 6595962571, 6595962574, 6595962570, 6595962573, 6595962569, 6595962566, 6595962568, 6595962567, 6595962564, 6595962561, 6595962563, 6595962562, 6595962560, 6595962557, 6595962559, 6595962556, 6595962558, 6595962575], "tags": {"alt_name": "Pra\u00e7a da Vila Isabel", "leisure": "park", "name": "Pra\u00e7a Ida Santos"}}, {"type": "way", "id": 703423752, "nodes": [6605849984, 1031007456]}, {"type": "way", "id": 703423753, "nodes": [6605849984, 6605849983], "tags": {"source": "Prefeitura de Ponta Grossa - PR"}}, {"type": "way", "id": 703423754, "nodes": [6605849983, 1031007468, 859537458, 6605849984], "tags": {"source": "Prefeitura de Ponta Grossa - PR"}}, {"type": "way", "id": 704871054, "nodes": [8763674073, 8763674072, 6620306789, 6620306793, 6620306790, 8763674071, 8763674073], "tags": {"leisure": "park"}}, {"type": "way", "id": 704871056, "nodes": [6620306795, 6620306796, 6620306797, 6620306798, 6620306795], "tags": {"leisure": "park"}}, {"type": "way", "id": 704899082, "nodes": [6620520861, 6620520860, 6620520859, 6620520858, 6620520857, 6620520861], "tags": {"leisure": "park", "name": "Pra\u00e7a do Esplanada"}}, {"type": "way", "id": 724072971, "nodes": [6790724474, 6790724475, 6790724476, 6790724477, 6790724478, 6790724479, 6790724480, 6790724481, 6790724483, 6790724484, 6790725785, 6790725786, 6790725787, 6790725788, 6790725789, 6790725790, 6790725791, 6790725792, 6790725793, 6790725794, 6790725813, 6790725812, 6790725814, 6790725815, 6790725816, 6790725811, 6790725795, 6790725810, 6790725796, 6790725797, 6790725798, 6790725799, 6790725800, 6790725801, 6790725802, 6790725803, 6790725804, 6790725805, 6790725806, 6790725807, 6790725808, 6790725809, 6790724474], "tags": {"grass": "urban", "landuse": "recreation_ground", "leisure": "park", "natural": "plateau", "surface": "grass"}}, {"type": "way", "id": 729606568, "nodes": [8444546032, 8444546033, 1045579534, 8445459011, 1045582355, 8444546032], "tags": {"leisure": "park"}}, {"type": "way", "id": 729606569, "nodes": [1045582355, 8445459011, 1045579534, 1045579523, 1095483133, 1095483182, 1095483186, 1045582355], "tags": {"leisure": "park"}}, {"type": "way", "id": 729606571, "nodes": [1049032303, 1049032305, 1049032405, 1049032303], "tags": {"addr:city": "Ponta Grossa", "addr:postcode": "84045-340", "addr:street": "Rua Doutor Franco Grilo", "addr:suburb": "Col. Dona Luiza", "leisure": "park", "name": "Pra\u00e7a Rocha Carvalh\u00e3es", "opening_hours": "24/7"}}, {"type": "way", "id": 730007959, "nodes": [6838679958, 6838679959, 6838679960, 6838679961, 6838679958], "tags": {"leisure": "park"}}, {"type": "way", "id": 730077507, "nodes": [6839363879, 6839363880, 6839363881, 6839363879], "tags": {"leisure": "park"}}, {"type": "way", "id": 730077508, "nodes": [6839363887, 6839363888, 6839363889, 6839363887], "tags": {"leisure": "park"}}, {"type": "way", "id": 730077526, "nodes": [6839363961, 6839363962, 6839363963, 6839363961], "tags": {"leisure": "park"}}, {"type": "way", "id": 730077527, "nodes": [6839363964, 6839363965, 6839363966, 6839363964], "tags": {"leisure": "park"}}, {"type": "way", "id": 730088736, "nodes": [6839451935, 6839451936, 6839451937, 8458775844, 6839451935], "tags": {"leisure": "park"}}, {"type": "way", "id": 730088737, "nodes": [6839451938, 6839451939, 6839451940, 8458775846, 6839451938], "tags": {"leisure": "park"}}, {"type": "way", "id": 730088741, "nodes": [6839451983, 6839451984, 6839451985, 6839451986, 6839451983], "tags": {"leisure": "park"}}, {"type": "way", "id": 730088754, "nodes": [6839452065, 6839452066, 6839452067, 6839452065], "tags": {"leisure": "park"}}, {"type": "way", "id": 730094683, "nodes": [6839519350, 6839519351, 6839519352, 6839519353, 6839519350], "tags": {"leisure": "park"}}, {"type": "way", "id": 730094684, "nodes": [6839519355, 6839519356, 6839519357, 6839519358, 6839519355], "tags": {"leisure": "park"}}, {"type": "way", "id": 730420871, "nodes": [6842493200, 6842493201, 6842493202, 6842493203, 6842493204, 6842493200], "tags": {"leisure": "park"}}, {"type": "way", "id": 730820829, "nodes": [6844998500, 6844998499, 6844998498, 6844998497, 6844998495, 6844998496, 6844998494, 6844998500], "tags": {"leisure": "park"}}, {"type": "way", "id": 730820839, "nodes": [6844998552, 6844998549, 6844998548, 6844998547, 6844998551, 6844998546, 6844998550, 6844998545, 6844998544, 6844998543, 6844998552], "tags": {"amenity": "school"}}, {"type": "way", "id": 730820845, "nodes": [6845024700, 6845024699, 6845024698, 6845024697, 6844998560, 6845024696, 6845024695, 6845024694, 6845024693, 6845024692, 6845024691, 6845024690, 6845024689, 6845024688, 6845024687, 6845024686, 6844998583, 6844998582, 6845024685, 6844998584, 6845024700], "tags": {"highway": "footway"}}, {"type": "way", "id": 749612963, "nodes": [7009829736, 7009829737, 7009829738, 7009829739, 7009829736], "tags": {"amenity": "restaurant", "building": "yes", "name": "Bloco O -  Restaurante Universitario"}}, {"type": "way", "id": 760187730, "nodes": [1031007456, 1031007482, 6605849983]}, {"type": "way", "id": 762965139, "nodes": [7129370942, 7129370943, 7129370944, 7129370945, 7129370946, 7129370947, 7129370948, 7129370949, 7129370963, 7129370940, 7129370942], "tags": {"leisure": "park"}}, {"type": "way", "id": 762965140, "nodes": [7129370940, 7129370963, 7129370964, 7129370962, 7129370961, 7129370960, 7129370959, 7129370958, 7129370957, 7129370956, 7129370955, 7129370950, 7129370951, 7129370952, 7129370953, 7129370940], "tags": {"leisure": "park"}}, {"type": "way", "id": 762965141, "nodes": [7129370965, 7129370966, 7129370967, 7129370968, 7129370969, 7129370970, 7129370971, 7129370972, 7129370973, 7129370974, 7129370975, 7129370954, 7129370976, 7129370965], "tags": {"leisure": "park"}}, {"type": "way", "id": 835836910, "nodes": [8136933365, 7801603813, 7801603814, 8136933364, 8136933363, 8136933365], "tags": {"leisure": "park"}}, {"type": "way", "id": 844822234, "nodes": [8456372438, 8456372440, 8456372439, 8456372438], "tags": {"leisure": "park"}}, {"type": "way", "id": 873992690, "nodes": [8136933188, 8136933187, 8136933186, 8136933185, 8136933184, 8136933183, 8136933182, 8136933181, 8136933180, 8136933179, 8136933178, 8136933177, 8136933176, 8136933175, 8136933174, 8136933173, 8136933172, 8136933171, 8136933170, 8136933169, 8136933168, 8136933167, 8136933166, 8136933188], "tags": {"leisure": "park"}}, {"type": "way", "id": 873992716, "nodes": [8136933384, 8136933381, 8136933380, 8136933383, 8136933379, 8136933378, 8136933377, 8136933382, 8136933376, 8136933375, 8136933374, 8136933373, 8136933384], "tags": {"leisure": "park"}}, {"type": "way", "id": 884740944, "nodes": [8227791528, 8227789756], "tags": {"highway": "cycleway"}}, {"type": "way", "id": 884740945, "nodes": [1060496217, 8227791580], "tags": {"highway": "cycleway"}}, {"type": "way", "id": 1074765245, "nodes": [9857791435, 9857791434, 9857791433, 9857791429, 9857791428, 9857791432, 9857791431, 9857791430, 9857791435], "tags": {"addr:housenumber": "747", "addr:street": "Rua Pastor Fugmann", "amenity": "hospital", "name": "Hospital Evang\u00e9lico", "source": "Prefeitura de Ponta Grossa - PR", "source_ref": "http://wiki.openstreetmap.org/wiki/Pt-br:WikiProject_Brazil/PR/Ponta_Grossa/Agreement"}}, {"type": "way", "id": 1076771218, "nodes": [7710093192, 5417055742, 9873845798, 9873845797, 2286165355, 2286165398, 7710093191, 7710093192], "tags": {"addr:city": "Ponta Grossa", "addr:housenumber": "601", "addr:postcode": "84031-510", "addr:street": "Alameda Nabuco de Ara\u00fajo", "addr:suburb": "Uvaranas", "amenity": "hospital", "emergency": "yes", "healthcare": "hospital", "healthcare:speciality": "general;maternity;radiology", "name": "Hospital Universit\u00e1rio Regional dos Campos Gerais"}}, {"type": "way", "id": 1177295043, "nodes": [10937309675, 10937309676, 10937309703, 845978994, 10937309675], "tags": {"leisure": "park"}}, {"type": "way", "id": 1177295055, "nodes": [10937332855, 10937332856, 10937332857, 10937332858, 10937332855], "tags": {"leisure": "park"}}, {"type": "way", "id": 1190272111, "nodes": [11051886958, 11051886959, 11051886960, 11051886961, 11051886962, 11051886958], "tags": {"leisure": "park", "name": "Pra\u00e7a Lourival Peracetta"}}, {"type": "way", "id": 1324503646, "nodes": [12256464716, 12256464717, 12256464718, 12256464719, 12256464720, 12256464721, 12256464716], "tags": {"amenity": "hospital", "healthcare": "hospital"}}, {"type": "way", "id": 1324506468, "nodes": [12256491258, 12256491259, 12256491260, 12256491261, 12256491262, 12256491263, 12256491264, 12256491265, 12256491266, 12256491267, 12256491258], "tags": {"amenity": "hospital", "healthcare": "hospital"}}, {"type": "way", "id": 1324741610, "nodes": [12258827595, 12258827596, 12258827597, 12258827598, 12258827595], "tags": {"amenity": "hospital", "healthcare": "hospital"}}, {"type": "way", "id": 1468584724, "nodes": [13469187078, 13469187079, 13469187086, 13469187080, 13469187081, 13469187082, 13469187083, 13469187084, 12186594923, 13469187085, 13469187078], "tags": {"leisure": "park"}}, {"type": "relation", "id": 9774605, "members": [{"type": "way", "ref": 703423753, "role": "outer"}, {"type": "way", "ref": 760187730, "role": "outer"}, {"type": "way", "ref": 703423752, "role": "outer"}], "tags": {"leisure": "park", "name": "Pra\u00e7a Alvaro Holzmann", "type": "multipolygon"}}, {"type": "relation", "id": 9774606, "members": [{"type": "way", "ref": 703423753, "role": "outer"}, {"type": "way", "ref": 703423754, "role": "outer"}], "tags": {"addr:housenumber": "2100", "addr:postcode": "84071-120", "addr:street": "Rua Alberto de Oliveira", "amenity": "school", "name": "Col\u00e9gio Estadual Doutor Epaminondas Novaes Ribas", "source_ref": "http://wiki.openstreetmap.org/wiki/Pt-br:WikiProject_Brazil/PR/Ponta_Grossa/Agreement", "type": "multipolygon"}}, {"type": "relation", "id": 10105988, "members": [{"type": "way", "ref": 730820845, "role": "outer"}], "tags": {"leisure": "park", "type": "multipolygon"}}, {"type": "relation", "id": 12017940, "members": [{"type": "way", "ref": 884740944, "role": "outer"}, {"type": "way", "ref": 551110529, "role": "outer"}, {"type": "way", "ref": 884740945, "role": "outer"}, {"type": "way", "ref": 551110530, "role": "outer"}], "tags": {"addr:city": "Ponta Grossa", "addr:street": "Rua Lagoa dos Bandeirantes", "addr:suburb": "Olarias", "leisure": "park", "name": "Lago de Olarias", "opening_hours": "24/7", "type": "multipolygon"}}]}